{"T0A": {"placeName": "Eastern Alberta (St. Paul)", "provinceCode": "AB", "lat": 54.766, "lng": -111.7174}, "T0B": {"placeName": "Wainwright Region (Tofield)", "provinceCode": "AB", "lat": 53.0727, "lng": -111.5816}, "T0C": {"placeName": "Central Alberta (Stettler)", "provinceCode": "AB", "lat": 52.1431, "lng": -111.6941}, "T0E": {"placeName": "Western Alberta (Jasper)", "provinceCode": "AB", "lat": 53.6758, "lng": -115.0948}, "T0G": {"placeName": "North Central Alberta (Slave Lake)", "provinceCode": "AB", "lat": 55.6993, "lng": -114.4529}, "T0H": {"placeName": "Northwestern Alberta (High Level)", "provinceCode": "AB", "lat": 57.5403, "lng": -116.9153}, "T0J": {"placeName": "Southeastern Alberta (Drumheller)", "provinceCode": "AB", "lat": 50.9944, "lng": -111.4632}, "T0K": {"placeName": "International Border Region (Cardston)", "provinceCode": "AB", "lat": 49.4721, "lng": -112.2408}, "T0L": {"placeName": "Kananaskis Country (Claresholm)", "provinceCode": "AB", "lat": 50.6314, "lng": -114.4089}, "T0M": {"placeName": "Central Foothills (Sundre)", "provinceCode": "AB", "lat": 51.9552, "lng": -114.8691}, "T0P": {"placeName": "Northeastern Alberta (Fort Chipewyan)", "provinceCode": "AB", "lat": 58.2626, "lng": -110.7467}, "T0V": {"placeName": "Remote Northeast (Fitzgerald)", "provinceCode": "AB", "lat": 59.9049, "lng": -111.6717}, "T1A": {"placeName": "Medicine Hat Central", "provinceCode": "AB", "lat": 50.0816, "lng": -110.5788}, "T1B": {"placeName": "Medicine Hat South", "provinceCode": "AB", "lat": 49.835, "lng": -110.5203}, "T1C": {"placeName": "Medicine Hat North", "provinceCode": "AB", "lat": 50.0774, "lng": -110.6911}, "T1G": {"placeName": "Taber", "provinceCode": "AB", "lat": 49.787, "lng": -112.146}, "T1H": {"placeName": "Lethbridge North", "provinceCode": "AB", "lat": 49.7, "lng": -112.8186}, "T1J": {"placeName": "Lethbridge West and Central", "provinceCode": "AB", "lat": 49.6581, "lng": -112.7484}, "T1K": {"placeName": "Lethbridge Southeast", "provinceCode": "AB", "lat": 49.6511, "lng": -112.8351}, "T1L": {"placeName": "Banff", "provinceCode": "AB", "lat": 51.1762, "lng": -115.5698}, "T1M": {"placeName": "Coaldale", "provinceCode": "AB", "lat": 49.7167, "lng": -112.6185}, "T1P": {"placeName": "Strathmore", "provinceCode": "AB", "lat": 51.0501, "lng": -113.3852}, "T1R": {"placeName": "Brooks", "provinceCode": "AB", "lat": 50.5834, "lng": -111.8851}, "T1S": {"placeName": "Okotoks", "provinceCode": "AB", "lat": 50.7362, "lng": -113.9695}, "T1V": {"placeName": "High River", "provinceCode": "AB", "lat": 50.5834, "lng": -113.8687}, "T1W": {"placeName": "Canmore", "provinceCode": "AB", "lat": 51.0876, "lng": -115.3461}, "T1X": {"placeName": "Chestermere", "provinceCode": "AB", "lat": 51.0334, "lng": -113.8187}, "T1Y": {"placeName": "Calgary (Rundle / Whitehorn / Monterey Park)", "provinceCode": "AB", "lat": 51.0823, "lng": -113.9578}, "T1Z": {"placeName": "Rocky View", "provinceCode": "AB", "lat": 51.1834, "lng": -113.9353}, "T2A": {"placeName": "Calgary (Penbrooke Meadows / Marlborough)", "provinceCode": "AB", "lat": 51.0494, "lng": -113.9564}, "T2B": {"placeName": "Calgary (Forest Lawn / Dover / Erin Woods)", "provinceCode": "AB", "lat": 51.0209, "lng": -113.981}, "T2C": {"placeName": "Calgary (Lynnwood Ridge / Ogden / Foothills Industrial / Great Plains)", "provinceCode": "AB", "lat": 50.987, "lng": -113.9634}, "T2E": {"placeName": "Calgary (Bridgeland / Greenview / Zoo / YYC)", "provinceCode": "AB", "lat": 51.0876, "lng": -114.0214}, "T2G": {"placeName": "Calgary (Inglewood / Burnsland / Chinatown / East Victoria Park / Saddledome)", "provinceCode": "AB", "lat": 51.0272, "lng": -114.0349}, "T2H": {"placeName": "Calgary (Highfield / Burns Industrial)", "provinceCode": "AB", "lat": 50.9894, "lng": -114.052}, "T2J": {"placeName": "Calgary (Queensland Downs / Lake Bonavista / Willow Park / Acadia)", "provinceCode": "AB", "lat": 50.8476, "lng": -114.1958}, "T2K": {"placeName": "Calgary (Thornecliffe / Tuxedo)", "provinceCode": "AB", "lat": 51.1111, "lng": -114.0477}, "T2L": {"placeName": "Calgary (Brentwood / Collingwood / Nose Hill)", "provinceCode": "AB", "lat": 51.1047, "lng": -114.1148}, "T2M": {"placeName": "Calgary (Mount Pleasant / Capitol Hill / Banff Trail)", "provinceCode": "AB", "lat": 51.133, "lng": -113.856}, "T2N": {"placeName": "Calgary (Kensington / Westmont / Parkdale / University)", "provinceCode": "AB", "lat": 51.0621, "lng": -114.1159}, "T2P": {"placeName": "Calgary (City Centre / Calgary Tower)", "provinceCode": "AB", "lat": 51.0708, "lng": -113.6931}, "T2R": {"placeName": "Calgary (Connaught / West Victoria Park)", "provinceCode": "AB", "lat": 51.0412, "lng": -114.0762}, "T2S": {"placeName": "Calgary (Elbow Park / Britannia / Parkhill / Mission)", "provinceCode": "AB", "lat": 51.0233, "lng": -114.071}, "T2T": {"placeName": "Calgary South (Altadore / Bankview / Richmond)", "provinceCode": "AB", "lat": 51.0242, "lng": -114.1004}, "T2V": {"placeName": "Calgary (Oak Ridge / Haysboro / Kingsland / Windsor Park)", "provinceCode": "AB", "lat": 50.9819, "lng": -114.1004}, "T2W": {"placeName": "Calgary (Braeside / Woodbine)", "provinceCode": "AB", "lat": 50.9514, "lng": -114.3591}, "T2X": {"placeName": "Calgary (Midnapore / Sundance)", "provinceCode": "AB", "lat": 50.8837, "lng": -114.0326}, "T2Y": {"placeName": "Calgary (Millrise / Somerset / Bridlewood / Evergreen)", "provinceCode": "AB", "lat": 50.9093, "lng": -114.1028}, "T2Z": {"placeName": "Calgary (Douglas Glen / McKenzie Lake / Copperfield / East Shepard)", "provinceCode": "AB", "lat": 50.9278, "lng": -113.9682}, "T3A": {"placeName": "Calgary (Dalhousie / Edgemont / Hamptons / Hidden Valley)", "provinceCode": "AB", "lat": 51.1264, "lng": -114.1419}, "T3B": {"placeName": "Calgary (Montgomery / Bowness / Silver Springs / Greenwood)", "provinceCode": "AB", "lat": 51.0915, "lng": -114.2073}, "T3C": {"placeName": "Calgary (Rosscarrock / Wildwood / Shaganappi / Sunalta)", "provinceCode": "AB", "lat": 51.0497, "lng": -114.1394}, "T3E": {"placeName": "Calgary (Lakeview / Glendale / Killarney / Glamorgan)", "provinceCode": "AB", "lat": 50.9899, "lng": -114.1574}, "T3G": {"placeName": "Calgary (Hawkwood / Arbour Lake / Royal Oak / Rocky Ridge)", "provinceCode": "AB", "lat": 51.1387, "lng": -114.2015}, "T3H": {"placeName": "Calgary (Discovery Ridge / Signal Hill / Aspen Woods / Patterson / Cougar Ridge)", "provinceCode": "AB", "lat": 51.0419, "lng": -114.2}, "T3J": {"placeName": "Calgary (Martindale / Taradale / Falconridge / Saddle Ridge)", "provinceCode": "AB", "lat": 51.1188, "lng": -113.9471}, "T3K": {"placeName": "Calgary (Sandstone / Harvest Hills / Coventry Hills / Panorama Hills / Beddington)", "provinceCode": "AB", "lat": 51.1563, "lng": -114.0572}, "T3L": {"placeName": "Calgary (Tuscany / Scenic Acres)", "provinceCode": "AB", "lat": 51.1467, "lng": -114.3133}, "T3M": {"placeName": "Calgary (Cranston)", "provinceCode": "AB", "lat": 50.8796, "lng": -113.9555}, "T3N": {"placeName": "Calgary Northeast", "provinceCode": "AB", "lat": 51.1626, "lng": -113.9537}, "T3P": {"placeName": "Calgary (Symons Valley)", "provinceCode": "AB", "lat": 51.2074, "lng": -114.1348}, "T3R": {"placeName": "Calgary Northwest", "provinceCode": "AB", "lat": 51.2021, "lng": -114.2453}, "T3S": {"placeName": "Calgary", "provinceCode": "AB", "lat": 50.9153, "lng": -113.8932}, "T3Z": {"placeName": "Redwood Meadows", "provinceCode": "AB", "lat": 51.0691, "lng": -114.4727}, "T4A": {"placeName": "Airdrie East", "provinceCode": "AB", "lat": 51.2799, "lng": -113.988}, "T4B": {"placeName": "Airdrie West", "provinceCode": "AB", "lat": 51.3082, "lng": -114.0398}, "T4C": {"placeName": "Cochrane", "provinceCode": "AB", "lat": 51.1834, "lng": -114.4687}, "T4E": {"placeName": "Red Deer County", "provinceCode": "AB", "lat": 52.2765, "lng": -113.7063}, "T4G": {"placeName": "Innisfail", "provinceCode": "AB", "lat": 52.0269, "lng": -113.9507}, "T4H": {"placeName": "Olds", "provinceCode": "AB", "lat": 51.7834, "lng": -114.102}, "T4J": {"placeName": "Ponoka", "provinceCode": "AB", "lat": 52.6768, "lng": -113.5815}, "T4L": {"placeName": "Lacombe", "provinceCode": "AB", "lat": 52.4668, "lng": -113.7353}, "T4M": {"placeName": "Blackfalds", "provinceCode": "AB", "lat": 52.3834, "lng": -113.7853}, "T4N": {"placeName": "Red Deer Central", "provinceCode": "AB", "lat": 52.2316, "lng": -113.8358}, "T4P": {"placeName": "Red Deer North", "provinceCode": "AB", "lat": 52.2954, "lng": -113.8073}, "T4R": {"placeName": "Red Deer South", "provinceCode": "AB", "lat": 52.2424, "lng": -113.7784}, "T4S": {"placeName": "Sylvan Lake", "provinceCode": "AB", "lat": 52.3168, "lng": -114.0853}, "T4T": {"placeName": "Rocky Mountain House", "provinceCode": "AB", "lat": 52.3668, "lng": -114.9188}, "T4V": {"placeName": "Camrose", "provinceCode": "AB", "lat": 53.0168, "lng": -112.8353}, "T4X": {"placeName": "Beaumont", "provinceCode": "AB", "lat": 53.3501, "lng": -113.4187}, "T5A": {"placeName": "Edmonton (West Clareview / East Londonderry)", "provinceCode": "AB", "lat": 53.5931, "lng": -113.4077}, "T5B": {"placeName": "Edmonton (East North Central / West Beverly)", "provinceCode": "AB", "lat": 53.7353, "lng": -113.3369}, "T5C": {"placeName": "Edmonton (Central Londonderry)", "provinceCode": "AB", "lat": 53.5996, "lng": -113.4549}, "T5E": {"placeName": "Edmonton (West Londonderry / East Calder)", "provinceCode": "AB", "lat": 53.7454, "lng": -113.4465}, "T5G": {"placeName": "Edmonton (North Central / Queen Mary Park / YXD)", "provinceCode": "AB", "lat": 53.5705, "lng": -113.5051}, "T5H": {"placeName": "Edmonton (North and East Downtown Fringe)", "provinceCode": "AB", "lat": 53.5514, "lng": -113.4916}, "T5J": {"placeName": "Edmonton (North Downtown)", "provinceCode": "AB", "lat": 53.5428, "lng": -113.4974}, "T5K": {"placeName": "Edmonton (South Downtown / South Downtown Fringe)", "provinceCode": "AB", "lat": 53.5366, "lng": -113.5103}, "T5L": {"placeName": "Edmonton (North Westmount / West Calder / East Mistatim)", "provinceCode": "AB", "lat": 53.585, "lng": -113.5526}, "T5M": {"placeName": "Edmonton (South Westmount / Groat Estate / East Northwest Industrial)", "provinceCode": "AB", "lat": 53.563, "lng": -113.5662}, "T5N": {"placeName": "Edmonton (Glenora / SW Downtown Fringe)", "provinceCode": "AB", "lat": 53.5436, "lng": -113.5574}, "T5P": {"placeName": "Edmonton (North Jasper Place)", "provinceCode": "AB", "lat": 53.5463, "lng": -113.5957}, "T5R": {"placeName": "Edmonton (Central Jasper Place / Buena Vista)", "provinceCode": "AB", "lat": 53.5181, "lng": -113.5797}, "T5S": {"placeName": "Edmonton (West Northwest Industrial / Winterburn)", "provinceCode": "AB", "lat": 53.5634, "lng": -113.6697}, "T5T": {"placeName": "Edmonton West (West Jasper Place / West Edmonton Mall)", "provinceCode": "AB", "lat": 53.5185, "lng": -113.6579}, "T5V": {"placeName": "Edmonton (Central Mistatim)", "provinceCode": "AB", "lat": 53.5848, "lng": -113.6224}, "T5W": {"placeName": "Edmonton (Central Beverly)", "provinceCode": "AB", "lat": 53.5645, "lng": -113.4022}, "T5X": {"placeName": "Edmonton (East Castledowns)", "provinceCode": "AB", "lat": 53.6313, "lng": -113.5245}, "T5Y": {"placeName": "Edmonton (Landbank / Oliver / East Lake District)", "provinceCode": "AB", "lat": 53.6585, "lng": -113.3614}, "T5Z": {"placeName": "Edmonton (West Lake District)", "provinceCode": "AB", "lat": 53.6365, "lng": -113.4673}, "T6A": {"placeName": "Edmonton (North Capilano)", "provinceCode": "AB", "lat": 53.5482, "lng": -113.4318}, "T6B": {"placeName": "Edmonton (SE Capilano / West Southeast Industrial / East Bonnie Doon)", "provinceCode": "AB", "lat": 53.5128, "lng": -113.4194}, "T6C": {"placeName": "Edmonton (Central Bonnie Doon)", "provinceCode": "AB", "lat": 53.522, "lng": -113.459}, "T6E": {"placeName": "Edmonton (South Bonnie Doon / East University)", "provinceCode": "AB", "lat": 53.4914, "lng": -113.4802}, "T6G": {"placeName": "Edmonton (West University / Strathcona Place)", "provinceCode": "AB", "lat": 53.521, "lng": -113.5324}, "T6H": {"placeName": "Edmonton (Southgate / North Riverbend)", "provinceCode": "AB", "lat": 53.3753, "lng": -113.4585}, "T6J": {"placeName": "Edmonton (Kaskitayo)", "provinceCode": "AB", "lat": 53.4564, "lng": -113.521}, "T6K": {"placeName": "Edmonton (West Mill Woods)", "provinceCode": "AB", "lat": 53.4609, "lng": -113.4519}, "T6L": {"placeName": "Edmonton (East Mill Woods)", "provinceCode": "AB", "lat": 53.4593, "lng": -113.4145}, "T6M": {"placeName": "Edmonton Southwest", "provinceCode": "AB", "lat": 53.4593, "lng": -113.6546}, "T6N": {"placeName": "Edmonton (South Industrial)", "provinceCode": "AB", "lat": 53.465, "lng": -113.4776}, "T6P": {"placeName": "Edmonton (East Southeast Industrial / South Clover Bar)", "provinceCode": "AB", "lat": 53.5078, "lng": -113.3723}, "T6R": {"placeName": "Edmonton (Riverbend)", "provinceCode": "AB", "lat": 53.4567, "lng": -113.5801}, "T6S": {"placeName": "Edmonton (North Clover Bar)", "provinceCode": "AB", "lat": 53.5806, "lng": -113.3374}, "T6T": {"placeName": "Edmonton (Meadows)", "provinceCode": "AB", "lat": 53.4617, "lng": -113.371}, "T6V": {"placeName": "Edmonton (West Castledowns)", "provinceCode": "AB", "lat": 53.6112, "lng": -113.5746}, "T6W": {"placeName": "Edmonton (Heritage Valley)", "provinceCode": "AB", "lat": 53.4179, "lng": -113.5785}, "T6X": {"placeName": "Edmonton (Ellerslie)", "provinceCode": "AB", "lat": 53.4154, "lng": -113.4178}, "T7A": {"placeName": "Drayton Valley", "provinceCode": "AB", "lat": 53.2168, "lng": -114.9854}, "T7E": {"placeName": "Edson", "provinceCode": "AB", "lat": 53.5834, "lng": -116.4356}, "T7N": {"placeName": "Barrhead", "provinceCode": "AB", "lat": 54.1334, "lng": -114.4021}, "T7P": {"placeName": "Westlock", "provinceCode": "AB", "lat": 54.1502, "lng": -113.8688}, "T7S": {"placeName": "Whitecourt", "provinceCode": "AB", "lat": 54.1501, "lng": -115.6855}, "T7V": {"placeName": "Hinton", "provinceCode": "AB", "lat": 53.4001, "lng": -117.5857}, "T7X": {"placeName": "Spruce Grove North", "provinceCode": "AB", "lat": 53.5334, "lng": -113.9187}, "T7Y": {"placeName": "Spruce Grove South", "provinceCode": "AB", "lat": 53.4184, "lng": -113.8097}, "T7Z": {"placeName": "Stony Plain", "provinceCode": "AB", "lat": 53.5334, "lng": -114.0021}, "T8A": {"placeName": "Sherwood Park West", "provinceCode": "AB", "lat": 53.528, "lng": -113.2512}, "T8B": {"placeName": "Sherwood Park Outer Southwest", "provinceCode": "AB", "lat": 53.4397, "lng": -113.2952}, "T8C": {"placeName": "Sherwood Park Inner Southwest", "provinceCode": "AB", "lat": 53.4391, "lng": -113.1903}, "T8E": {"placeName": "Sherwood Park Central", "provinceCode": "AB", "lat": 53.5225, "lng": -113.1022}, "T8G": {"placeName": "Sherwood Park East", "provinceCode": "AB", "lat": 53.5052, "lng": -112.9529}, "T8H": {"placeName": "Sherwood Park Northwest", "provinceCode": "AB", "lat": 53.556, "lng": -113.2952}, "T8L": {"placeName": "Fort Saskatchewan", "provinceCode": "AB", "lat": 53.7168, "lng": -113.2187}, "T8N": {"placeName": "St. Albert", "provinceCode": "AB", "lat": 53.6334, "lng": -113.6353}, "T8R": {"placeName": "Morinville", "provinceCode": "AB", "lat": 53.8001, "lng": -113.652}, "T8S": {"placeName": "Peace River", "provinceCode": "AB", "lat": 56.2501, "lng": -117.286}, "T8T": {"placeName": "St. Albert", "provinceCode": "AB", "lat": 53.6867, "lng": -113.7102}, "T8V": {"placeName": "Grande Prairie Central", "provinceCode": "AB", "lat": 55.1808, "lng": -118.9103}, "T8W": {"placeName": "Grande Prairie South", "provinceCode": "AB", "lat": 55.1303, "lng": -118.7946}, "T8X": {"placeName": "Grande Prairie East", "provinceCode": "AB", "lat": 55.1834, "lng": -118.7457}, "T9A": {"placeName": "Wetaskiwin", "provinceCode": "AB", "lat": 52.9668, "lng": -113.3687}, "T9C": {"placeName": "Vegreville", "provinceCode": "AB", "lat": 53.5001, "lng": -112.0518}, "T9E": {"placeName": "Leduc", "provinceCode": "AB", "lat": 53.2668, "lng": -113.552}, "T9G": {"placeName": "Devon", "provinceCode": "AB", "lat": 53.3668, "lng": -113.7353}, "T9H": {"placeName": "Fort McMurray Outer Central", "provinceCode": "AB", "lat": 56.664, "lng": -111.1357}, "T9J": {"placeName": "Fort McMurray Inner Central", "provinceCode": "AB", "lat": 56.707, "lng": -111.3771}, "T9K": {"placeName": "Fort McMurray Northwest", "provinceCode": "AB", "lat": 56.7538, "lng": -111.435}, "T9M": {"placeName": "Cold Lake", "provinceCode": "AB", "lat": 54.4502, "lng": -110.2017}, "T9N": {"placeName": "Bonnyville", "provinceCode": "AB", "lat": 54.2668, "lng": -110.7351}, "T9S": {"placeName": "Athabasca", "provinceCode": "AB", "lat": 54.7169, "lng": -113.2854}, "T9V": {"placeName": "Lloydminster", "provinceCode": "AB", "lat": 53.2717, "lng": -110.0853}, "T9W": {"placeName": "Wainwright", "provinceCode": "AB", "lat": 52.839, "lng": -110.8572}, "T9X": {"placeName": "Vermilion", "provinceCode": "AB", "lat": 53.3669, "lng": -110.8517}, "V5K": {"placeName": "Vancouver (North Hastings-Sunrise)", "provinceCode": "BC", "lat": 49.2807, "lng": -123.0397}, "V5L": {"placeName": "Vancouver (North Grandview-Woodlands)", "provinceCode": "BC", "lat": 49.2795, "lng": -123.0667}, "V5M": {"placeName": "Vancouver (South Hastings-Sunrise / North Renfrew-Collingwood)", "provinceCode": "BC", "lat": 49.26, "lng": -123.0398}, "V5N": {"placeName": "Vancouver (South Grandview-Woodlands / NE Kensington)", "provinceCode": "BC", "lat": 49.2551, "lng": -123.0667}, "V5P": {"placeName": "Vancouver (SE Kensington / Victoria-Fraserview)", "provinceCode": "BC", "lat": 49.222, "lng": -123.0683}, "V5R": {"placeName": "Vancouver (South Renfrew-Collingwood)", "provinceCode": "BC", "lat": 49.2397, "lng": -123.0407}, "V5S": {"placeName": "Vancouver (Killarney)", "provinceCode": "BC", "lat": 49.2175, "lng": -123.038}, "V5T": {"placeName": "Vancouver (East Mount Pleasant)", "provinceCode": "BC", "lat": 49.262, "lng": -123.0923}, "V5V": {"placeName": "Vancouver (West Kensington / NE Riley Park-Little Mountain)", "provinceCode": "BC", "lat": 49.248, "lng": -123.0913}, "V5W": {"placeName": "Vancouver (SE Riley Park-Little Mountain / SW Kensington / NE Oakridge / North Sunset)", "provinceCode": "BC", "lat": 49.2327, "lng": -123.0917}, "V5X": {"placeName": "Vancouver (SE Oakridge / East Marpole / South Sunset)", "provinceCode": "BC", "lat": 49.2156, "lng": -123.0979}, "V5Y": {"placeName": "Vancouver (West Mount Pleasant / West Riley Park-Little Mountain)", "provinceCode": "BC", "lat": 49.2492, "lng": -123.1104}, "V5Z": {"placeName": "Vancouver (East Fairview / South Cambie)", "provinceCode": "BC", "lat": 49.2475, "lng": -123.121}, "V6A": {"placeName": "Vancouver (Strathcona / Chinatown / Downtown Eastside)", "provinceCode": "BC", "lat": 49.2779, "lng": -123.0908}, "V6B": {"placeName": "Vancouver (NE Downtown / Harbour Centre / Gastown / Yaletown)", "provinceCode": "BC", "lat": 49.2788, "lng": -123.1139}, "V6C": {"placeName": "Vancouver (Waterfront / Coal Harbour / Canada Place)", "provinceCode": "BC", "lat": 49.2866, "lng": -123.1158}, "V6E": {"placeName": "Vancouver (South West End)", "provinceCode": "BC", "lat": 49.2833, "lng": -123.1298}, "V6G": {"placeName": "Vancouver (North West End / Stanley Park)", "provinceCode": "BC", "lat": 49.299, "lng": -123.1408}, "V6H": {"placeName": "Vancouver (West Fairview / Granville Island / NE Shaughnessy)", "provinceCode": "BC", "lat": 49.2559, "lng": -123.1322}, "V6J": {"placeName": "Vancouver (NW Shaughnessy / East Kitsilano / Quilchena)", "provinceCode": "BC", "lat": 49.2603, "lng": -123.146}, "V6K": {"placeName": "Vancouver (Central Kitsilano)", "provinceCode": "BC", "lat": 49.2646, "lng": -123.1648}, "V6L": {"placeName": "Vancouver (NW Arbutus Ridge)", "provinceCode": "BC", "lat": 49.2497, "lng": -123.166}, "V6M": {"placeName": "Vancouver (South Shaughnessy / NW Oakridge / NE Kerrisdale / SE Arbutus Ridge)", "provinceCode": "BC", "lat": 49.2344, "lng": -123.1451}, "V6N": {"placeName": "Vancouver (Dunbar-Southlands / Musqueam)", "provinceCode": "BC", "lat": 49.2302, "lng": -123.189}, "V6P": {"placeName": "Vancouver (SE Kerrisdale / SW Oakridge / West Marpole)", "provinceCode": "BC", "lat": 49.2151, "lng": -123.1396}, "V6R": {"placeName": "Vancouver (West Kitsilano / Jericho)", "provinceCode": "BC", "lat": 49.2666, "lng": -123.1976}, "V6S": {"placeName": "Vancouver (Chaldecutt / South University Endowment Lands)", "provinceCode": "BC", "lat": 49.2491, "lng": -123.2088}, "V6T": {"placeName": "Vancouver (UBC)", "provinceCode": "BC", "lat": 49.4635, "lng": -122.822}, "V6Z": {"placeName": "Vancouver (SW Downtown)", "provinceCode": "BC", "lat": 49.2767, "lng": -123.13}, "V7G": {"placeName": "North Vancouver Outer East", "provinceCode": "BC", "lat": 49.3678, "lng": -122.9278}, "V7H": {"placeName": "North Vancouver Inner East", "provinceCode": "BC", "lat": 49.3551, "lng": -122.9802}, "V7J": {"placeName": "North Vancouver East Central", "provinceCode": "BC", "lat": 49.3622, "lng": -123.0178}, "V7K": {"placeName": "North Vancouver North Central", "provinceCode": "BC", "lat": 49.3597, "lng": -123.0377}, "V7L": {"placeName": "North Vancouver South Central", "provinceCode": "BC", "lat": 49.316, "lng": -123.0576}, "V7M": {"placeName": "North Vancouver Southwest Central", "provinceCode": "BC", "lat": 49.3222, "lng": -123.0834}, "V7N": {"placeName": "North Vancouver Northwest Central", "provinceCode": "BC", "lat": 49.35, "lng": -123.0679}, "V7P": {"placeName": "North Vancouver Southwest", "provinceCode": "BC", "lat": 49.322, "lng": -123.1149}, "V7R": {"placeName": "North Vancouver Northwest", "provinceCode": "BC", "lat": 49.3775, "lng": -123.0862}, "V7S": {"placeName": "West Vancouver North", "provinceCode": "BC", "lat": 49.3745, "lng": -123.1864}, "V7T": {"placeName": "West Vancouver Southeast", "provinceCode": "BC", "lat": 49.3322, "lng": -123.1417}, "V7V": {"placeName": "West Vancouver South", "provinceCode": "BC", "lat": 49.3397, "lng": -123.1912}, "V7W": {"placeName": "West Vancouver West", "provinceCode": "BC", "lat": 49.3615, "lng": -123.2627}, "V7X": {"placeName": "Vancouver (Bentall Centre)", "provinceCode": "BC", "lat": 49.2935, "lng": -123.1162}, "V7Y": {"placeName": "Vancouver (Pacific Centre)", "provinceCode": "BC", "lat": 49.2819, "lng": -123.119}, "V0A": {"placeName": "Upper Columbia Region (Golden)", "provinceCode": "BC", "lat": 51.2994, "lng": -116.939}, "V0B": {"placeName": "East Kootenays (Fernie)", "provinceCode": "BC", "lat": 49.6775, "lng": -115.5636}, "V0C": {"placeName": "Northern British Columbia (Fort Nelson)", "provinceCode": "BC", "lat": 58.3874, "lng": -125.7167}, "V0E": {"placeName": "Central Okanagan and High Country (Revelstoke)", "provinceCode": "BC", "lat": 51.505, "lng": -119.2034}, "V0G": {"placeName": "West Kootenays (Rossland)", "provinceCode": "BC", "lat": 50.053, "lng": -117.4291}, "V0H": {"placeName": "South Okanagan (Summerland)", "provinceCode": "BC", "lat": 49.4089, "lng": -119.0054}, "V0J": {"placeName": "Omineca and Yellowhead (Smithers)", "provinceCode": "BC", "lat": 55.9964, "lng": -126.8574}, "V0K": {"placeName": "Cariboo and West Okanagan (100 Mile House)", "provinceCode": "BC", "lat": 51.4367, "lng": -121.6384}, "V0L": {"placeName": "Chilcotin (Alexis Creek)", "provinceCode": "BC", "lat": 52.0993, "lng": -123.6526}, "V0M": {"placeName": "Harrison Lake Region (Agassiz)", "provinceCode": "BC", "lat": 49.6346, "lng": -122.038}, "V0N": {"placeName": "North Island, Sunshine Coast, and Southern Gulf Islands (Whistler)", "provinceCode": "BC", "lat": 51.2944, "lng": -126.0745}, "V0P": {"placeName": "North Central Island and Bute Inlet Region (Gold River)", "provinceCode": "BC", "lat": 49.8866, "lng": -126.2673}, "V0R": {"placeName": "Central Island (Chemainus)", "provinceCode": "BC", "lat": 49.027, "lng": -124.8461}, "V0S": {"placeName": "Juan de Fuca Shore (Sooke)", "provinceCode": "BC", "lat": 48.5432, "lng": -123.672}, "V0T": {"placeName": "Inside Passage and the Queen Charlottes (Queen Charlotte City)", "provinceCode": "BC", "lat": 52.2338, "lng": -126.2134}, "V0V": {"placeName": "Lower Skeena (Port Edward)", "provinceCode": "BC", "lat": 53.9725, "lng": -129.8986}, "V0W": {"placeName": "Atlin Region (Atlin)", "provinceCode": "BC", "lat": 59.6378, "lng": -133.5433}, "V0X": {"placeName": "Similkameen (Hope)", "provinceCode": "BC", "lat": 49.3688, "lng": -120.6569}, "V1A": {"placeName": "Kimberley", "provinceCode": "BC", "lat": 49.6832, "lng": -115.9855}, "V1B": {"placeName": "Vernon East", "provinceCode": "BC", "lat": 50.084, "lng": -118.938}, "V1C": {"placeName": "Cranbrook", "provinceCode": "BC", "lat": 49.4999, "lng": -115.7688}, "V1E": {"placeName": "Salmon Arm", "provinceCode": "BC", "lat": 50.6998, "lng": -119.2691}, "V1G": {"placeName": "Dawson Creek", "provinceCode": "BC", "lat": 55.7666, "lng": -120.2362}, "V1H": {"placeName": "Vernon West", "provinceCode": "BC", "lat": 50.2868, "lng": -119.4975}, "V1J": {"placeName": "Fort St. John", "provinceCode": "BC", "lat": 56.2499, "lng": -120.8529}, "V1K": {"placeName": "Merritt", "provinceCode": "BC", "lat": 50.1122, "lng": -120.7942}, "V1L": {"placeName": "Nelson", "provinceCode": "BC", "lat": 49.4999, "lng": -117.2855}, "V1M": {"placeName": "Langley Township North", "provinceCode": "BC", "lat": 49.1661, "lng": -122.5792}, "V1N": {"placeName": "Castlegar", "provinceCode": "BC", "lat": 49.2998, "lng": -117.6689}, "V1P": {"placeName": "Kelowna East", "provinceCode": "BC", "lat": 49.8959, "lng": -119.1724}, "V1R": {"placeName": "Trail", "provinceCode": "BC", "lat": 49.0998, "lng": -117.7022}, "V1S": {"placeName": "Kamloops Southwest", "provinceCode": "BC", "lat": 50.5583, "lng": -120.5477}, "V1T": {"placeName": "Vernon Central", "provinceCode": "BC", "lat": 50.2604, "lng": -119.2774}, "V1V": {"placeName": "Kelowna North", "provinceCode": "BC", "lat": 49.9497, "lng": -119.4339}, "V1W": {"placeName": "Kelowna Southwest", "provinceCode": "BC", "lat": 49.812, "lng": -119.5076}, "V1X": {"placeName": "Kelowna East Central", "provinceCode": "BC", "lat": 50.0528, "lng": -119.2858}, "V1Y": {"placeName": "Kelowna Central", "provinceCode": "BC", "lat": 49.8928, "lng": -119.4852}, "V1Z": {"placeName": "Kelowna West", "provinceCode": "BC", "lat": 49.8625, "lng": -119.5833}, "V2A": {"placeName": "Penticton", "provinceCode": "BC", "lat": 49.4806, "lng": -119.5858}, "V2B": {"placeName": "Kamloops Northwest", "provinceCode": "BC", "lat": 50.8869, "lng": -120.7357}, "V2C": {"placeName": "Kamloops Central and Southeast", "provinceCode": "BC", "lat": 50.5437, "lng": -120.0937}, "V2E": {"placeName": "Kamloops South and West", "provinceCode": "BC", "lat": 50.6736, "lng": -120.4212}, "V2G": {"placeName": "Williams Lake", "provinceCode": "BC", "lat": 52.1415, "lng": -122.1445}, "V2H": {"placeName": "Kamloops North", "provinceCode": "BC", "lat": 50.7262, "lng": -120.1659}, "V2J": {"placeName": "Quesnel", "provinceCode": "BC", "lat": 52.9784, "lng": -122.4931}, "V2K": {"placeName": "Prince George North", "provinceCode": "BC", "lat": 54.0508, "lng": -122.9221}, "V2L": {"placeName": "Prince George East Central", "provinceCode": "BC", "lat": 53.9078, "lng": -122.7473}, "V2M": {"placeName": "Prince George West Central", "provinceCode": "BC", "lat": 53.9127, "lng": -122.8708}, "V2N": {"placeName": "Prince George South", "provinceCode": "BC", "lat": 53.6408, "lng": -122.954}, "V2P": {"placeName": "Chilliwack Central", "provinceCode": "BC", "lat": 49.1838, "lng": -121.9046}, "V2R": {"placeName": "Chilliwack West", "provinceCode": "BC", "lat": 49.076, "lng": -121.9883}, "V2S": {"placeName": "Abbotsford Southeast", "provinceCode": "BC", "lat": 49.0423, "lng": -122.2835}, "V2T": {"placeName": "Abbotsford Southwest", "provinceCode": "BC", "lat": 49.0384, "lng": -122.3485}, "V2V": {"placeName": "Mission East", "provinceCode": "BC", "lat": 49.6463, "lng": -122.5047}, "V2W": {"placeName": "Maple Ridge East", "provinceCode": "BC", "lat": 49.2068, "lng": -122.4851}, "V2X": {"placeName": "Maple Ridge West", "provinceCode": "BC", "lat": 49.2196, "lng": -122.6164}, "V2Y": {"placeName": "Langley Township Northwest", "provinceCode": "BC", "lat": 49.1285, "lng": -122.6236}, "V2Z": {"placeName": "Langley Township Southwest", "provinceCode": "BC", "lat": 49.0483, "lng": -122.5997}, "V3A": {"placeName": "Langley City", "provinceCode": "BC", "lat": 49.0997, "lng": -122.6526}, "V3B": {"placeName": "Port Coquitlam Central", "provinceCode": "BC", "lat": 49.274, "lng": -122.7649}, "V3C": {"placeName": "Port Coquitlam South", "provinceCode": "BC", "lat": 49.2436, "lng": -122.7865}, "V3E": {"placeName": "Port Coquitlam North", "provinceCode": "BC", "lat": 49.3167, "lng": -122.7384}, "V3G": {"placeName": "Abbotsford East", "provinceCode": "BC", "lat": 49.0754, "lng": -122.178}, "V3H": {"placeName": "Port Moody", "provinceCode": "BC", "lat": 49.3231, "lng": -122.8626}, "V3J": {"placeName": "Coquitlam North", "provinceCode": "BC", "lat": 49.265, "lng": -122.8716}, "V3K": {"placeName": "Coquitlam South", "provinceCode": "BC", "lat": 49.2366, "lng": -122.8521}, "V3L": {"placeName": "New Westminster Northeast", "provinceCode": "BC", "lat": 49.2201, "lng": -122.8998}, "V3M": {"placeName": "New Westminster Southwest (Includes Annacis Island)", "provinceCode": "BC", "lat": 49.1886, "lng": -122.9384}, "V3N": {"placeName": "Burnaby (East Big Bend / Stride Avenue / Edmonds / Cariboo-Armstrong)", "provinceCode": "BC", "lat": 49.2275, "lng": -122.9301}, "V3R": {"placeName": "Surrey North", "provinceCode": "BC", "lat": 49.1948, "lng": -122.8131}, "V3S": {"placeName": "Surrey East", "provinceCode": "BC", "lat": 49.0791, "lng": -122.7553}, "V3T": {"placeName": "Surrey Inner Northwest", "provinceCode": "BC", "lat": 49.1894, "lng": -122.8454}, "V3V": {"placeName": "Surrey Outer Northwest", "provinceCode": "BC", "lat": 49.1889, "lng": -122.873}, "V3W": {"placeName": "Surrey Upper West", "provinceCode": "BC", "lat": 49.141, "lng": -122.8569}, "V3X": {"placeName": "Surrey Lower West", "provinceCode": "BC", "lat": 49.1067, "lng": -122.8576}, "V3Y": {"placeName": "Pitt Meadows", "provinceCode": "BC", "lat": 49.2212, "lng": -122.6896}, "V3Z": {"placeName": "Surrey", "provinceCode": "BC", "lat": 49.1064, "lng": -122.8251}, "V4A": {"placeName": "Surrey Southwest", "provinceCode": "BC", "lat": 49.0374, "lng": -122.8299}, "V4B": {"placeName": "White Rock", "provinceCode": "BC", "lat": 49.0259, "lng": -122.8058}, "V4C": {"placeName": "Delta Northeast", "provinceCode": "BC", "lat": 49.1551, "lng": -122.9124}, "V4E": {"placeName": "Delta East", "provinceCode": "BC", "lat": 49.1197, "lng": -122.9056}, "V4G": {"placeName": "Delta East Central", "provinceCode": "BC", "lat": 49.1464, "lng": -123.0137}, "V4K": {"placeName": "Delta Central", "provinceCode": "BC", "lat": 49.0986, "lng": -123.0318}, "V4L": {"placeName": "Delta Southeast", "provinceCode": "BC", "lat": 49.0418, "lng": -123.0591}, "V4M": {"placeName": "Delta Southwest", "provinceCode": "BC", "lat": 49.0331, "lng": -123.0877}, "V4N": {"placeName": "Surrey Northeast", "provinceCode": "BC", "lat": 49.1707, "lng": -122.7326}, "V4P": {"placeName": "Surrey South", "provinceCode": "BC", "lat": 49.0561, "lng": -122.8302}, "V4R": {"placeName": "Maple Ridge Northwest", "provinceCode": "BC", "lat": 49.2903, "lng": -122.5169}, "V4S": {"placeName": "Mission West", "provinceCode": "BC", "lat": 49.2528, "lng": -122.3574}, "V4T": {"placeName": "Westbank", "provinceCode": "BC", "lat": 49.866, "lng": -119.7387}, "V4V": {"placeName": "Winfield", "provinceCode": "BC", "lat": 50.0221, "lng": -119.4054}, "V4W": {"placeName": "Langley Township East", "provinceCode": "BC", "lat": 49.0713, "lng": -122.4977}, "V4X": {"placeName": "Abbotsford West", "provinceCode": "BC", "lat": 49.0861, "lng": -122.4026}, "V4Z": {"placeName": "Chilliwack East", "provinceCode": "BC", "lat": 49.0787, "lng": -121.6098}, "V5A": {"placeName": "Burnaby (Government Road / Lake City / SFU / Burnaby Mountain)", "provinceCode": "BC", "lat": 49.264, "lng": -122.9369}, "V5B": {"placeName": "Burnaby (Parkcrest-Aubrey / Ardingley-Sprott)", "provinceCode": "BC", "lat": 49.2769, "lng": -122.9761}, "V5C": {"placeName": "Burnaby (Burnaby Heights / Willingdon Heights / West Central Valley)", "provinceCode": "BC", "lat": 49.274, "lng": -123.0074}, "V5E": {"placeName": "Burnaby (Lakeview-Mayfield / Richmond Park / Kingsway-Beresford)", "provinceCode": "BC", "lat": 49.2272, "lng": -122.9574}, "V5G": {"placeName": "Burnaby (Cascade-Schou / Douglas-Gilpin)", "provinceCode": "BC", "lat": 49.2478, "lng": -122.9938}, "V5H": {"placeName": "Burnaby (Maywood / Marlborough / Oakalla / Windsor)", "provinceCode": "BC", "lat": 49.2302, "lng": -122.9952}, "V5J": {"placeName": "Burnaby (Suncrest / Sussex-Nelson / Clinton-Glenwood / West Big Bend)", "provinceCode": "BC", "lat": 49.2038, "lng": -122.9921}, "V6V": {"placeName": "Richmond Northeast", "provinceCode": "BC", "lat": 49.1853, "lng": -123.0386}, "V6W": {"placeName": "Richmond Southeast", "provinceCode": "BC", "lat": 49.1534, "lng": -123.048}, "V6X": {"placeName": "Richmond North", "provinceCode": "BC", "lat": 49.1836, "lng": -123.1168}, "V6Y": {"placeName": "Richmond Central", "provinceCode": "BC", "lat": 49.17, "lng": -123.1368}, "V7A": {"placeName": "Richmond South", "provinceCode": "BC", "lat": 49.1205, "lng": -123.1171}, "V7B": {"placeName": "Richmond (Sea Island / YVR)", "provinceCode": "BC", "lat": 49.1988, "lng": -123.1799}, "V7C": {"placeName": "Richmond West", "provinceCode": "BC", "lat": 49.1626, "lng": -123.1721}, "V7E": {"placeName": "Richmond Southwest", "provinceCode": "BC", "lat": 49.1323, "lng": -123.1705}, "V8A": {"placeName": "Powell River", "provinceCode": "BC", "lat": 50.0163, "lng": -124.3226}, "V8B": {"placeName": "Squamish", "provinceCode": "BC", "lat": 49.7002, "lng": -123.156}, "V8C": {"placeName": "Kitimat", "provinceCode": "BC", "lat": 54.0524, "lng": -128.6534}, "V8E": {"placeName": "Whistler", "provinceCode": "BC", "lat": 50.1182, "lng": -122.954}, "V8G": {"placeName": "Terrace", "provinceCode": "BC", "lat": 54.5163, "lng": -128.6035}, "V8J": {"placeName": "Prince Rupert", "provinceCode": "BC", "lat": 54.3161, "lng": -130.3201}, "V8K": {"placeName": "Saltspring Island", "provinceCode": "BC", "lat": 48.8138, "lng": -123.4973}, "V8L": {"placeName": "Sidney", "provinceCode": "BC", "lat": 48.6496, "lng": -123.4026}, "V8M": {"placeName": "Central Saanich", "provinceCode": "BC", "lat": 48.5663, "lng": -123.4193}, "V8N": {"placeName": "Saanich East", "provinceCode": "BC", "lat": 48.4765, "lng": -123.3145}, "V8P": {"placeName": "Saanich Southeast", "provinceCode": "BC", "lat": 48.4583, "lng": -123.3325}, "V8R": {"placeName": "Oak Bay North", "provinceCode": "BC", "lat": 48.4496, "lng": -123.3026}, "V8S": {"placeName": "Oak Bay South", "provinceCode": "BC", "lat": 48.42, "lng": -123.3047}, "V8T": {"placeName": "Victoria North", "provinceCode": "BC", "lat": 48.4392, "lng": -123.3566}, "V8V": {"placeName": "Victoria South", "provinceCode": "BC", "lat": 48.4167, "lng": -123.365}, "V8W": {"placeName": "Victoria Central British Columbia Provincial Government", "provinceCode": "BC", "lat": 48.4267, "lng": -123.3655}, "V8X": {"placeName": "Saanich South", "provinceCode": "BC", "lat": 48.4777, "lng": -123.3658}, "V8Y": {"placeName": "Saanich North", "provinceCode": "BC", "lat": 48.5247, "lng": -123.3745}, "V8Z": {"placeName": "Saanich Central", "provinceCode": "BC", "lat": 48.4993, "lng": -123.4003}, "V9A": {"placeName": "Esquimalt", "provinceCode": "BC", "lat": 48.4496, "lng": -123.4193}, "V9B": {"placeName": "Highlands", "provinceCode": "BC", "lat": 48.4793, "lng": -123.5271}, "V9C": {"placeName": "Metchosin", "provinceCode": "BC", "lat": 48.3829, "lng": -123.5359}, "V9E": {"placeName": "Saanich West", "provinceCode": "BC", "lat": 48.5219, "lng": -123.453}, "V9G": {"placeName": "Ladysmith", "provinceCode": "BC", "lat": 48.9829, "lng": -123.8194}, "V9H": {"placeName": "Campbell River Outskirts", "provinceCode": "BC", "lat": 49.9088, "lng": -125.5862}, "V9J": {"placeName": "Courtenay Northern Outskirts", "provinceCode": "BC", "lat": 49.7242, "lng": -125.2604}, "V9K": {"placeName": "Qualicum Beach", "provinceCode": "BC", "lat": 49.3468, "lng": -124.4361}, "V9L": {"placeName": "Duncan", "provinceCode": "BC", "lat": 48.7829, "lng": -123.7027}, "V9M": {"placeName": "Comox", "provinceCode": "BC", "lat": 49.6829, "lng": -124.9361}, "V9N": {"placeName": "Courtenay Central", "provinceCode": "BC", "lat": 49.6585, "lng": -124.9835}, "V9P": {"placeName": "Parksville", "provinceCode": "BC", "lat": 49.3163, "lng": -124.3194}, "V9R": {"placeName": "Nanaimo South", "provinceCode": "BC", "lat": 49.1609, "lng": -123.9825}, "V9S": {"placeName": "Nanaimo Central", "provinceCode": "BC", "lat": 49.1886, "lng": -123.963}, "V9T": {"placeName": "Nanaimo North", "provinceCode": "BC", "lat": 49.2146, "lng": -124.02}, "V9V": {"placeName": "Nanaimo Northwest", "provinceCode": "BC", "lat": 49.2391, "lng": -124.0227}, "V9W": {"placeName": "Campbell River Central", "provinceCode": "BC", "lat": 50.0769, "lng": -125.5909}, "V9X": {"placeName": "Cedar", "provinceCode": "BC", "lat": 49.0419, "lng": -123.979}, "V9Y": {"placeName": "Port Alberni", "provinceCode": "BC", "lat": 49.2413, "lng": -124.8028}, "V9Z": {"placeName": "Sooke", "provinceCode": "BC", "lat": 48.3746, "lng": -123.7276}, "R5K": {"placeName": "Lorette", "provinceCode": "MB", "lat": 49.7392, "lng": -96.8723}, "R0A": {"placeName": "Southeastern Manitoba (Lorette)", "provinceCode": "MB", "lat": 49.2911, "lng": -96.2985}, "R0B": {"placeName": "Northern Manitoba (Norway House)", "provinceCode": "MB", "lat": 56.2701, "lng": -96.9118}, "R0C": {"placeName": "North Interlake (Stonewall)", "provinceCode": "MB", "lat": 51.4132, "lng": -97.8525}, "R0E": {"placeName": "Eastern Manitoba (Beausejour)", "provinceCode": "MB", "lat": 50.4751, "lng": -95.961}, "R0G": {"placeName": "South Central Manitoba (Altona)", "provinceCode": "MB", "lat": 49.4394, "lng": -98.0869}, "R0H": {"placeName": "South Interlake (MacGregor)", "provinceCode": "MB", "lat": 50.3458, "lng": -98.5152}, "R0J": {"placeName": "Riding Mountain (Neepawa)", "provinceCode": "MB", "lat": 50.5842, "lng": -100.1345}, "R0K": {"placeName": "Brandon Region (Killarney)", "provinceCode": "MB", "lat": 49.555, "lng": -99.7154}, "R0L": {"placeName": "Western Manitoba (Swan River)", "provinceCode": "MB", "lat": 52.0092, "lng": -100.2901}, "R0M": {"placeName": "Southwestern Manitoba (Virden)", "provinceCode": "MB", "lat": 49.711, "lng": -100.9263}, "R1A": {"placeName": "Selkirk", "provinceCode": "MB", "lat": 50.1436, "lng": -96.8845}, "R1B": {"placeName": "Lockport", "provinceCode": "MB", "lat": 50.084, "lng": -96.9353}, "R1C": {"placeName": "Narol", "provinceCode": "MB", "lat": 50.055, "lng": -96.9781}, "R1N": {"placeName": "Portage la Prairie", "provinceCode": "MB", "lat": 49.9728, "lng": -98.2926}, "R2C": {"placeName": "Winnipeg (Transcona)", "provinceCode": "MB", "lat": 49.9247, "lng": -96.9563}, "R2E": {"placeName": "East St. Paul", "provinceCode": "MB", "lat": 49.9791, "lng": -97.0128}, "R2G": {"placeName": "Winnipeg (River East North)", "provinceCode": "MB", "lat": 49.9413, "lng": -97.0571}, "R2H": {"placeName": "Winnipeg (St. Boniface NW)", "provinceCode": "MB", "lat": 49.8846, "lng": -97.1186}, "R2J": {"placeName": "Winnipeg (St. Boniface NE)", "provinceCode": "MB", "lat": 49.8665, "lng": -97.0633}, "R2K": {"placeName": "Winnipeg (River East Central)", "provinceCode": "MB", "lat": 49.9203, "lng": -97.083}, "R2L": {"placeName": "Winnipeg (River East South)", "provinceCode": "MB", "lat": 49.9075, "lng": -97.0996}, "R2M": {"placeName": "Winnipeg (St. Vital North)", "provinceCode": "MB", "lat": 49.8396, "lng": -97.1147}, "R2N": {"placeName": "Winnipeg (St. Vital SW)", "provinceCode": "MB", "lat": 49.7838, "lng": -97.0973}, "R2P": {"placeName": "Winnipeg (Seven Oaks West)", "provinceCode": "MB", "lat": 49.9696, "lng": -97.1554}, "R2R": {"placeName": "Winnipeg (Inkster West)", "provinceCode": "MB", "lat": 49.9377, "lng": -97.2162}, "R2V": {"placeName": "Winnipeg (Seven Oaks East)", "provinceCode": "MB", "lat": 49.9548, "lng": -97.1112}, "R2W": {"placeName": "Winnipeg (Point Douglas East)", "provinceCode": "MB", "lat": 49.9195, "lng": -97.1354}, "R2X": {"placeName": "Winnipeg (Point Douglas West / Inkster East)", "provinceCode": "MB", "lat": 49.9322, "lng": -97.1733}, "R2Y": {"placeName": "Winnipeg (St. James-Assiniboia NW)", "provinceCode": "MB", "lat": 49.9073, "lng": -97.2945}, "R3A": {"placeName": "Winnipeg (Centennial)", "provinceCode": "MB", "lat": 49.9038, "lng": -97.1489}, "R3B": {"placeName": "Winnipeg (Chinatown / Civic Centre / Exchange District)", "provinceCode": "MB", "lat": 49.898, "lng": -97.1401}, "R3C": {"placeName": "Winnipeg (Broadway / The Forks / Portage and Main) Manitoba Provincial Government", "provinceCode": "MB", "lat": 50.011, "lng": -97.2184}, "R3E": {"placeName": "Winnipeg (Sargent Park / Daniel McIntyre / Inkster SE)", "provinceCode": "MB", "lat": 49.9081, "lng": -97.1779}, "R3G": {"placeName": "Winnipeg (Minto / St. Mathews / Wolseley)", "provinceCode": "MB", "lat": 49.8876, "lng": -97.1807}, "R3H": {"placeName": "Winnipeg (St. James-Assiniboia NE / YWG)", "provinceCode": "MB", "lat": 49.9033, "lng": -97.2074}, "R3J": {"placeName": "Winnipeg (St. James-Assiniboia SE)", "provinceCode": "MB", "lat": 49.8966, "lng": -97.2404}, "R3K": {"placeName": "Winnipeg (St. James-Assiniboia SW)", "provinceCode": "MB", "lat": 49.8734, "lng": -97.307}, "R3L": {"placeName": "Winnipeg (River Heights East)", "provinceCode": "MB", "lat": 49.867, "lng": -97.1356}, "R3M": {"placeName": "Winnipeg (River Heights Central)", "provinceCode": "MB", "lat": 49.8625, "lng": -97.1665}, "R3N": {"placeName": "Winnipeg (River Heights West)", "provinceCode": "MB", "lat": 49.8629, "lng": -97.1959}, "R3P": {"placeName": "Winnipeg (Fort Garry NW / Tuxedo)", "provinceCode": "MB", "lat": 49.8425, "lng": -97.2182}, "R3R": {"placeName": "Winnipeg (Assiniboine South / Betsworth)", "provinceCode": "MB", "lat": 49.8546, "lng": -97.2874}, "R3S": {"placeName": "Winnipeg (Wilkes South)", "provinceCode": "MB", "lat": 49.8255, "lng": -97.2934}, "R3T": {"placeName": "Winnipeg (Fort Garry NE / University of Manitoba)", "provinceCode": "MB", "lat": 49.8143, "lng": -97.1531}, "R3V": {"placeName": "Winnipeg (Fort Garry South)", "provinceCode": "MB", "lat": 49.7462, "lng": -97.1745}, "R3W": {"placeName": "Winnipeg (Grassie / Pequis)", "provinceCode": "MB", "lat": 49.9141, "lng": -97.0401}, "R3X": {"placeName": "Winnipeg (St. Boniface South / St. Vital SE)", "provinceCode": "MB", "lat": 49.8209, "lng": -97.0322}, "R3Y": {"placeName": "Winnipeg (Fort Garry West)", "provinceCode": "MB", "lat": 49.7885, "lng": -97.2147}, "R4A": {"placeName": "West St. Paul", "provinceCode": "MB", "lat": 50.0211, "lng": -97.1147}, "R4G": {"placeName": "Oak Bluff", "provinceCode": "MB", "lat": 49.7736, "lng": -97.3221}, "R4H": {"placeName": "Headingley East", "provinceCode": "MB", "lat": 49.8761, "lng": -97.3812}, "R4J": {"placeName": "Headingley West", "provinceCode": "MB", "lat": 49.8467, "lng": -97.4319}, "R4K": {"placeName": "Cartier", "provinceCode": "MB", "lat": 49.8908, "lng": -97.6004}, "R4L": {"placeName": "St. Francois Xavier", "provinceCode": "MB", "lat": 49.9372, "lng": -97.5545}, "R5A": {"placeName": "St. Adolphe", "provinceCode": "MB", "lat": 49.712, "lng": -97.0836}, "R5G": {"placeName": "Steinbach", "provinceCode": "MB", "lat": 49.5258, "lng": -96.6845}, "R5H": {"placeName": "Ste. Anne", "provinceCode": "MB", "lat": 49.6697, "lng": -96.65}, "R6M": {"placeName": "Morden", "provinceCode": "MB", "lat": 49.1919, "lng": -98.1014}, "R6W": {"placeName": "Winkler", "provinceCode": "MB", "lat": 49.1817, "lng": -97.941}, "R7A": {"placeName": "Brandon Southeast", "provinceCode": "MB", "lat": 49.8174, "lng": -99.9565}, "R7B": {"placeName": "Brandon Southwest", "provinceCode": "MB", "lat": 49.842, "lng": -99.9831}, "R7C": {"placeName": "Brandon North", "provinceCode": "MB", "lat": 49.8817, "lng": -99.965}, "R7N": {"placeName": "Dauphin", "provinceCode": "MB", "lat": 51.1494, "lng": -100.0502}, "R8A": {"placeName": "Flin Flon", "provinceCode": "MB", "lat": 54.7682, "lng": -101.865}, "R8N": {"placeName": "Thompson", "provinceCode": "MB", "lat": 55.7435, "lng": -97.8558}, "R9A": {"placeName": "The Pas", "provinceCode": "MB", "lat": 53.704, "lng": -101.2933}, "E1A": {"placeName": "Dieppe Moncton East", "provinceCode": "NB", "lat": 46.0967, "lng": -64.7087}, "E1B": {"placeName": "Riverview", "provinceCode": "NB", "lat": 46.0545, "lng": -64.816}, "E1C": {"placeName": "Moncton Central", "provinceCode": "NB", "lat": 46.0987, "lng": -64.8036}, "E1E": {"placeName": "Moncton West", "provinceCode": "NB", "lat": 46.0771, "lng": -64.8529}, "E1G": {"placeName": "Moncton Northwest", "provinceCode": "NB", "lat": 46.1797, "lng": -64.9484}, "E1H": {"placeName": "Lakeville, Shediac Bridge", "provinceCode": "NB", "lat": 46.1732, "lng": -64.6957}, "E1J": {"placeName": "Coverdale", "provinceCode": "NB", "lat": 45.9976, "lng": -64.8483}, "E1N": {"placeName": "Miramichi South", "provinceCode": "NB", "lat": 46.9501, "lng": -65.3239}, "E1V": {"placeName": "Miramichi North", "provinceCode": "NB", "lat": 47.1942, "lng": -65.9381}, "E1W": {"placeName": "Caraquet", "provinceCode": "NB", "lat": 47.7941, "lng": -64.9386}, "E1X": {"placeName": "Tracadie-Sheila", "provinceCode": "NB", "lat": 47.5144, "lng": -64.9181}, "E2A": {"placeName": "Bathurst", "provinceCode": "NB", "lat": 47.6181, "lng": -65.6511}, "E2E": {"placeName": "Rothesay, Quispamsis", "provinceCode": "NB", "lat": 45.4137, "lng": -65.982}, "E2G": {"placeName": "Quispamsis", "provinceCode": "NB", "lat": 45.4534, "lng": -65.931}, "E2H": {"placeName": "Saint John Northeast, Renforth", "provinceCode": "NB", "lat": 45.35, "lng": -66.0101}, "E2J": {"placeName": "Saint John East", "provinceCode": "NB", "lat": 45.2563, "lng": -65.9432}, "E2K": {"placeName": "Saint John North", "provinceCode": "NB", "lat": 45.3053, "lng": -66.0808}, "E2L": {"placeName": "Saint John Central", "provinceCode": "NB", "lat": 45.2717, "lng": -66.0584}, "E2M": {"placeName": "Saint John West", "provinceCode": "NB", "lat": 45.2347, "lng": -66.1749}, "E2N": {"placeName": "Saint John Lakewood", "provinceCode": "NB", "lat": 45.3176, "lng": -65.9271}, "E2P": {"placeName": "Saint John Red Head", "provinceCode": "NB", "lat": 45.2426, "lng": -65.9847}, "E2R": {"placeName": "Saint John Grandview", "provinceCode": "NB", "lat": 46.0368, "lng": -66.0373}, "E2S": {"placeName": "Saint John Loch Lomond", "provinceCode": "NB", "lat": 45.3371, "lng": -65.8133}, "E2V": {"placeName": "Oromocto", "provinceCode": "NB", "lat": 45.8351, "lng": -66.4792}, "E3A": {"placeName": "Fredericton North", "provinceCode": "NB", "lat": 46.0401, "lng": -66.3862}, "E3B": {"placeName": "Fredericton South New Brunswick Provincial Government", "provinceCode": "NB", "lat": 45.8119, "lng": -66.6763}, "E3C": {"placeName": "Fredericton Southwest, New Maryland", "provinceCode": "NB", "lat": 45.902, "lng": -66.7057}, "E3E": {"placeName": "Kingsclear", "provinceCode": "NB", "lat": 45.8834, "lng": -66.9156}, "E3G": {"placeName": "Fredericton", "provinceCode": "NB", "lat": 46.0546, "lng": -66.7344}, "E3L": {"placeName": "St. Stephen", "provinceCode": "NB", "lat": 45.1804, "lng": -67.2953}, "E3N": {"placeName": "Campbellton", "provinceCode": "NB", "lat": 48.0075, "lng": -66.6727}, "E3V": {"placeName": "Edmundston", "provinceCode": "NB", "lat": 47.3737, "lng": -68.3251}, "E3Y": {"placeName": "Grand Falls Northeast", "provinceCode": "NB", "lat": 47.1683, "lng": -67.6207}, "E3Z": {"placeName": "Grand Falls Central", "provinceCode": "NB", "lat": 46.9266, "lng": -67.7466}, "E4A": {"placeName": "Bathurst", "provinceCode": "NB", "lat": 46.1599, "lng": -65.8102}, "E4B": {"placeName": "Minto", "provinceCode": "NB", "lat": 46.0848, "lng": -66.0622}, "E4C": {"placeName": "Youngs Cove", "provinceCode": "NB", "lat": 45.8693, "lng": -65.9006}, "E4E": {"placeName": "Sussex", "provinceCode": "NB", "lat": 45.7227, "lng": -65.5066}, "E4G": {"placeName": "Smiths Creek", "provinceCode": "NB", "lat": 45.8552, "lng": -65.4795}, "E4H": {"placeName": "Hillsborough", "provinceCode": "NB", "lat": 45.9199, "lng": -64.6552}, "E4J": {"placeName": "Salisbury", "provinceCode": "NB", "lat": 46.0391, "lng": -65.0463}, "E4K": {"placeName": "Dorchester", "provinceCode": "NB", "lat": 45.9016, "lng": -64.508}, "E4L": {"placeName": "Sackville", "provinceCode": "NB", "lat": 45.9188, "lng": -64.3845}, "E4M": {"placeName": "Bayfield", "provinceCode": "NB", "lat": 46.0919, "lng": -64.0173}, "E4N": {"placeName": "Cap-Pel\u00e9", "provinceCode": "NB", "lat": 46.2129, "lng": -64.2784}, "E4P": {"placeName": "Shediac", "provinceCode": "NB", "lat": 46.2198, "lng": -64.5411}, "E4R": {"placeName": "Cocagne", "provinceCode": "NB", "lat": 46.3324, "lng": -64.6187}, "E4S": {"placeName": "Bouctouche", "provinceCode": "NB", "lat": 46.4684, "lng": -64.739}, "E4T": {"placeName": "Bass River", "provinceCode": "NB", "lat": 46.3042, "lng": -64.972}, "E4V": {"placeName": "Saint-Antoine", "provinceCode": "NB", "lat": 46.3629, "lng": -64.7499}, "E4W": {"placeName": "Richibucto", "provinceCode": "NB", "lat": 46.6807, "lng": -64.8804}, "E4X": {"placeName": "St-Louis-de-Kent", "provinceCode": "NB", "lat": 46.7401, "lng": -64.9698}, "E4Y": {"placeName": "Rogersville", "provinceCode": "NB", "lat": 46.7345, "lng": -65.427}, "E4Z": {"placeName": "Petitcodiac", "provinceCode": "NB", "lat": 45.9394, "lng": -65.1802}, "E5A": {"placeName": "Moores Mills", "provinceCode": "NB", "lat": 45.3705, "lng": -67.1737}, "E5B": {"placeName": "St. Andrews", "provinceCode": "NB", "lat": 45.0845, "lng": -67.0617}, "E5C": {"placeName": "St. George", "provinceCode": "NB", "lat": 45.1265, "lng": -66.8314}, "E5E": {"placeName": "Campobello Island", "provinceCode": "NB", "lat": 44.8908, "lng": -66.9318}, "E5G": {"placeName": "Grand Manan Island", "provinceCode": "NB", "lat": 44.6976, "lng": -66.8065}, "E5H": {"placeName": "Pennfield", "provinceCode": "NB", "lat": 45.1168, "lng": -66.6822}, "E5J": {"placeName": "Lepreau", "provinceCode": "NB", "lat": 45.1979, "lng": -66.4308}, "E5K": {"placeName": "Grand Bay-Westfield", "provinceCode": "NB", "lat": 45.3407, "lng": -66.2528}, "E5L": {"placeName": "Fredericton Junction", "provinceCode": "NB", "lat": 45.6604, "lng": -66.6139}, "E5M": {"placeName": "Gagetown", "provinceCode": "NB", "lat": 45.7701, "lng": -66.1617}, "E5N": {"placeName": "Hampton", "provinceCode": "NB", "lat": 45.5288, "lng": -65.8535}, "E5P": {"placeName": "Apohaqui", "provinceCode": "NB", "lat": 45.7599, "lng": -65.6704}, "E5R": {"placeName": "St. Martins", "provinceCode": "NB", "lat": 45.351, "lng": -65.5457}, "E5S": {"placeName": "Kingston", "provinceCode": "NB", "lat": 45.4098, "lng": -66.0932}, "E5T": {"placeName": "Norton", "provinceCode": "NB", "lat": 45.6508, "lng": -65.7302}, "E5V": {"placeName": "Deer Island", "provinceCode": "NB", "lat": 44.9862, "lng": -66.9694}, "E6A": {"placeName": "Boiestown", "provinceCode": "NB", "lat": 46.4558, "lng": -66.4198}, "E6B": {"placeName": "Stanley", "provinceCode": "NB", "lat": 46.3381, "lng": -66.9058}, "E6C": {"placeName": "Durham Bridge", "provinceCode": "NB", "lat": 46.1168, "lng": -66.5989}, "E6E": {"placeName": "Millville", "provinceCode": "NB", "lat": 46.1307, "lng": -67.1962}, "E6G": {"placeName": "Nackawic", "provinceCode": "NB", "lat": 45.9967, "lng": -67.2403}, "E6H": {"placeName": "Canterbury", "provinceCode": "NB", "lat": 45.8954, "lng": -67.4678}, "E6J": {"placeName": "McAdam", "provinceCode": "NB", "lat": 45.5923, "lng": -67.307}, "E6K": {"placeName": "Harvey", "provinceCode": "NB", "lat": 45.729, "lng": -67.0064}, "E6L": {"placeName": "Burtts Corner", "provinceCode": "NB", "lat": 45.9881, "lng": -67.0338}, "E7A": {"placeName": "Baker Brook", "provinceCode": "NB", "lat": 47.3, "lng": -68.7487}, "E7B": {"placeName": "Saint-Jacques", "provinceCode": "NB", "lat": 47.5655, "lng": -68.3127}, "E7C": {"placeName": "Saint-Basile", "provinceCode": "NB", "lat": 47.6583, "lng": -68.0684}, "E7E": {"placeName": "Saint-Leonard", "provinceCode": "NB", "lat": 47.173, "lng": -67.9247}, "E7G": {"placeName": "Plaster Rock", "provinceCode": "NB", "lat": 46.9065, "lng": -67.39}, "E7H": {"placeName": "Perth-Andover", "provinceCode": "NB", "lat": 46.7355, "lng": -67.7039}, "E7J": {"placeName": "Bath", "provinceCode": "NB", "lat": 46.5807, "lng": -67.5911}, "E7K": {"placeName": "Centreville", "provinceCode": "NB", "lat": 46.3982, "lng": -67.7174}, "E7L": {"placeName": "Florenceville", "provinceCode": "NB", "lat": 46.5528, "lng": -67.305}, "E7M": {"placeName": "Woodstock", "provinceCode": "NB", "lat": 46.158, "lng": -67.5838}, "E7N": {"placeName": "Debec", "provinceCode": "NB", "lat": 46.0555, "lng": -67.5839}, "E7P": {"placeName": "Hartland", "provinceCode": "NB", "lat": 46.2999, "lng": -67.5167}, "E8A": {"placeName": "Saint-Quentin", "provinceCode": "NB", "lat": 47.5133, "lng": -67.3929}, "E8B": {"placeName": "Kedgwick", "provinceCode": "NB", "lat": 47.6446, "lng": -67.3434}, "E8C": {"placeName": "Dalhousie", "provinceCode": "NB", "lat": 48.055, "lng": -66.3847}, "E8E": {"placeName": "Balmoral", "provinceCode": "NB", "lat": 47.679, "lng": -66.4342}, "E8G": {"placeName": "Belledune", "provinceCode": "NB", "lat": 47.8023, "lng": -66.1243}, "E8J": {"placeName": "Petit-Rocher", "provinceCode": "NB", "lat": 47.7941, "lng": -65.8219}, "E8K": {"placeName": "Beresford", "provinceCode": "NB", "lat": 47.6913, "lng": -65.6989}, "E8L": {"placeName": "Allardville", "provinceCode": "NB", "lat": 47.475, "lng": -65.495}, "E8M": {"placeName": "Saint-Isidore", "provinceCode": "NB", "lat": 47.5765, "lng": -65.1379}, "E8N": {"placeName": "Grande-Anse", "provinceCode": "NB", "lat": 47.8078, "lng": -65.1945}, "E8P": {"placeName": "Inkerman", "provinceCode": "NB", "lat": 47.6672, "lng": -64.8248}, "E8R": {"placeName": "Paquetville", "provinceCode": "NB", "lat": 47.6383, "lng": -65.1709}, "E8S": {"placeName": "Shippagan", "provinceCode": "NB", "lat": 47.7287, "lng": -64.7247}, "E8T": {"placeName": "Lam\u00e8que", "provinceCode": "NB", "lat": 47.7936, "lng": -64.6475}, "E9A": {"placeName": "Baie-Sainte-Anne", "provinceCode": "NB", "lat": 47.0188, "lng": -64.92}, "E9B": {"placeName": "Blackville", "provinceCode": "NB", "lat": 46.7398, "lng": -65.8319}, "E9C": {"placeName": "Doaktown", "provinceCode": "NB", "lat": 46.557, "lng": -66.1257}, "E9E": {"placeName": "Red Bank", "provinceCode": "NB", "lat": 46.8486, "lng": -65.6772}, "E9G": {"placeName": "Neguac", "provinceCode": "NB", "lat": 47.2489, "lng": -65.0741}, "E9H": {"placeName": "Brantville", "provinceCode": "NB", "lat": 47.3528, "lng": -65.0538}, "A0A": {"placeName": "Southeastern Avalon Peninsula (Ferryland)", "provinceCode": "NL", "lat": 47.2195, "lng": -53.1448}, "A0B": {"placeName": "Western Avalon Peninsula (Argentia)", "provinceCode": "NL", "lat": 47.327, "lng": -53.6609}, "A0C": {"placeName": "Bonavista Peninsula (Bonavista)", "provinceCode": "NL", "lat": 48.3843, "lng": -53.9081}, "A0E": {"placeName": "Burin Peninsula (Marystown)", "provinceCode": "NL", "lat": 47.5607, "lng": -54.7801}, "A0G": {"placeName": "Northeast Newfoundland (Lewisporte)", "provinceCode": "NL", "lat": 48.8657, "lng": -54.7296}, "A0H": {"placeName": "Central Newfoundland (Bishops Falls)", "provinceCode": "NL", "lat": 48.4311, "lng": -56.1758}, "A0J": {"placeName": "Northern Newfoundland (Springdale)", "provinceCode": "NL", "lat": 49.5067, "lng": -56.2616}, "A0K": {"placeName": "Northwest Newfoundland/Eastern Labrador (Mary's Harbour)", "provinceCode": "NL", "lat": 52.7359, "lng": -57.9825}, "A0L": {"placeName": "Western Newfoundland (Lark Harbour)", "provinceCode": "NL", "lat": 48.9445, "lng": -58.0645}, "A0M": {"placeName": "Southwestern Newfoundland (Channel-Port aux Basques)", "provinceCode": "NL", "lat": 47.8037, "lng": -58.3869}, "A0N": {"placeName": "Port au Port Peninsula region (St. George's)", "provinceCode": "NL", "lat": 48.0868, "lng": -57.8231}, "A0P": {"placeName": "Central Labrador (Happy Valley-Goose Bay)", "provinceCode": "NL", "lat": 54.9549, "lng": -61.6024}, "A0R": {"placeName": "North/Western Labrador (Churchill Falls)", "provinceCode": "NL", "lat": 53.54, "lng": -65.112}, "A1A": {"placeName": "St. John's North", "provinceCode": "NL", "lat": 47.5986, "lng": -52.6926}, "A1B": {"placeName": "St. John's Northwest Newfoundland & Labrador Provincial Government", "provinceCode": "NL", "lat": 47.5698, "lng": -52.7796}, "A1C": {"placeName": "St. John's North Central", "provinceCode": "NL", "lat": 47.5124, "lng": -52.6729}, "A1E": {"placeName": "St. John's Central", "provinceCode": "NL", "lat": 47.5334, "lng": -52.7595}, "A1G": {"placeName": "St. John's South", "provinceCode": "NL", "lat": 47.506, "lng": -52.7603}, "A1H": {"placeName": "St. John's Southwest", "provinceCode": "NL", "lat": 47.483, "lng": -52.8415}, "A1K": {"placeName": "Torbay", "provinceCode": "NL", "lat": 47.6666, "lng": -52.7313}, "A1L": {"placeName": "Paradise", "provinceCode": "NL", "lat": 47.5291, "lng": -52.8814}, "A1M": {"placeName": "Portugal Cove-St. Philips", "provinceCode": "NL", "lat": 47.6207, "lng": -52.8318}, "A1N": {"placeName": "Mount Pearl", "provinceCode": "NL", "lat": 47.5194, "lng": -52.8122}, "A1S": {"placeName": "Goulds", "provinceCode": "NL", "lat": 47.4212, "lng": -52.8077}, "A1V": {"placeName": "Gander", "provinceCode": "NL", "lat": 48.9682, "lng": -54.5906}, "A1W": {"placeName": "Manuels", "provinceCode": "NL", "lat": 47.5096, "lng": -52.9447}, "A1X": {"placeName": "Conception Bay", "provinceCode": "NL", "lat": 47.4999, "lng": -52.9981}, "A1Y": {"placeName": "Carbonear", "provinceCode": "NL", "lat": 47.7113, "lng": -53.2953}, "A2A": {"placeName": "Grand Falls", "provinceCode": "NL", "lat": 48.9332, "lng": -55.6649}, "A2B": {"placeName": "Windsor", "provinceCode": "NL", "lat": 48.9499, "lng": -55.6649}, "A2H": {"placeName": "Corner Brook", "provinceCode": "NL", "lat": 48.9156, "lng": -57.797}, "A2N": {"placeName": "Stephenville", "provinceCode": "NL", "lat": 48.55, "lng": -58.5818}, "A2V": {"placeName": "Labrador City", "provinceCode": "NL", "lat": 52.9517, "lng": -66.9328}, "A5A": {"placeName": "Clarenville", "provinceCode": "NL", "lat": 48.1666, "lng": -53.9648}, "A8A": {"placeName": "Deer Lake", "provinceCode": "NL", "lat": 49.1667, "lng": -57.4316}, "B0C": {"placeName": "North Victoria County (Dingwall)", "provinceCode": "NS", "lat": 46.6482, "lng": -60.5396}, "B0E": {"placeName": "West Cape Breton Island (Baddeck)", "provinceCode": "NS", "lat": 46.1133, "lng": -61.0251}, "B0H": {"placeName": "Canso region (Havre Boucher)", "provinceCode": "NS", "lat": 45.3335, "lng": -61.8333}, "B0J": {"placeName": "Mainland east shore (Lunenburg)", "provinceCode": "NS", "lat": 44.9419, "lng": -62.6471}, "B0K": {"placeName": "Southern Northumberland Strait (Pictou)", "provinceCode": "NS", "lat": 45.6138, "lng": -62.9506}, "B0L": {"placeName": "Isthmus of Chignecto (River H\u00e9bert)", "provinceCode": "NS", "lat": 45.6908, "lng": -64.3641}, "B0M": {"placeName": "Cobequid Bay north shore (Springhill)", "provinceCode": "NS", "lat": 45.5354, "lng": -64.0393}, "B0N": {"placeName": "Hants County (Shubenacadie)", "provinceCode": "NS", "lat": 45.0963, "lng": -63.4701}, "B0P": {"placeName": "Kings County (Kingston)", "provinceCode": "NS", "lat": 45.0328, "lng": -64.6566}, "B0R": {"placeName": "West Lunenburg County (New Germany)", "provinceCode": "NS", "lat": 44.6003, "lng": -64.7443}, "B0S": {"placeName": "West Annapolis County (Middleton)", "provinceCode": "NS", "lat": 44.6861, "lng": -65.3002}, "B0T": {"placeName": "Queens County (Shelburne)", "provinceCode": "NS", "lat": 44.0802, "lng": -65.1175}, "B0V": {"placeName": "Digby Neck (Digby)", "provinceCode": "NS", "lat": 44.5342, "lng": -65.7783}, "B0W": {"placeName": "Southwest Mainland (Weymouth)", "provinceCode": "NS", "lat": 44.0486, "lng": -65.7547}, "B1A": {"placeName": "Glace Bay", "provinceCode": "NS", "lat": 46.197, "lng": -59.957}, "B1B": {"placeName": "Port Morien", "provinceCode": "NS", "lat": 46.1174, "lng": -59.9144}, "B1C": {"placeName": "Louisbourg", "provinceCode": "NS", "lat": 45.9485, "lng": -59.9737}, "B1E": {"placeName": "Reserve Mines", "provinceCode": "NS", "lat": 46.1845, "lng": -60.0166}, "B1G": {"placeName": "Dominion", "provinceCode": "NS", "lat": 46.2168, "lng": -60.0151}, "B1H": {"placeName": "New Waterford", "provinceCode": "NS", "lat": 46.2501, "lng": -60.0817}, "B1J": {"placeName": "East Bay", "provinceCode": "NS", "lat": 45.9834, "lng": -60.3652}, "B1K": {"placeName": "Marion Bridge", "provinceCode": "NS", "lat": 45.9668, "lng": -60.2318}, "B1L": {"placeName": "Sydney Southwest", "provinceCode": "NS", "lat": 46.0627, "lng": -60.2045}, "B1M": {"placeName": "Sydney East", "provinceCode": "NS", "lat": 46.127, "lng": -60.0696}, "B1N": {"placeName": "Sydney North", "provinceCode": "NS", "lat": 46.1975, "lng": -60.1559}, "B1P": {"placeName": "Sydney North Central", "provinceCode": "NS", "lat": 46.1341, "lng": -60.1749}, "B1R": {"placeName": "Sydney West", "provinceCode": "NS", "lat": 46.1284, "lng": -60.2915}, "B1S": {"placeName": "Sydney Central", "provinceCode": "NS", "lat": 46.1109, "lng": -60.2092}, "B1T": {"placeName": "Christmas Island", "provinceCode": "NS", "lat": 45.9668, "lng": -60.7152}, "B1V": {"placeName": "North Sydney North", "provinceCode": "NS", "lat": 46.2437, "lng": -60.2313}, "B1W": {"placeName": "Eskasoni", "provinceCode": "NS", "lat": 45.9328, "lng": -60.6438}, "B1X": {"placeName": "Big Bras d'Or", "provinceCode": "NS", "lat": 46.2904, "lng": -60.47}, "B1Y": {"placeName": "Alder Point", "provinceCode": "NS", "lat": 46.2538, "lng": -60.3566}, "B2A": {"placeName": "North Sydney South Central", "provinceCode": "NS", "lat": 46.1169, "lng": -60.3769}, "B2C": {"placeName": "Iona", "provinceCode": "NS", "lat": 45.9948, "lng": -60.8421}, "B2E": {"placeName": "Loch Lomond", "provinceCode": "NS", "lat": 45.7501, "lng": -60.6152}, "B2G": {"placeName": "Antigonish", "provinceCode": "NS", "lat": 45.6168, "lng": -61.9986}, "B2H": {"placeName": "New Glasgow", "provinceCode": "NS", "lat": 45.5834, "lng": -62.6486}, "B2J": {"placeName": "Fourchu", "provinceCode": "NS", "lat": 45.707, "lng": -60.4665}, "B2N": {"placeName": "Truro", "provinceCode": "NS", "lat": 45.3668, "lng": -63.2654}, "B2R": {"placeName": "Waverley", "provinceCode": "NS", "lat": 44.7599, "lng": -63.5525}, "B2S": {"placeName": "Lantz", "provinceCode": "NS", "lat": 45.0209, "lng": -63.5344}, "B2T": {"placeName": "Enfield", "provinceCode": "NS", "lat": 44.8749, "lng": -63.4689}, "B2V": {"placeName": "Dartmouth Morris Lake", "provinceCode": "NS", "lat": 44.6529, "lng": -63.4777}, "B2W": {"placeName": "Dartmouth East Central", "provinceCode": "NS", "lat": 44.6752, "lng": -63.5077}, "B2X": {"placeName": "Dartmouth North Central", "provinceCode": "NS", "lat": 44.702, "lng": -63.533}, "B2Y": {"placeName": "Dartmouth South Central", "provinceCode": "NS", "lat": 44.6645, "lng": -63.5453}, "B2Z": {"placeName": "Dartmouth East", "provinceCode": "NS", "lat": 44.7227, "lng": -63.4223}, "B3A": {"placeName": "Dartmouth Southwest", "provinceCode": "NS", "lat": 44.6819, "lng": -63.5768}, "B3B": {"placeName": "Dartmouth Northwest", "provinceCode": "NS", "lat": 44.7091, "lng": -63.5869}, "B3E": {"placeName": "Porters Lake", "provinceCode": "NS", "lat": 44.7722, "lng": -63.3361}, "B3G": {"placeName": "Eastern Passage", "provinceCode": "NS", "lat": 44.6169, "lng": -63.482}, "B3H": {"placeName": "Halifax Lower Harbour", "provinceCode": "NS", "lat": 44.6344, "lng": -63.5822}, "B3J": {"placeName": "Halifax Mid-Harbour Nova Scotia Provincial Government", "provinceCode": "NS", "lat": 44.6451, "lng": -63.5762}, "B3K": {"placeName": "Halifax Upper Harbour", "provinceCode": "NS", "lat": 44.662, "lng": -63.6017}, "B3L": {"placeName": "Halifax Central", "provinceCode": "NS", "lat": 44.6508, "lng": -63.6146}, "B3M": {"placeName": "Halifax Bedford Basin", "provinceCode": "NS", "lat": 44.6784, "lng": -63.6582}, "B3N": {"placeName": "Halifax South Central", "provinceCode": "NS", "lat": 44.631, "lng": -63.6405}, "B3P": {"placeName": "Halifax North West Arm", "provinceCode": "NS", "lat": 44.6139, "lng": -63.5946}, "B3R": {"placeName": "Halifax South", "provinceCode": "NS", "lat": 44.5939, "lng": -63.6031}, "B3S": {"placeName": "Halifax West", "provinceCode": "NS", "lat": 44.6533, "lng": -63.6675}, "B3T": {"placeName": "Lakeside", "provinceCode": "NS", "lat": 44.5683, "lng": -63.7306}, "B3V": {"placeName": "Harrietsfield", "provinceCode": "NS", "lat": 44.5199, "lng": -63.6064}, "B3Z": {"placeName": "Tantallon", "provinceCode": "NS", "lat": 44.6386, "lng": -63.8687}, "B4A": {"placeName": "Bedford Southeast", "provinceCode": "NS", "lat": 44.7232, "lng": -63.656}, "B4B": {"placeName": "Bedford Northwest", "provinceCode": "NS", "lat": 44.7509, "lng": -63.7711}, "B4C": {"placeName": "Lower Sackville South", "provinceCode": "NS", "lat": 44.7607, "lng": -63.637}, "B4E": {"placeName": "Lower Sackville West", "provinceCode": "NS", "lat": 44.8163, "lng": -63.7387}, "B4G": {"placeName": "Lower Sackville North", "provinceCode": "NS", "lat": 44.8814, "lng": -63.6798}, "B4H": {"placeName": "Amherst", "provinceCode": "NS", "lat": 45.8335, "lng": -64.1987}, "B4N": {"placeName": "Kentville", "provinceCode": "NS", "lat": 45.0834, "lng": -64.4988}, "B4P": {"placeName": "Wolfville", "provinceCode": "NS", "lat": 45.0834, "lng": -64.3655}, "B4R": {"placeName": "Coldbrook", "provinceCode": "NS", "lat": 45.0668, "lng": -64.5821}, "B4V": {"placeName": "Bridgewater", "provinceCode": "NS", "lat": 44.3835, "lng": -64.5155}, "B5A": {"placeName": "Yarmouth", "provinceCode": "NS", "lat": 43.8335, "lng": -66.1156}, "B6L": {"placeName": "Truro", "provinceCode": "NS", "lat": 45.4093, "lng": -63.2114}, "B9A": {"placeName": "Port Hawkesbury", "provinceCode": "NS", "lat": 45.6168, "lng": -61.3485}, "X0E": {"placeName": "Central Northwest Territories (Inuvik)", "provinceCode": "NT", "lat": 66.8714, "lng": -120.225}, "X0G": {"placeName": "Southwestern Northwest Territories (Fort Liard)", "provinceCode": "NT", "lat": 60.2563, "lng": -123.3826}, "X1A": {"placeName": "Yellowknife", "provinceCode": "NT", "lat": 62.456, "lng": -114.3525}, "X0A": {"placeName": "Outer Nunavut (Iqaluit)", "provinceCode": "NU", "lat": 79.6218, "lng": -76.7765}, "X0B": {"placeName": "Central Nunavut (Cambridge Bay)", "provinceCode": "NU", "lat": 70.9072, "lng": -106.9604}, "X0C": {"placeName": "Inner Nunavut (Rankin Inlet)", "provinceCode": "NU", "lat": 64.1647, "lng": -94.7724}, "P0R": {"placeName": "Algoma Southwest (Blind River)", "provinceCode": "ON", "lat": 46.5984, "lng": -83.0385}, "N3P": {"placeName": "Brantford Northeast", "provinceCode": "ON", "lat": 43.1818, "lng": -80.2367}, "N3R": {"placeName": "Brantford Central", "provinceCode": "ON", "lat": 43.1692, "lng": -80.2684}, "N3S": {"placeName": "Brantford Southeast", "provinceCode": "ON", "lat": 43.1394, "lng": -80.2357}, "N3T": {"placeName": "Brantford Southwest", "provinceCode": "ON", "lat": 43.131, "lng": -80.3254}, "N3V": {"placeName": "Brantford Northwest", "provinceCode": "ON", "lat": 43.1734, "lng": -80.298}, "L0N": {"placeName": "Dufferin County (Shelburne)", "provinceCode": "ON", "lat": 44.0317, "lng": -80.2068}, "K0H": {"placeName": "Frontenac County, Addington County, Loyalist Shores and Southwest Leeds (Inverary)", "provinceCode": "ON", "lat": 44.7208, "lng": -76.8334}, "L0P": {"placeName": "Halton Regional Municipality (Campbellville)", "provinceCode": "ON", "lat": 43.4906, "lng": -79.9998}, "L9E": {"placeName": "Milton", "provinceCode": "ON", "lat": 43.5168, "lng": -79.8829}, "L8E": {"placeName": "Hamilton (Confederation Park / Nashdale / East Kentley / Riverdale / Lakely / Grayside / North Stoney Creek)", "provinceCode": "ON", "lat": 43.2245, "lng": -79.6988}, "L8G": {"placeName": "Hamilton (Greenford / North Gershome / West Stoney Creek)", "provinceCode": "ON", "lat": 43.2164, "lng": -79.7423}, "L8H": {"placeName": "Hamilton (West Kentley / McQuesten / Parkview / Hamilton Beach / East Industrial Sector / Normanhurst / Homeside / East Crown Point)", "provinceCode": "ON", "lat": 43.2596, "lng": -79.7925}, "L8J": {"placeName": "Hamilton (East Albion Falls / South Stoney Creek)", "provinceCode": "ON", "lat": 43.1836, "lng": -79.721}, "L8K": {"placeName": "Hamilton (East Delta / Bartonville / Glenview / Rosedale / Lower King's Forest / Red Hill / Corman / Vincent / South Gershome)", "provinceCode": "ON", "lat": 43.2211, "lng": -79.7994}, "L8L": {"placeName": "Hamilton (West Industrial Sector / West Crown Point / North Stipley / North Gibson / Landsdale / Keith / North End / Beasley)", "provinceCode": "ON", "lat": 43.2783, "lng": -79.8344}, "L8M": {"placeName": "Hamilton (West Delta / Blakeley / South Stipley / South Gibson / St. Clair)", "provinceCode": "ON", "lat": 43.2441, "lng": -79.8359}, "L8N": {"placeName": "Hamilton (Stinson / Corktown)", "provinceCode": "ON", "lat": 43.4017, "lng": -80.017}, "L8P": {"placeName": "Hamilton (Durand / Kirkendall / Chedoke Park)", "provinceCode": "ON", "lat": 43.2514, "lng": -79.8925}, "L8R": {"placeName": "Hamilton (Central / Strathcona / South Dundurn)", "provinceCode": "ON", "lat": 43.2726, "lng": -79.8792}, "L8S": {"placeName": "Hamilton (Westdale / Cootes Paradise / Ainslie Wood)", "provinceCode": "ON", "lat": 43.2606, "lng": -79.9161}, "L8T": {"placeName": "Hamilton (Sherwood / Huntington / Upper King's Forest / Lisgar / Berrisfield / Hampton Heights / Sunninghill)", "provinceCode": "ON", "lat": 43.2199, "lng": -79.8286}, "L8V": {"placeName": "Hamilton (Raleigh / Macassa / Lawfield / Thorner / Burkholme / Eastmount)", "provinceCode": "ON", "lat": 43.2266, "lng": -79.8499}, "L8W": {"placeName": "Hamilton (West Albion Falls / Hannon / Rymal / Trenholme / Quinndale / Templemead / Broughton / Eleanor / Randall / Rushdale / Butler / East Chappel)", "provinceCode": "ON", "lat": 43.1958, "lng": -79.8458}, "L9A": {"placeName": "Hamilton (Crerar / Bruleville / Hill Park / Inch Park / Centremount / Balfour / Greeningdon / Jerome)", "provinceCode": "ON", "lat": 43.2271, "lng": -79.871}, "L9B": {"placeName": "Hamilton (Barnstown / West Chappel / Allison / Ryckmans / Mewburn / Sheldon / Falkirk / Carpenter / Kennedy / Southwest Outskirts)", "provinceCode": "ON", "lat": 43.2055, "lng": -79.9004}, "L9C": {"placeName": "Hamilton (Southam / Bonnington / Yeoville / Kernighan / Gourley / Rolston / Buchanan / Mohawk / Westcliffe / Gilbert / Gilkson / Gurnett / Fessenden / Mountview)", "provinceCode": "ON", "lat": 43.2313, "lng": -79.9049}, "K0L": {"placeName": "Peterborough County and North Hastings County (Lakefield)", "provinceCode": "ON", "lat": 44.7767, "lng": -77.9687}, "K0J": {"placeName": "Renfrew County and Lanark Highlands Township (Deep River)", "provinceCode": "ON", "lat": 45.6606, "lng": -77.5886}, "M3K": {"placeName": "Downsview East (CFB Toronto)", "provinceCode": "ON", "lat": 43.739, "lng": -79.4692}, "M4E": {"placeName": "East Toronto (The Beaches)", "provinceCode": "ON", "lat": 43.6784, "lng": -79.2941}, "M4J": {"placeName": "East Toronto (The Danforth East)", "provinceCode": "ON", "lat": 43.6872, "lng": -79.3368}, "M4K": {"placeName": "East Toronto (The Danforth West / Riverdale)", "provinceCode": "ON", "lat": 43.6803, "lng": -79.3538}, "M4L": {"placeName": "East Toronto (India Bazaar / The Beaches West)", "provinceCode": "ON", "lat": 43.6693, "lng": -79.3155}, "M4M": {"placeName": "East Toronto (Studio District)", "provinceCode": "ON", "lat": 43.6561, "lng": -79.3406}, "M4N": {"placeName": "Central Toronto (Lawrence Park East)", "provinceCode": "ON", "lat": 43.7301, "lng": -79.3935}, "M4P": {"placeName": "Central Toronto (Davisville North)", "provinceCode": "ON", "lat": 43.7135, "lng": -79.3887}, "M4R": {"placeName": "Central Toronto (North Toronto West)", "provinceCode": "ON", "lat": 43.7143, "lng": -79.4065}, "M4S": {"placeName": "Central Toronto (Davisville)", "provinceCode": "ON", "lat": 43.702, "lng": -79.3853}, "M4T": {"placeName": "Central Toronto (Moore Park / Summerhill East)", "provinceCode": "ON", "lat": 43.6899, "lng": -79.3853}, "M4V": {"placeName": "Central Toronto (Summerhill West / Rathnelly / South Hill / Forest Hill SE / Deer Park)", "provinceCode": "ON", "lat": 43.6861, "lng": -79.4025}, "M4W": {"placeName": "Downtown Toronto (Rosedale)", "provinceCode": "ON", "lat": 43.6827, "lng": -79.373}, "M4X": {"placeName": "Downtown Toronto (St. James Town / Cabbagetown)", "provinceCode": "ON", "lat": 43.6684, "lng": -79.3689}, "M4Y": {"placeName": "Downtown Toronto (Church and Wellesley)", "provinceCode": "ON", "lat": 43.6656, "lng": -79.383}, "M5A": {"placeName": "Toronto", "provinceCode": "ON", "lat": 43.6555, "lng": -79.3626}, "M5B": {"placeName": "Downtown Toronto (Ryerson)", "provinceCode": "ON", "lat": 43.6572, "lng": -79.3783}, "M5C": {"placeName": "Downtown Toronto (St. James Park)", "provinceCode": "ON", "lat": 43.6513, "lng": -79.3756}, "M5E": {"placeName": "Downtown Toronto (Berczy Park)", "provinceCode": "ON", "lat": 43.6456, "lng": -79.3754}, "M5G": {"placeName": "Downtown Toronto (Central Bay Street)", "provinceCode": "ON", "lat": 43.6564, "lng": -79.386}, "M5H": {"placeName": "Downtown Toronto (Richmond / Adelaide / King)", "provinceCode": "ON", "lat": 43.6496, "lng": -79.3833}, "M5J": {"placeName": "Downtown Toronto (Harbourfront East / Union Station / Toronto Island)", "provinceCode": "ON", "lat": 43.623, "lng": -79.3936}, "M5K": {"placeName": "Downtown Toronto (Toronto Dominion Centre / Design Exchange)", "provinceCode": "ON", "lat": 43.6469, "lng": -79.3823}, "M5L": {"placeName": "Downtown Toronto (Commerce Court / Victoria Hotel)", "provinceCode": "ON", "lat": 43.6492, "lng": -79.3823}, "M5N": {"placeName": "Central Toronto (Roselawn)", "provinceCode": "ON", "lat": 43.7113, "lng": -79.4195}, "M5P": {"placeName": "Central Toronto (Forest Hill North & West)", "provinceCode": "ON", "lat": 43.6966, "lng": -79.412}, "M5R": {"placeName": "Central Toronto (The Annex / North Midtown / Yorkville)", "provinceCode": "ON", "lat": 43.6736, "lng": -79.4035}, "M5S": {"placeName": "Downtown Toronto (University of Toronto / Harbord)", "provinceCode": "ON", "lat": 43.6629, "lng": -79.3987}, "M5T": {"placeName": "Downtown Toronto (Kensington Market / Chinatown / Grange Park)", "provinceCode": "ON", "lat": 43.6541, "lng": -79.3978}, "M5V": {"placeName": "Downtown Toronto (CN Tower / King and Spadina / Railway Lands / Harbourfront West / Bathurst Quay / South Niagara / YTZ)", "provinceCode": "ON", "lat": 43.6404, "lng": -79.3995}, "M5W": {"placeName": "Downtown Toronto Stn A PO Boxes 25 The Esplanade (Enclave of M5E)", "provinceCode": "ON", "lat": 43.6437, "lng": -79.3787}, "M5X": {"placeName": "Downtown Toronto (Underground city)", "provinceCode": "ON", "lat": 43.6492, "lng": -79.3823}, "M6G": {"placeName": "Downtown Toronto (Christie)", "provinceCode": "ON", "lat": 43.6683, "lng": -79.4205}, "M6H": {"placeName": "West Toronto (Dufferin / Dovercourt Village)", "provinceCode": "ON", "lat": 43.6655, "lng": -79.4378}, "M6J": {"placeName": "West Toronto (Rua A\u00feores / Trinity)", "provinceCode": "ON", "lat": 43.648, "lng": -79.4177}, "M6K": {"placeName": "West Toronto (Brockton / Parkdale Village / Exhibition Place)", "provinceCode": "ON", "lat": 43.6383, "lng": -79.4301}, "M6P": {"placeName": "West Toronto (High Park / The Junction South)", "provinceCode": "ON", "lat": 43.6605, "lng": -79.4633}, "M6R": {"placeName": "West Toronto (Parkdale / Roncesvalles Village)", "provinceCode": "ON", "lat": 43.6469, "lng": -79.4521}, "M6S": {"placeName": "West Toronto (Bloor West Village / Swansea)", "provinceCode": "ON", "lat": 43.6512, "lng": -79.4828}, "M7Y": {"placeName": "East Toronto Business Reply Mail Processing Centre 969 Eastern (Enclave of M4L)", "provinceCode": "ON", "lat": 43.7804, "lng": -79.2505}, "M8V": {"placeName": "Etobicoke (New Toronto / Mimico South / Humber Bay Shores)", "provinceCode": "ON", "lat": 43.6075, "lng": -79.5013}, "K1A": {"placeName": "Government of Canada Ottawa and Gatineau offices", "provinceCode": "ON", "lat": 45.4207, "lng": -75.7023}, "K1G": {"placeName": "Ottawa (Riverview / Hawthorne)", "provinceCode": "ON", "lat": 45.3548, "lng": -75.5773}, "K1H": {"placeName": "Ottawa (Alta Vista)", "provinceCode": "ON", "lat": 45.3876, "lng": -75.6593}, "K1K": {"placeName": "Ottawa (Overbrook)", "provinceCode": "ON", "lat": 45.4448, "lng": -75.6431}, "K1L": {"placeName": "Ottawa (Vanier)", "provinceCode": "ON", "lat": 45.44, "lng": -75.663}, "K1M": {"placeName": "Ottawa (Rockcliffe Park / New Edinburgh)", "provinceCode": "ON", "lat": 45.4491, "lng": -75.6818}, "K1N": {"placeName": "Ottawa (Lower Town / Sandy Hill / University of Ottawa)", "provinceCode": "ON", "lat": 45.4289, "lng": -75.6844}, "K1P": {"placeName": "Ottawa (Parliament Hill)", "provinceCode": "ON", "lat": 45.4225, "lng": -75.7026}, "K1R": {"placeName": "Ottawa (West Downtown area)", "provinceCode": "ON", "lat": 45.4123, "lng": -75.7108}, "K1S": {"placeName": "Ottawa (The Glebe / Ottawa South / Ottawa East)", "provinceCode": "ON", "lat": 45.399, "lng": -75.6871}, "K1V": {"placeName": "Ottawa (Riverside Park / Hunt Club West / Riverside South / YOW)", "provinceCode": "ON", "lat": 45.3281, "lng": -75.6719}, "K1Y": {"placeName": "Ottawa West", "provinceCode": "ON", "lat": 45.4023, "lng": -75.7329}, "K1Z": {"placeName": "Ottawa (Westboro)", "provinceCode": "ON", "lat": 45.3867, "lng": -75.7405}, "K2A": {"placeName": "Ottawa (Highland Park / Carlingwood)", "provinceCode": "ON", "lat": 45.3805, "lng": -75.7636}, "K2B": {"placeName": "Ottawa (Britannia / Pinecrest)", "provinceCode": "ON", "lat": 45.3645, "lng": -75.7934}, "K2C": {"placeName": "Ottawa (Queensway / Copeland / Carlington / Carleton Heights)", "provinceCode": "ON", "lat": 45.3679, "lng": -75.7381}, "K2P": {"placeName": "Ottawa (Centre Town)", "provinceCode": "ON", "lat": 45.4166, "lng": -75.6904}, "K0A": {"placeName": "National Capital Region (Almonte)", "provinceCode": "ON", "lat": 45.2557, "lng": -76.2754}, "K0B": {"placeName": "Prescott and Russell United Counties (Alfred)", "provinceCode": "ON", "lat": 45.5029, "lng": -74.7479}, "K0C": {"placeName": "Stormont, Dundas and Glengarry United Counties (Alexandria)", "provinceCode": "ON", "lat": 45.1686, "lng": -74.8966}, "K0E": {"placeName": "South Leeds and Grenville United Counties (Prescott)", "provinceCode": "ON", "lat": 44.8734, "lng": -75.4416}, "K0G": {"placeName": "Rideau Lakes area (Kemptville)", "provinceCode": "ON", "lat": 45.0466, "lng": -76.4757}, "K0K": {"placeName": "Quinte Shores, East Northumberland County & Prince Edward County (Picton)", "provinceCode": "ON", "lat": 44.3261, "lng": -77.4318}, "K0M": {"placeName": "Kawartha lakes and Haliburton County (Bobcaygeon)", "provinceCode": "ON", "lat": 44.8645, "lng": -78.6553}, "K1B": {"placeName": "Gloucester (Blackburn Hamlet / Pine View)", "provinceCode": "ON", "lat": 45.4284, "lng": -75.5875}, "K1C": {"placeName": "Gloucester (West Orleans)", "provinceCode": "ON", "lat": 45.4677, "lng": -75.5399}, "K1E": {"placeName": "Orleans (Queenswood)", "provinceCode": "ON", "lat": 45.4771, "lng": -75.5046}, "K1J": {"placeName": "Gloucester (Beacon Hill / Cyrville)", "provinceCode": "ON", "lat": 45.4519, "lng": -75.6036}, "K1T": {"placeName": "Gloucester (Blossom Park / Hunt Club East / Leitrim)", "provinceCode": "ON", "lat": 45.3295, "lng": -75.6156}, "K1W": {"placeName": "Gloucester (South Orleans)", "provinceCode": "ON", "lat": 45.4365, "lng": -75.5158}, "K1X": {"placeName": "Gloucester South", "provinceCode": "ON", "lat": 45.2756, "lng": -75.6283}, "K2E": {"placeName": "Nepean East", "provinceCode": "ON", "lat": 45.3438, "lng": -75.7157}, "K2G": {"placeName": "Nepean (Davidson Heights)", "provinceCode": "ON", "lat": 45.3211, "lng": -75.7391}, "K2H": {"placeName": "Nepean (Bells Corners)", "provinceCode": "ON", "lat": 45.3433, "lng": -75.8265}, "K2J": {"placeName": "Nepean (Barrhaven)", "provinceCode": "ON", "lat": 45.2691, "lng": -75.7518}, "K2K": {"placeName": "Kanata (Beaverbrook / South March)", "provinceCode": "ON", "lat": 45.3704, "lng": -75.9198}, "K2L": {"placeName": "Kanata (Katimavik-Hazeldean / Glen Cairn)", "provinceCode": "ON", "lat": 45.3001, "lng": -75.9244}, "K2M": {"placeName": "Kanata (Bridlewood)", "provinceCode": "ON", "lat": 45.2861, "lng": -75.8562}, "K2R": {"placeName": "Nepean (Fallowfield Village / Cedarhill Estates / Orchard Estates)", "provinceCode": "ON", "lat": 45.2899, "lng": -75.8126}, "K2S": {"placeName": "Stittsville", "provinceCode": "ON", "lat": 45.2501, "lng": -75.9161}, "K2T": {"placeName": "Kanata (Marchwood)", "provinceCode": "ON", "lat": 45.317, "lng": -75.9367}, "K2V": {"placeName": "Kanata (Terry Fox / Palladium)", "provinceCode": "ON", "lat": 45.2854, "lng": -75.8928}, "K2W": {"placeName": "Kanata (North March)", "provinceCode": "ON", "lat": 45.3699, "lng": -75.9887}, "K4A": {"placeName": "Orleans (Fallingbrook)", "provinceCode": "ON", "lat": 45.4697, "lng": -75.4715}, "K4B": {"placeName": "Cumberland Township", "provinceCode": "ON", "lat": 45.4101, "lng": -75.3638}, "K4C": {"placeName": "Cumberland", "provinceCode": "ON", "lat": 45.498, "lng": -75.3916}, "K4K": {"placeName": "Rockland", "provinceCode": "ON", "lat": 45.5501, "lng": -75.291}, "K4M": {"placeName": "Manotick", "provinceCode": "ON", "lat": 45.2154, "lng": -75.6528}, "K4P": {"placeName": "Greely", "provinceCode": "ON", "lat": 45.2434, "lng": -75.5674}, "K4R": {"placeName": "Russell", "provinceCode": "ON", "lat": 45.2388, "lng": -75.3527}, "K6A": {"placeName": "Hawkesbury", "provinceCode": "ON", "lat": 45.6001, "lng": -74.616}, "K6H": {"placeName": "Cornwall East", "provinceCode": "ON", "lat": 45.0565, "lng": -74.6852}, "K6J": {"placeName": "Cornwall West", "provinceCode": "ON", "lat": 45.0223, "lng": -74.7569}, "K6K": {"placeName": "Cornwall North", "provinceCode": "ON", "lat": 45.061, "lng": -74.7774}, "K6T": {"placeName": "Elizabethtown", "provinceCode": "ON", "lat": 44.6301, "lng": -75.7448}, "K6V": {"placeName": "Brockville", "provinceCode": "ON", "lat": 44.6573, "lng": -75.7146}, "K7A": {"placeName": "Smiths Falls", "provinceCode": "ON", "lat": 44.9001, "lng": -76.0161}, "K7C": {"placeName": "Carleton Place", "provinceCode": "ON", "lat": 45.1334, "lng": -76.1494}, "K7G": {"placeName": "Gananoque", "provinceCode": "ON", "lat": 44.3334, "lng": -76.1661}, "K7H": {"placeName": "Perth", "provinceCode": "ON", "lat": 44.9001, "lng": -76.2494}, "K7K": {"placeName": "Kingston (SW Pittsburgh Township)", "provinceCode": "ON", "lat": 44.2569, "lng": -76.4717}, "K7L": {"placeName": "Kingston (Downtown)", "provinceCode": "ON", "lat": 44.2955, "lng": -76.428}, "K7M": {"placeName": "Kingston (Reddendale / Cataraqui / Collins Bay)", "provinceCode": "ON", "lat": 44.2411, "lng": -76.5788}, "K7N": {"placeName": "Amherstview", "provinceCode": "ON", "lat": 44.2224, "lng": -76.65}, "K7P": {"placeName": "Kingston (Westbrook / Cataraqui Woods / Cedarwood)", "provinceCode": "ON", "lat": 44.2814, "lng": -76.6111}, "K7R": {"placeName": "Napanee", "provinceCode": "ON", "lat": 44.2501, "lng": -76.9494}, "K7S": {"placeName": "Arnprior", "provinceCode": "ON", "lat": 45.4334, "lng": -76.3494}, "K7V": {"placeName": "Renfrew", "provinceCode": "ON", "lat": 45.4668, "lng": -76.6827}, "K8A": {"placeName": "Pembroke Central and northern subdivisions", "provinceCode": "ON", "lat": 45.7466, "lng": -77.2047}, "K8B": {"placeName": "Pembroke (Pleasant View / Fairview)", "provinceCode": "ON", "lat": 45.808, "lng": -77.0806}, "K8H": {"placeName": "Petawawa", "provinceCode": "ON", "lat": 45.8945, "lng": -77.2801}, "K8N": {"placeName": "Belleville East", "provinceCode": "ON", "lat": 44.1735, "lng": -77.3684}, "K8P": {"placeName": "Belleville West", "provinceCode": "ON", "lat": 44.1665, "lng": -77.4037}, "K8R": {"placeName": "Belleville (SE Sidney Township / Avondale)", "provinceCode": "ON", "lat": 44.1399, "lng": -77.4683}, "K8V": {"placeName": "Trenton", "provinceCode": "ON", "lat": 44.0992, "lng": -77.5776}, "K9A": {"placeName": "Cobourg", "provinceCode": "ON", "lat": 43.9598, "lng": -78.1651}, "K9H": {"placeName": "Peterborough North", "provinceCode": "ON", "lat": 44.3245, "lng": -78.3184}, "K9J": {"placeName": "Peterborough South", "provinceCode": "ON", "lat": 44.3104, "lng": -78.2396}, "K9K": {"placeName": "Peterborough (Fairbairn Meadows / Jackson Heights)", "provinceCode": "ON", "lat": 44.3138, "lng": -78.3606}, "K9L": {"placeName": "Peterborough (Terra View Heights / Woodland Acres / Donwood)", "provinceCode": "ON", "lat": 44.3552, "lng": -78.3199}, "K9V": {"placeName": "Lindsay", "provinceCode": "ON", "lat": 44.3501, "lng": -78.7329}, "L0A": {"placeName": "West Northumberland County (Millbrook)", "provinceCode": "ON", "lat": 44.1263, "lng": -78.5193}, "L0B": {"placeName": "East Durham Regional Municipality (Orono)", "provinceCode": "ON", "lat": 44.0773, "lng": -78.7465}, "L0C": {"placeName": "West Durham Regional Municipality (Sunderland)", "provinceCode": "ON", "lat": 44.2094, "lng": -79.0725}, "L0E": {"placeName": "Lake Simcoe Southeast Shore (Sutton West)", "provinceCode": "ON", "lat": 44.3199, "lng": -79.2778}, "L0G": {"placeName": "Ontario Centre (Queensville)", "provinceCode": "ON", "lat": 44.0586, "lng": -79.6235}, "L0H": {"placeName": "Whitby Region (Gormley)", "provinceCode": "ON", "lat": 43.9023, "lng": -79.1554}, "L0J": {"placeName": "North Peel Regional Municipality (Kleinburg)", "provinceCode": "ON", "lat": 43.8566, "lng": -79.6485}, "L0K": {"placeName": "Lake Simcoe North Shore (Coldwater)", "provinceCode": "ON", "lat": 44.6233, "lng": -79.1235}, "L0L": {"placeName": "Lake Simcoe West Shore (Oro)", "provinceCode": "ON", "lat": 44.4548, "lng": -79.7352}, "L0M": {"placeName": "Georgian Bay South Shore (Angus)", "provinceCode": "ON", "lat": 44.3269, "lng": -80.0333}, "L0R": {"placeName": "East Haldimand County (Waterdown)", "provinceCode": "ON", "lat": 43.1607, "lng": -79.7463}, "L0S": {"placeName": "Niagara Regional Municipality (Fonthill)", "provinceCode": "ON", "lat": 42.9071, "lng": -79.0832}, "L1A": {"placeName": "Port Hope", "provinceCode": "ON", "lat": 44.0168, "lng": -78.3995}, "L1B": {"placeName": "Bowmanville East", "provinceCode": "ON", "lat": 43.9235, "lng": -78.5457}, "L1C": {"placeName": "Bowmanville West", "provinceCode": "ON", "lat": 43.9714, "lng": -78.7095}, "L1E": {"placeName": "Courtice", "provinceCode": "ON", "lat": 43.8969, "lng": -78.7683}, "L1G": {"placeName": "Oshawa Central", "provinceCode": "ON", "lat": 43.9233, "lng": -78.8684}, "L1H": {"placeName": "Oshawa Southeast", "provinceCode": "ON", "lat": 43.9721, "lng": -78.8837}, "L1J": {"placeName": "Oshawa Southwest", "provinceCode": "ON", "lat": 43.8852, "lng": -78.8771}, "L1K": {"placeName": "Oshawa East", "provinceCode": "ON", "lat": 43.9251, "lng": -78.8287}, "L1L": {"placeName": "Oshawa North", "provinceCode": "ON", "lat": 43.9581, "lng": -78.8972}, "L1M": {"placeName": "Whitby North", "provinceCode": "ON", "lat": 43.9566, "lng": -78.9779}, "L1N": {"placeName": "Whitby Southeast", "provinceCode": "ON", "lat": 43.8721, "lng": -78.9273}, "L1P": {"placeName": "Whitby Southwest", "provinceCode": "ON", "lat": 43.8866, "lng": -78.975}, "L1R": {"placeName": "Whitby Central", "provinceCode": "ON", "lat": 43.9215, "lng": -78.9412}, "L1S": {"placeName": "Ajax Southwest", "provinceCode": "ON", "lat": 43.8404, "lng": -79.0251}, "L1T": {"placeName": "Ajax Northwest", "provinceCode": "ON", "lat": 43.8843, "lng": -79.0534}, "L1V": {"placeName": "Pickering Southwest", "provinceCode": "ON", "lat": 43.8605, "lng": -79.1618}, "L1W": {"placeName": "Pickering South", "provinceCode": "ON", "lat": 43.8197, "lng": -79.0803}, "L1X": {"placeName": "Pickering Central", "provinceCode": "ON", "lat": 43.8558, "lng": -79.0972}, "L1Y": {"placeName": "Pickering North", "provinceCode": "ON", "lat": 43.9555, "lng": -79.1194}, "L1Z": {"placeName": "Ajax East", "provinceCode": "ON", "lat": 43.8773, "lng": -79.0055}, "L2A": {"placeName": "Fort Erie", "provinceCode": "ON", "lat": 42.9001, "lng": -78.9329}, "L2E": {"placeName": "Niagara Falls Central", "provinceCode": "ON", "lat": 43.0537, "lng": -79.1018}, "L2G": {"placeName": "Niagara Falls Southeast", "provinceCode": "ON", "lat": 43.0696, "lng": -79.0818}, "L2H": {"placeName": "Niagara Falls West", "provinceCode": "ON", "lat": 43.1009, "lng": -79.1379}, "L2J": {"placeName": "Niagara Falls North", "provinceCode": "ON", "lat": 43.1296, "lng": -79.1034}, "L2M": {"placeName": "St. Catharines Northeast", "provinceCode": "ON", "lat": 43.196, "lng": -79.2161}, "L2N": {"placeName": "St. Catharines Northwest", "provinceCode": "ON", "lat": 43.1923, "lng": -79.2559}, "L2P": {"placeName": "St. Catharines East", "provinceCode": "ON", "lat": 43.1527, "lng": -79.2091}, "L2R": {"placeName": "St. Catharines Central", "provinceCode": "ON", "lat": 43.1419, "lng": -79.2966}, "L2S": {"placeName": "St. Catharines Southwest", "provinceCode": "ON", "lat": 43.1447, "lng": -79.2634}, "L2T": {"placeName": "St. Catharines South", "provinceCode": "ON", "lat": 43.1313, "lng": -79.2317}, "L2V": {"placeName": "St. Catharines Southeast", "provinceCode": "ON", "lat": 43.1142, "lng": -79.2035}, "L2W": {"placeName": "St. Catharines West", "provinceCode": "ON", "lat": 43.1688, "lng": -79.2794}, "L3B": {"placeName": "Welland East", "provinceCode": "ON", "lat": 42.9878, "lng": -79.2219}, "L3C": {"placeName": "Welland West", "provinceCode": "ON", "lat": 42.9998, "lng": -79.2656}, "L3K": {"placeName": "Port Colborne", "provinceCode": "ON", "lat": 42.9001, "lng": -79.2329}, "L3M": {"placeName": "Grimsby", "provinceCode": "ON", "lat": 43.2001, "lng": -79.5663}, "L3P": {"placeName": "Markham Central", "provinceCode": "ON", "lat": 43.8769, "lng": -79.2686}, "L3R": {"placeName": "Markham Outer Southwest", "provinceCode": "ON", "lat": 43.8479, "lng": -79.3288}, "L3S": {"placeName": "Markham Southeast", "provinceCode": "ON", "lat": 43.8486, "lng": -79.2617}, "L3T": {"placeName": "Thornhill East", "provinceCode": "ON", "lat": 43.8227, "lng": -79.3946}, "L3V": {"placeName": "Orillia", "provinceCode": "ON", "lat": 44.6087, "lng": -79.4207}, "L3X": {"placeName": "Newmarket Southwest", "provinceCode": "ON", "lat": 44.0433, "lng": -79.4912}, "L3Y": {"placeName": "Newmarket Northeast", "provinceCode": "ON", "lat": 44.0565, "lng": -79.4555}, "L3Z": {"placeName": "Bradford", "provinceCode": "ON", "lat": 44.1168, "lng": -79.5663}, "L4A": {"placeName": "Stouffville", "provinceCode": "ON", "lat": 43.9668, "lng": -79.2496}, "L4B": {"placeName": "Richmond Hill Southeast", "provinceCode": "ON", "lat": 43.8582, "lng": -79.3985}, "L4C": {"placeName": "Richmond Hill Southwest", "provinceCode": "ON", "lat": 43.8669, "lng": -79.4414}, "L4E": {"placeName": "Richmond Hill North", "provinceCode": "ON", "lat": 43.9394, "lng": -79.4349}, "L4G": {"placeName": "Aurora", "provinceCode": "ON", "lat": 44.0001, "lng": -79.4663}, "L4H": {"placeName": "Woodbridge North", "provinceCode": "ON", "lat": 43.8432, "lng": -79.5644}, "L4J": {"placeName": "Thornhill West", "provinceCode": "ON", "lat": 43.8156, "lng": -79.4534}, "L4K": {"placeName": "Concord", "provinceCode": "ON", "lat": 43.8001, "lng": -79.4829}, "L4L": {"placeName": "Woodbridge South", "provinceCode": "ON", "lat": 43.8064, "lng": -79.5995}, "L4M": {"placeName": "Barrie North", "provinceCode": "ON", "lat": 44.4001, "lng": -79.6663}, "L4N": {"placeName": "Barrie South", "provinceCode": "ON", "lat": 44.3572, "lng": -79.6929}, "L4P": {"placeName": "Keswick", "provinceCode": "ON", "lat": 44.2501, "lng": -79.4663}, "L4R": {"placeName": "Midland", "provinceCode": "ON", "lat": 44.7501, "lng": -79.883}, "L4S": {"placeName": "Richmond Hill Central", "provinceCode": "ON", "lat": 43.8985, "lng": -79.4143}, "L4T": {"placeName": "Mississauga (Malton)", "provinceCode": "ON", "lat": 43.7139, "lng": -79.6434}, "L4V": {"placeName": "Mississauga (Wildwood)", "provinceCode": "ON", "lat": 43.6935, "lng": -79.6069}, "L4W": {"placeName": "Mississauga (Matheson / East Rathwood)", "provinceCode": "ON", "lat": 43.6413, "lng": -79.6296}, "L4X": {"placeName": "Mississauga (East Applewood / East Dixie / NE Lakeview)", "provinceCode": "ON", "lat": 43.6178, "lng": -79.5786}, "L4Y": {"placeName": "Mississauga (West Applewood / West Dixie / NW Lakeview)", "provinceCode": "ON", "lat": 43.6028, "lng": -79.5929}, "L4Z": {"placeName": "Mississauga (West Rathwood / East Hurontario / SE Gateway)", "provinceCode": "ON", "lat": 43.6192, "lng": -79.6538}, "L5A": {"placeName": "Mississauga (Mississauga Valleys / East Cooksville)", "provinceCode": "ON", "lat": 43.5883, "lng": -79.6091}, "L5B": {"placeName": "Mississauga (West Cooksville / Fairview / City Centre / East Creditview)", "provinceCode": "ON", "lat": 43.5771, "lng": -79.6306}, "L5C": {"placeName": "Mississauga (West Creditview / Mavis / Erindale)", "provinceCode": "ON", "lat": 43.5624, "lng": -79.6504}, "L5E": {"placeName": "Mississauga (Central Lakeview)", "provinceCode": "ON", "lat": 43.5836, "lng": -79.561}, "L5G": {"placeName": "Mississauga (SW Lakeview / Mineola / East Port Credit)", "provinceCode": "ON", "lat": 43.5647, "lng": -79.5852}, "L5H": {"placeName": "Mississauga (West Port Credit / Lorne Park / East Sheridan)", "provinceCode": "ON", "lat": 43.5419, "lng": -79.6164}, "L5J": {"placeName": "Mississauga (Clarkson / Southdown)", "provinceCode": "ON", "lat": 43.5102, "lng": -79.6296}, "L5K": {"placeName": "Mississauga (West Sheridan)", "provinceCode": "ON", "lat": 43.5272, "lng": -79.6617}, "L5L": {"placeName": "Mississauga (Erin Mills / Western Business Park)", "provinceCode": "ON", "lat": 43.5373, "lng": -79.6903}, "L5M": {"placeName": "Mississauga (Churchill Meadows / Central Erin Mills / South Streetsville)", "provinceCode": "ON", "lat": 43.5637, "lng": -79.7202}, "L5N": {"placeName": "Mississauga (Lisgar / Meadowvale)", "provinceCode": "ON", "lat": 43.5924, "lng": -79.7611}, "L5P": {"placeName": "Mississauga (YYZ)", "provinceCode": "ON", "lat": 43.6904, "lng": -79.6238}, "L5R": {"placeName": "Mississauga (West Hurontario / SW Gateway)", "provinceCode": "ON", "lat": 43.606, "lng": -79.6708}, "L5S": {"placeName": "Mississauga (Cardiff / NE Gateway)", "provinceCode": "ON", "lat": 43.6801, "lng": -79.6783}, "L5T": {"placeName": "Mississauga (Courtney Park / East Gateway)", "provinceCode": "ON", "lat": 43.6683, "lng": -79.6182}, "L5V": {"placeName": "Mississauga (East Credit)", "provinceCode": "ON", "lat": 43.5972, "lng": -79.6931}, "L5W": {"placeName": "Mississauga (Meadowvale Village / West Gateway)", "provinceCode": "ON", "lat": 43.6313, "lng": -79.7148}, "L6A": {"placeName": "Maple", "provinceCode": "ON", "lat": 43.8501, "lng": -79.5163}, "L6B": {"placeName": "Markham East", "provinceCode": "ON", "lat": 43.9007, "lng": -79.2175}, "L6C": {"placeName": "Markham Northwest", "provinceCode": "ON", "lat": 43.9045, "lng": -79.3392}, "L6E": {"placeName": "Markham Northeast", "provinceCode": "ON", "lat": 43.9002, "lng": -79.2676}, "L6G": {"placeName": "Markham Inner Southwest", "provinceCode": "ON", "lat": 43.8485, "lng": -79.3346}, "L6H": {"placeName": "Oakville North", "provinceCode": "ON", "lat": 43.4881, "lng": -79.7098}, "L6J": {"placeName": "Oakville Northeast", "provinceCode": "ON", "lat": 43.4757, "lng": -79.6591}, "L6K": {"placeName": "Oakville East", "provinceCode": "ON", "lat": 43.4396, "lng": -79.6878}, "L6L": {"placeName": "Oakville South", "provinceCode": "ON", "lat": 43.4032, "lng": -79.7186}, "L6M": {"placeName": "Oakville West", "provinceCode": "ON", "lat": 43.4464, "lng": -79.7593}, "L6P": {"placeName": "Brampton North", "provinceCode": "ON", "lat": 43.7942, "lng": -79.7021}, "L6R": {"placeName": "Brampton Northwest", "provinceCode": "ON", "lat": 43.7592, "lng": -79.7605}, "L6S": {"placeName": "Brampton North Central", "provinceCode": "ON", "lat": 43.7379, "lng": -79.726}, "L6T": {"placeName": "Brampton East", "provinceCode": "ON", "lat": 43.7196, "lng": -79.6854}, "L6V": {"placeName": "Brampton Central", "provinceCode": "ON", "lat": 43.7059, "lng": -79.7626}, "L6W": {"placeName": "Brampton Southeast", "provinceCode": "ON", "lat": 43.68, "lng": -79.7273}, "L6X": {"placeName": "Brampton Southwest", "provinceCode": "ON", "lat": 43.6665, "lng": -79.8054}, "L6Y": {"placeName": "Brampton South", "provinceCode": "ON", "lat": 43.6249, "lng": -79.7876}, "L6Z": {"placeName": "Brampton West Central", "provinceCode": "ON", "lat": 43.7328, "lng": -79.7953}, "L7A": {"placeName": "Brampton West", "provinceCode": "ON", "lat": 43.6909, "lng": -79.8377}, "L7B": {"placeName": "King City", "provinceCode": "ON", "lat": 43.9286, "lng": -79.5269}, "L7C": {"placeName": "Caledon", "provinceCode": "ON", "lat": 43.8753, "lng": -79.8558}, "L7E": {"placeName": "Bolton", "provinceCode": "ON", "lat": 43.8795, "lng": -79.7379}, "L7G": {"placeName": "Georgetown", "provinceCode": "ON", "lat": 43.6501, "lng": -79.9163}, "L7J": {"placeName": "Acton", "provinceCode": "ON", "lat": 43.6297, "lng": -80.0415}, "L7K": {"placeName": "Caledon Village", "provinceCode": "ON", "lat": 43.8602, "lng": -79.996}, "L7L": {"placeName": "Burlington Northeast", "provinceCode": "ON", "lat": 43.3799, "lng": -79.7668}, "L7M": {"placeName": "Burlington North", "provinceCode": "ON", "lat": 43.4342, "lng": -79.8701}, "L7N": {"placeName": "Burlington East", "provinceCode": "ON", "lat": 43.3512, "lng": -79.784}, "L7P": {"placeName": "Burlington West", "provinceCode": "ON", "lat": 43.3806, "lng": -79.886}, "L7R": {"placeName": "Burlington Southeast", "provinceCode": "ON", "lat": 43.375, "lng": -79.8434}, "L7S": {"placeName": "Burlington South", "provinceCode": "ON", "lat": 43.323, "lng": -79.8092}, "L7T": {"placeName": "Burlington Southwest", "provinceCode": "ON", "lat": 43.3081, "lng": -79.8507}, "L8B": {"placeName": "Waterdown", "provinceCode": "ON", "lat": 43.3334, "lng": -79.8829}, "L9G": {"placeName": "Ancaster West", "provinceCode": "ON", "lat": 43.1836, "lng": -79.9902}, "L9H": {"placeName": "Dundas", "provinceCode": "ON", "lat": 43.2638, "lng": -79.9524}, "L9J": {"placeName": "Barrie", "provinceCode": "ON", "lat": 44.3186, "lng": -79.6761}, "L9K": {"placeName": "Ancaster East", "provinceCode": "ON", "lat": 43.225, "lng": -79.9427}, "L9L": {"placeName": "Port Perry", "provinceCode": "ON", "lat": 44.1068, "lng": -78.9444}, "L9M": {"placeName": "Penetanguishene", "provinceCode": "ON", "lat": 44.7834, "lng": -79.9164}, "L9N": {"placeName": "Holland Landing", "provinceCode": "ON", "lat": 44.1149, "lng": -79.5014}, "L9P": {"placeName": "Uxbridge", "provinceCode": "ON", "lat": 44.1001, "lng": -79.1163}, "L9R": {"placeName": "Alliston", "provinceCode": "ON", "lat": 44.1501, "lng": -79.8663}, "L9S": {"placeName": "Innisfil", "provinceCode": "ON", "lat": 44.3001, "lng": -79.6496}, "L9T": {"placeName": "Milton", "provinceCode": "ON", "lat": 43.5148, "lng": -79.884}, "L9V": {"placeName": "Orangeville North", "provinceCode": "ON", "lat": 43.9597, "lng": -80.1079}, "L9W": {"placeName": "Orangeville South", "provinceCode": "ON", "lat": 43.9702, "lng": -80.016}, "L9X": {"placeName": "Minesing", "provinceCode": "ON", "lat": 44.4334, "lng": -79.833}, "L9Y": {"placeName": "Collingwood", "provinceCode": "ON", "lat": 44.4834, "lng": -80.2164}, "L9Z": {"placeName": "Wasaga Beach", "provinceCode": "ON", "lat": 44.5168, "lng": -80.0164}, "M1B": {"placeName": "Scarborough (Malvern / Rouge River)", "provinceCode": "ON", "lat": 43.8113, "lng": -79.193}, "M1C": {"placeName": "Scarborough (Rouge Hill / Port Union / Highland Creek)", "provinceCode": "ON", "lat": 43.7878, "lng": -79.1564}, "M1E": {"placeName": "Scarborough (Guildwood / Morningside / Ellesmere)", "provinceCode": "ON", "lat": 43.7678, "lng": -79.1866}, "M1G": {"placeName": "Scarborough (Woburn)", "provinceCode": "ON", "lat": 43.7712, "lng": -79.2144}, "M1H": {"placeName": "Scarborough (Cedarbrae)", "provinceCode": "ON", "lat": 43.7686, "lng": -79.2389}, "M1J": {"placeName": "Scarborough (Eglinton)", "provinceCode": "ON", "lat": 43.7464, "lng": -79.2323}, "M1K": {"placeName": "Scarborough (Kennedy Park / Ionview / East Birchmount Park)", "provinceCode": "ON", "lat": 43.7298, "lng": -79.2639}, "M1L": {"placeName": "Scarborough (The Golden Mile / Clairlea / Oakridge / Birchmount Park East)", "provinceCode": "ON", "lat": 43.7122, "lng": -79.2843}, "M1M": {"placeName": "Scarborough (Cliffside / Cliffcrest / Scarborough Village West)", "provinceCode": "ON", "lat": 43.7247, "lng": -79.2312}, "M1N": {"placeName": "Scarborough (Birch Cliff / Cliffside West)", "provinceCode": "ON", "lat": 43.6952, "lng": -79.2646}, "M1P": {"placeName": "Scarborough (Dorset Park / Wexford Heights / Scarborough Town Centre)", "provinceCode": "ON", "lat": 43.7612, "lng": -79.2707}, "M1R": {"placeName": "Scarborough (Wexford / Maryvale)", "provinceCode": "ON", "lat": 43.7507, "lng": -79.3003}, "M1S": {"placeName": "Scarborough (Agincourt)", "provinceCode": "ON", "lat": 43.7946, "lng": -79.2644}, "M1T": {"placeName": "Scarborough (Clarks Corners / Tam O'Shanter / Sullivan)", "provinceCode": "ON", "lat": 43.7812, "lng": -79.3036}, "M1V": {"placeName": "Scarborough (Milliken / Agincourt North / Steeles East / L'Amoreaux East)", "provinceCode": "ON", "lat": 43.8177, "lng": -79.2819}, "M1W": {"placeName": "Scarborough (Steeles West / L'Amoreaux West)", "provinceCode": "ON", "lat": 43.8016, "lng": -79.3216}, "M1X": {"placeName": "Scarborough (Upper Rouge)", "provinceCode": "ON", "lat": 43.834, "lng": -79.2069}, "M2H": {"placeName": "North York (Hillcrest Village)", "provinceCode": "ON", "lat": 43.8015, "lng": -79.3577}, "M2J": {"placeName": "North York (Fairview / Henry Farm / Oriole)", "provinceCode": "ON", "lat": 43.7801, "lng": -79.3479}, "M2K": {"placeName": "North York (Bayview Village)", "provinceCode": "ON", "lat": 43.7797, "lng": -79.3813}, "M2L": {"placeName": "North York (York Mills / Silver Hills)", "provinceCode": "ON", "lat": 43.7547, "lng": -79.3764}, "M2M": {"placeName": "Willowdale East (Newtonbrook)", "provinceCode": "ON", "lat": 43.7915, "lng": -79.4103}, "M2N": {"placeName": "Willowdale South", "provinceCode": "ON", "lat": 43.7673, "lng": -79.4111}, "M2P": {"placeName": "North York (York Mills West)", "provinceCode": "ON", "lat": 43.75, "lng": -79.3978}, "M2R": {"placeName": "Willowdale West", "provinceCode": "ON", "lat": 43.7786, "lng": -79.445}, "M3A": {"placeName": "North York (York Heights / Victoria Village / Parkway East)", "provinceCode": "ON", "lat": 43.7545, "lng": -79.33}, "M3B": {"placeName": "Don Mills North", "provinceCode": "ON", "lat": 43.745, "lng": -79.359}, "M3C": {"placeName": "Don Mills South (Flemingdon Park)", "provinceCode": "ON", "lat": 43.7334, "lng": -79.3329}, "M3H": {"placeName": "North York (Armour Heights / Wilson Heights / Downsview North)", "provinceCode": "ON", "lat": 43.7535, "lng": -79.4472}, "M3J": {"placeName": "North York (Northwood Park / York University)", "provinceCode": "ON", "lat": 43.7694, "lng": -79.4921}, "M3L": {"placeName": "Downsview West", "provinceCode": "ON", "lat": 43.7334, "lng": -79.5116}, "M3M": {"placeName": "Downsview Central", "provinceCode": "ON", "lat": 43.7319, "lng": -79.4928}, "M3N": {"placeName": "North York (Jane and Finch)", "provinceCode": "ON", "lat": 43.7568, "lng": -79.521}, "M4A": {"placeName": "North York (Sweeney Park / Wigmore Park)", "provinceCode": "ON", "lat": 43.7276, "lng": -79.3148}, "M4B": {"placeName": "East York (Parkview Hill / Woodbine Gardens)", "provinceCode": "ON", "lat": 43.7063, "lng": -79.3094}, "M4C": {"placeName": "East York (Woodbine Heights)", "provinceCode": "ON", "lat": 43.6913, "lng": -79.3116}, "M4G": {"placeName": "East York (Leaside)", "provinceCode": "ON", "lat": 43.7124, "lng": -79.3644}, "M4H": {"placeName": "East York (Thorncliffe Park)", "provinceCode": "ON", "lat": 43.7059, "lng": -79.3464}, "M5M": {"placeName": "North York (Bedford Park / Lawrence Park West / Lawrence Manor East)", "provinceCode": "ON", "lat": 43.7335, "lng": -79.4177}, "M6A": {"placeName": "North York (Lawrence Manor / Lawrence Heights)", "provinceCode": "ON", "lat": 43.7223, "lng": -79.4504}, "M6B": {"placeName": "North York (Glencairn)", "provinceCode": "ON", "lat": 43.7081, "lng": -79.4479}, "M6C": {"placeName": "York (Cedarvale)", "provinceCode": "ON", "lat": 43.6915, "lng": -79.4307}, "M6E": {"placeName": "York (Fairbank / Oakwood)", "provinceCode": "ON", "lat": 43.6889, "lng": -79.4507}, "M6L": {"placeName": "North York (North Park / Maple Leaf Park / Upwood Park)", "provinceCode": "ON", "lat": 43.7137, "lng": -79.4869}, "M6M": {"placeName": "York (Del Ray / Keelsdale / Mount Dennis / Silverthorne)", "provinceCode": "ON", "lat": 43.6934, "lng": -79.4857}, "M6N": {"placeName": "York (Runnymede / The Junction North)", "provinceCode": "ON", "lat": 43.6748, "lng": -79.4839}, "M7A": {"placeName": "Queen's Park Ontario Provincial Government", "provinceCode": "ON", "lat": 43.6641, "lng": -79.3889}, "M8W": {"placeName": "Etobicoke (Alderwood / Long Branch)", "provinceCode": "ON", "lat": 43.6021, "lng": -79.5402}, "M8X": {"placeName": "Etobicoke (The Kingsway / Montgomery Road / Old Mill North)", "provinceCode": "ON", "lat": 43.6518, "lng": -79.5076}, "M8Y": {"placeName": "Etobicoke (Old Mill South / King's Mill Park / Sunnylea / Humber Bay / Mimico NE / The Queensway East / Royal York South East / Kingsway Park South East)", "provinceCode": "ON", "lat": 43.6325, "lng": -79.4939}, "M8Z": {"placeName": "Etobicoke (Mimico NW / The Queensway West / South of Bloor / Kingsway Park South West / Royal York South West)", "provinceCode": "ON", "lat": 43.6256, "lng": -79.5231}, "M9A": {"placeName": "Etobicoke (Islington Avenue)", "provinceCode": "ON", "lat": 43.6662, "lng": -79.5282}, "M9B": {"placeName": "Etobicoke (West Deane Park / Princess Gardens / Martin Grove / Islington / Cloverdale)", "provinceCode": "ON", "lat": 43.6505, "lng": -79.5517}, "M9C": {"placeName": "Etobicoke (Eringate / Bloordale Gardens / Old Burnhamthorpe / Markland Woods)", "provinceCode": "ON", "lat": 43.6437, "lng": -79.5767}, "M9L": {"placeName": "North York (Humber Summit)", "provinceCode": "ON", "lat": 43.7598, "lng": -79.5565}, "M9M": {"placeName": "North York (Humberlea / Emery)", "provinceCode": "ON", "lat": 43.7366, "lng": -79.5401}, "M9N": {"placeName": "Weston", "provinceCode": "ON", "lat": 43.7068, "lng": -79.517}, "M9P": {"placeName": "Etobicoke (Westmount)", "provinceCode": "ON", "lat": 43.6949, "lng": -79.5323}, "M9R": {"placeName": "Etobicoke (Kingsview Village / St. Phillips / Martin Grove Gardens / Richview Gardens)", "provinceCode": "ON", "lat": 43.6898, "lng": -79.5582}, "M9V": {"placeName": "Etobicoke (South Steeles / Silverstone / Humbergate / Jamestown / Mount Olive / Beaumond Heights / Thistletown / Albion Gardens)", "provinceCode": "ON", "lat": 43.7432, "lng": -79.5876}, "M9W": {"placeName": "Etobicoke Northwest (Clairville / Humberwood / Woodbine Downs / West Humber / Kipling Heights / Rexdale / Elms / Tandridge / Old Rexdale)", "provinceCode": "ON", "lat": 43.7144, "lng": -79.5909}, "N0A": {"placeName": "West Haldimand (Port Dover)", "provinceCode": "ON", "lat": 42.9403, "lng": -79.945}, "N0B": {"placeName": "Wellington (Elora)", "provinceCode": "ON", "lat": 43.5569, "lng": -80.4414}, "N0C": {"placeName": "Georgian Bay Southwest Shore (Dundalk)", "provinceCode": "ON", "lat": 44.2561, "lng": -80.5029}, "N0E": {"placeName": "Brant and Norfolk (Waterford)", "provinceCode": "ON", "lat": 42.6618, "lng": -80.5572}, "N0G": {"placeName": "Huron (Wingham)", "provinceCode": "ON", "lat": 44.0024, "lng": -81.0676}, "N0H": {"placeName": "Bruce Peninsula (Wiarton)", "provinceCode": "ON", "lat": 44.6941, "lng": -81.0962}, "N0J": {"placeName": "Oxford (Norwich)", "provinceCode": "ON", "lat": 42.9775, "lng": -80.7057}, "N0K": {"placeName": "Perth (Mitchell)", "provinceCode": "ON", "lat": 43.5067, "lng": -81.1582}, "N0L": {"placeName": "Elgin (Dorchester)", "provinceCode": "ON", "lat": 42.7557, "lng": -81.4533}, "N0M": {"placeName": "Middlesex (Clinton)", "provinceCode": "ON", "lat": 43.2788, "lng": -81.5442}, "N0N": {"placeName": "Lambton (Forest)", "provinceCode": "ON", "lat": 42.9062, "lng": -82.11}, "N0P": {"placeName": "Kent (Blenheim)", "provinceCode": "ON", "lat": 42.4045, "lng": -81.9107}, "N0R": {"placeName": "Essex (Belle River)", "provinceCode": "ON", "lat": 42.1783, "lng": -82.7715}, "N1A": {"placeName": "Dunnville", "provinceCode": "ON", "lat": 42.9001, "lng": -79.6163}, "N1C": {"placeName": "Guelph South", "provinceCode": "ON", "lat": 43.4921, "lng": -80.2267}, "N1E": {"placeName": "Guelph North", "provinceCode": "ON", "lat": 43.5677, "lng": -80.2418}, "N1G": {"placeName": "Guelph Central", "provinceCode": "ON", "lat": 43.5184, "lng": -80.2257}, "N1H": {"placeName": "Guelph Northwest", "provinceCode": "ON", "lat": 43.5588, "lng": -80.3004}, "N1K": {"placeName": "Guelph West", "provinceCode": "ON", "lat": 43.526, "lng": -80.3051}, "N1L": {"placeName": "Guelph East", "provinceCode": "ON", "lat": 43.516, "lng": -80.19}, "N1M": {"placeName": "Fergus", "provinceCode": "ON", "lat": 43.7001, "lng": -80.3664}, "N1P": {"placeName": "Cambridge South", "provinceCode": "ON", "lat": 43.3398, "lng": -80.2955}, "N1R": {"placeName": "Cambridge Central", "provinceCode": "ON", "lat": 43.3666, "lng": -80.2239}, "N1S": {"placeName": "Cambridge Southwest", "provinceCode": "ON", "lat": 43.3592, "lng": -80.3347}, "N1T": {"placeName": "Cambridge East", "provinceCode": "ON", "lat": 43.3849, "lng": -80.2833}, "N2A": {"placeName": "Kitchener East", "provinceCode": "ON", "lat": 43.4413, "lng": -80.4246}, "N2B": {"placeName": "Kitchener Northeast", "provinceCode": "ON", "lat": 43.4646, "lng": -80.4467}, "N2C": {"placeName": "Kitchener South Central", "provinceCode": "ON", "lat": 43.4182, "lng": -80.4451}, "N2E": {"placeName": "Kitchener Southwest", "provinceCode": "ON", "lat": 43.4106, "lng": -80.5011}, "N2G": {"placeName": "Kitchener Central", "provinceCode": "ON", "lat": 43.4443, "lng": -80.4891}, "N2H": {"placeName": "Kitchener North Central", "provinceCode": "ON", "lat": 43.4581, "lng": -80.4818}, "N2J": {"placeName": "Waterloo Southeast", "provinceCode": "ON", "lat": 43.504, "lng": -80.5366}, "N2K": {"placeName": "Kitchener North", "provinceCode": "ON", "lat": 43.4961, "lng": -80.4936}, "N2L": {"placeName": "Waterloo South", "provinceCode": "ON", "lat": 43.4715, "lng": -80.5454}, "N2M": {"placeName": "Kitchener Northwest", "provinceCode": "ON", "lat": 43.4363, "lng": -80.5093}, "N2N": {"placeName": "Kitchener West", "provinceCode": "ON", "lat": 43.426, "lng": -80.5438}, "N2P": {"placeName": "Kitchener Southeast", "provinceCode": "ON", "lat": 43.3878, "lng": -80.4296}, "N2R": {"placeName": "Kitchener South", "provinceCode": "ON", "lat": 43.3849, "lng": -80.487}, "N2T": {"placeName": "Waterloo Southwest", "provinceCode": "ON", "lat": 43.453, "lng": -80.5692}, "N2V": {"placeName": "Waterloo Northwest", "provinceCode": "ON", "lat": 43.4764, "lng": -80.5842}, "N2Z": {"placeName": "Kincardine", "provinceCode": "ON", "lat": 44.1664, "lng": -81.601}, "N3A": {"placeName": "Baden", "provinceCode": "ON", "lat": 43.4001, "lng": -80.6497}, "N3B": {"placeName": "Elmira", "provinceCode": "ON", "lat": 43.6001, "lng": -80.5497}, "N3C": {"placeName": "Cambridge Northeast", "provinceCode": "ON", "lat": 43.4389, "lng": -80.2649}, "N3E": {"placeName": "Cambridge Northwest", "provinceCode": "ON", "lat": 43.4193, "lng": -80.3505}, "N3H": {"placeName": "Cambridge West", "provinceCode": "ON", "lat": 43.4267, "lng": -80.3699}, "N3L": {"placeName": "Paris", "provinceCode": "ON", "lat": 43.2, "lng": -80.3833}, "N3W": {"placeName": "Caledonia", "provinceCode": "ON", "lat": 43.0668, "lng": -79.9329}, "N3Y": {"placeName": "Simcoe", "provinceCode": "ON", "lat": 42.8334, "lng": -80.2997}, "N4B": {"placeName": "Delhi", "provinceCode": "ON", "lat": 42.8501, "lng": -80.4997}, "N4G": {"placeName": "Tillsonburg", "provinceCode": "ON", "lat": 42.8599, "lng": -80.7262}, "N4K": {"placeName": "Owen Sound", "provinceCode": "ON", "lat": 44.5672, "lng": -80.9435}, "N4L": {"placeName": "Meaford", "provinceCode": "ON", "lat": 44.6001, "lng": -80.583}, "N4N": {"placeName": "Hanover", "provinceCode": "ON", "lat": 44.1501, "lng": -81.033}, "N4S": {"placeName": "Woodstock Central", "provinceCode": "ON", "lat": 43.1432, "lng": -80.7338}, "N4T": {"placeName": "Woodstock North", "provinceCode": "ON", "lat": 43.1485, "lng": -80.7319}, "N4V": {"placeName": "Woodstock South", "provinceCode": "ON", "lat": 43.115, "lng": -80.743}, "N4W": {"placeName": "Listowel", "provinceCode": "ON", "lat": 43.7334, "lng": -80.9497}, "N4X": {"placeName": "St. Mary's", "provinceCode": "ON", "lat": 43.2655, "lng": -81.1687}, "N4Z": {"placeName": "Stratford South", "provinceCode": "ON", "lat": 43.3634, "lng": -81.0069}, "N5A": {"placeName": "Stratford North", "provinceCode": "ON", "lat": 43.3668, "lng": -80.9497}, "N5C": {"placeName": "Ingersoll", "provinceCode": "ON", "lat": 43.0334, "lng": -80.883}, "N5H": {"placeName": "Aylmer", "provinceCode": "ON", "lat": 42.7668, "lng": -80.983}, "N5L": {"placeName": "Port Stanley", "provinceCode": "ON", "lat": 42.6668, "lng": -81.2164}, "N5P": {"placeName": "St. Thomas North", "provinceCode": "ON", "lat": 42.7779, "lng": -81.1769}, "N5R": {"placeName": "St. Thomas South", "provinceCode": "ON", "lat": 42.7597, "lng": -81.1762}, "N5V": {"placeName": "London (YXU / North and East Argyle / East Huron Heights)", "provinceCode": "ON", "lat": 43.0233, "lng": -81.1643}, "N5W": {"placeName": "London East (SW Argyle / Hamilton Road)", "provinceCode": "ON", "lat": 42.9856, "lng": -81.1821}, "N5X": {"placeName": "London (Fanshawe / Stoneybrook / Stoney Creek / Uplands / East Masonville)", "provinceCode": "ON", "lat": 43.0443, "lng": -81.2391}, "N5Y": {"placeName": "London (West Huron Heights / Carling)", "provinceCode": "ON", "lat": 43.0123, "lng": -81.2307}, "N5Z": {"placeName": "London (Glen Cairn)", "provinceCode": "ON", "lat": 42.966, "lng": -81.2053}, "N6A": {"placeName": "London North (UWO)", "provinceCode": "ON", "lat": 42.9976, "lng": -81.2563}, "N6B": {"placeName": "London Central", "provinceCode": "ON", "lat": 42.9835, "lng": -81.2386}, "N6C": {"placeName": "London South (East Highland / North White Oaks / North Westminster)", "provinceCode": "ON", "lat": 42.9582, "lng": -81.238}, "N6E": {"placeName": "London (South White Oaks / Central Westminster / East Longwoods / West Brockley)", "provinceCode": "ON", "lat": 42.9185, "lng": -81.2244}, "N6G": {"placeName": "London (Sunningdale / West Masonville / Medway / NE Hyde Park / East Fox Hollow)", "provinceCode": "ON", "lat": 43.0147, "lng": -81.3049}, "N6H": {"placeName": "London West (Central Hyde Park / Oakridge)", "provinceCode": "ON", "lat": 42.9915, "lng": -81.3402}, "N6J": {"placeName": "London (Southcrest / East Westmount / West Highland)", "provinceCode": "ON", "lat": 42.9546, "lng": -81.2735}, "N6K": {"placeName": "London (Riverbend / Woodhull / North Sharon Creek / Byron / West Westmount)", "provinceCode": "ON", "lat": 42.9536, "lng": -81.3418}, "N6L": {"placeName": "London (East Tempo)", "provinceCode": "ON", "lat": 42.8719, "lng": -81.2472}, "N6M": {"placeName": "London (Jackson / Old Victoria / Bradley / North Highbury)", "provinceCode": "ON", "lat": 42.9632, "lng": -81.1392}, "N6N": {"placeName": "London (South Highbury / Glanworth / East Brockley / SE Westminster)", "provinceCode": "ON", "lat": 42.8997, "lng": -81.1592}, "N6P": {"placeName": "London (Talbot / Lambeth / West Tempo / South Sharon Creek)", "provinceCode": "ON", "lat": 42.8909, "lng": -81.3236}, "N7A": {"placeName": "Goderich", "provinceCode": "ON", "lat": 43.7501, "lng": -81.7165}, "N7G": {"placeName": "Strathroy", "provinceCode": "ON", "lat": 42.9551, "lng": -81.6223}, "N7L": {"placeName": "Chatham Northwest", "provinceCode": "ON", "lat": 42.4209, "lng": -82.1993}, "N7M": {"placeName": "Chatham Southeast", "provinceCode": "ON", "lat": 42.4238, "lng": -82.1183}, "N7S": {"placeName": "Sarnia Central", "provinceCode": "ON", "lat": 42.9888, "lng": -82.3592}, "N7T": {"placeName": "Sarnia Southwest", "provinceCode": "ON", "lat": 42.9578, "lng": -82.2777}, "N7V": {"placeName": "Sarnia Northwest", "provinceCode": "ON", "lat": 42.9998, "lng": -82.3926}, "N7W": {"placeName": "Sarnia Southeast", "provinceCode": "ON", "lat": 42.9644, "lng": -82.3259}, "N7X": {"placeName": "Sarnia Northeast", "provinceCode": "ON", "lat": 43.0214, "lng": -82.3212}, "N8A": {"placeName": "Wallaceburg", "provinceCode": "ON", "lat": 42.593, "lng": -82.3885}, "N8H": {"placeName": "Leamington", "provinceCode": "ON", "lat": 42.0549, "lng": -82.6062}, "N8M": {"placeName": "Essex", "provinceCode": "ON", "lat": 42.1751, "lng": -82.8248}, "N8N": {"placeName": "Tecumseh Outskirts", "provinceCode": "ON", "lat": 42.2946, "lng": -82.8667}, "N8P": {"placeName": "Windsor (East Riverside)", "provinceCode": "ON", "lat": 42.3276, "lng": -82.9104}, "N8R": {"placeName": "Windsor (East Forest Glade)", "provinceCode": "ON", "lat": 42.3067, "lng": -82.915}, "N8S": {"placeName": "Windsor (Riverside)", "provinceCode": "ON", "lat": 42.3283, "lng": -82.9472}, "N8T": {"placeName": "Windsor (West Forest Glade / East Fontainbleu)", "provinceCode": "ON", "lat": 42.3037, "lng": -82.9459}, "N8V": {"placeName": "Tecumseh (YQG)", "provinceCode": "ON", "lat": 42.2773, "lng": -82.9447}, "N8W": {"placeName": "Windsor (South Walkerville / West Fontainbleu / Walker Farm / Devonshire)", "provinceCode": "ON", "lat": 42.2836, "lng": -82.9771}, "N8X": {"placeName": "Windsor South Central (West Walkerville / Remington Park)", "provinceCode": "ON", "lat": 42.2926, "lng": -83.0186}, "N8Y": {"placeName": "Windsor East (East Walkerville)", "provinceCode": "ON", "lat": 42.3176, "lng": -82.9929}, "N9A": {"placeName": "Windsor (City Centre / NW Walkerville)", "provinceCode": "ON", "lat": 42.2007, "lng": -83.0276}, "N9B": {"placeName": "Windsor (University / South Cameron)", "provinceCode": "ON", "lat": 42.2949, "lng": -83.052}, "N9C": {"placeName": "Windsor (Sandwich / Ojibway / West Malden)", "provinceCode": "ON", "lat": 42.2767, "lng": -83.0793}, "N9E": {"placeName": "Windsor South (East Malden)", "provinceCode": "ON", "lat": 42.2652, "lng": -83.0314}, "N9G": {"placeName": "Windsor (Roseland)", "provinceCode": "ON", "lat": 42.2481, "lng": -82.9952}, "N9H": {"placeName": "La Salle East", "provinceCode": "ON", "lat": 42.2318, "lng": -83.0281}, "N9J": {"placeName": "La Salle West", "provinceCode": "ON", "lat": 42.2187, "lng": -83.0801}, "N9K": {"placeName": "Tecumseh Central", "provinceCode": "ON", "lat": 42.2978, "lng": -82.8701}, "N9V": {"placeName": "Amherstburg", "provinceCode": "ON", "lat": 42.1168, "lng": -83.0498}, "N9Y": {"placeName": "Kingsville", "provinceCode": "ON", "lat": 42.0502, "lng": -82.7598}, "P0A": {"placeName": "Nipissing Central (Burk's Falls)", "provinceCode": "ON", "lat": 45.5881, "lng": -79.3546}, "P0B": {"placeName": "Nipissing South (Utterson)", "provinceCode": "ON", "lat": 45.1863, "lng": -79.4115}, "P0C": {"placeName": "Parry Sound Mid-Shore (Bala)", "provinceCode": "ON", "lat": 45.1275, "lng": -79.786}, "P0E": {"placeName": "Parry Sound South Shore (Kilworthy)", "provinceCode": "ON", "lat": 44.8608, "lng": -79.5069}, "P0G": {"placeName": "Parry Sound North Shore (Nobel)", "provinceCode": "ON", "lat": 45.6718, "lng": -80.3688}, "P0H": {"placeName": "Nipissing North (Callander)", "provinceCode": "ON", "lat": 46.3109, "lng": -79.3617}, "P0J": {"placeName": "Timiskaming South (Temiskaming Shores)", "provinceCode": "ON", "lat": 47.5776, "lng": -80.2036}, "P0K": {"placeName": "Timiskaming North (Iroquois Falls A)", "provinceCode": "ON", "lat": 48.5234, "lng": -80.3081}, "P0L": {"placeName": "Cochrane Region (Hearst)", "provinceCode": "ON", "lat": 51.97, "lng": -83.5369}, "P0M": {"placeName": "Algoma, Sudbury District and Greater Sudbury (Chelmsford)", "provinceCode": "ON", "lat": 47.6526, "lng": -82.4753}, "P0N": {"placeName": "Timmins Region (South Porcupine)", "provinceCode": "ON", "lat": 48.6027, "lng": -81.0115}, "P0P": {"placeName": "Manitoulin (Little Current)", "provinceCode": "ON", "lat": 45.7565, "lng": -82.2151}, "P0S": {"placeName": "Lake Superior East Shore (Wawa)", "provinceCode": "ON", "lat": 48.048, "lng": -84.6727}, "P0T": {"placeName": "Lake Superior North Shore (Marathon)", "provinceCode": "ON", "lat": 49.2924, "lng": -88.756}, "P0V": {"placeName": "Northwestern Ontario (Red Lake)", "provinceCode": "ON", "lat": 52.9648, "lng": -90.1505}, "P0W": {"placeName": "Rainy River Region (Emo)", "provinceCode": "ON", "lat": 48.875, "lng": -93.7522}, "P0X": {"placeName": "Kenora Region (Keewatin)", "provinceCode": "ON", "lat": 50.9293, "lng": -93.3095}, "P0Y": {"placeName": "Lake of the Woods East Shore (Ingolf)", "provinceCode": "ON", "lat": 49.7603, "lng": -95.1003}, "P1A": {"placeName": "North Bay South", "provinceCode": "ON", "lat": 46.2801, "lng": -79.4502}, "P1B": {"placeName": "North Bay Central", "provinceCode": "ON", "lat": 46.3364, "lng": -79.583}, "P1C": {"placeName": "North Bay North", "provinceCode": "ON", "lat": 46.3397, "lng": -79.4223}, "P1H": {"placeName": "Huntsville", "provinceCode": "ON", "lat": 45.3334, "lng": -79.2163}, "P1L": {"placeName": "Bracebridge", "provinceCode": "ON", "lat": 45.0334, "lng": -79.3163}, "P1P": {"placeName": "Gravenhurst", "provinceCode": "ON", "lat": 44.9168, "lng": -79.3663}, "P2A": {"placeName": "Parry Sound", "provinceCode": "ON", "lat": 45.3501, "lng": -80.033}, "P2B": {"placeName": "Sturgeon Falls", "provinceCode": "ON", "lat": 46.3668, "lng": -79.9164}, "P2N": {"placeName": "Kirkland Lake", "provinceCode": "ON", "lat": 48.1446, "lng": -80.0377}, "P3A": {"placeName": "Greater Sudbury (New Sudbury)", "provinceCode": "ON", "lat": 46.5187, "lng": -80.934}, "P3B": {"placeName": "Greater Sudbury (Downtown / Minnow Lake)", "provinceCode": "ON", "lat": 46.4847, "lng": -80.9304}, "P3C": {"placeName": "Greater Sudbury (Gatchell / West End / Little Britain)", "provinceCode": "ON", "lat": 46.5133, "lng": -81.0225}, "P3E": {"placeName": "Greater Sudbury (Robinson / Lockerby)", "provinceCode": "ON", "lat": 46.2676, "lng": -80.9063}, "P3G": {"placeName": "Greater Sudbury (Lo-Ellen / McFarlane Lake)", "provinceCode": "ON", "lat": 46.4031, "lng": -80.9745}, "P3L": {"placeName": "Greater Sudbury (Garson)", "provinceCode": "ON", "lat": 46.5942, "lng": -80.85}, "P3N": {"placeName": "Greater Sudbury (Val Caron)", "provinceCode": "ON", "lat": 46.5845, "lng": -81.0029}, "P3P": {"placeName": "Greater Sudbury (Hanmer)", "provinceCode": "ON", "lat": 46.7259, "lng": -81.0166}, "P3Y": {"placeName": "Greater Sudbury (Lively)", "provinceCode": "ON", "lat": 46.4431, "lng": -81.127}, "P4N": {"placeName": "Timmins Southeast", "provinceCode": "ON", "lat": 48.4669, "lng": -81.3331}, "P4P": {"placeName": "Timmins North", "provinceCode": "ON", "lat": 48.4985, "lng": -81.3448}, "P4R": {"placeName": "Timmins West", "provinceCode": "ON", "lat": 48.4702, "lng": -81.3997}, "P5A": {"placeName": "Elliot Lake", "provinceCode": "ON", "lat": 46.3834, "lng": -82.6332}, "P5E": {"placeName": "Espanola", "provinceCode": "ON", "lat": 46.2584, "lng": -81.7665}, "P5N": {"placeName": "Kapuskasing", "provinceCode": "ON", "lat": 49.4169, "lng": -82.4331}, "P6A": {"placeName": "Sault Ste. Marie East", "provinceCode": "ON", "lat": 46.5168, "lng": -84.3333}, "P6B": {"placeName": "Sault Ste. Marie Central", "provinceCode": "ON", "lat": 46.5307, "lng": -84.3046}, "P6C": {"placeName": "Sault Ste. Marie North", "provinceCode": "ON", "lat": 46.5353, "lng": -84.3732}, "P7A": {"placeName": "Thunder Bay Northeast", "provinceCode": "ON", "lat": 48.4601, "lng": -89.2035}, "P7B": {"placeName": "Thunder Bay North Central", "provinceCode": "ON", "lat": 48.9475, "lng": -89.4063}, "P7C": {"placeName": "Thunder Bay Central", "provinceCode": "ON", "lat": 48.352, "lng": -89.4649}, "P7E": {"placeName": "Thunder Bay South Central", "provinceCode": "ON", "lat": 48.3684, "lng": -89.284}, "P7G": {"placeName": "Thunder Bay North", "provinceCode": "ON", "lat": 48.4001, "lng": -89.3168}, "P7J": {"placeName": "Thunder Bay South", "provinceCode": "ON", "lat": 48.2834, "lng": -89.3668}, "P7K": {"placeName": "Thunder Bay West", "provinceCode": "ON", "lat": 48.3728, "lng": -89.3484}, "P7L": {"placeName": "Neebing", "provinceCode": "ON", "lat": 48.1668, "lng": -89.4168}, "P8N": {"placeName": "Dryden", "provinceCode": "ON", "lat": 49.7833, "lng": -92.7503}, "P8T": {"placeName": "Sioux Lookout", "provinceCode": "ON", "lat": 50.0668, "lng": -91.9836}, "P9A": {"placeName": "Fort Frances", "provinceCode": "ON", "lat": 48.6393, "lng": -93.4469}, "P9N": {"placeName": "Kenora", "provinceCode": "ON", "lat": 49.7573, "lng": -94.3427}, "C0B": {"placeName": "Prince County (Portage)", "provinceCode": "PE", "lat": 46.6023, "lng": -63.9583}, "C0A": {"placeName": "Montague", "provinceCode": "PE", "lat": 46.1668, "lng": -62.6487}, "C1A": {"placeName": "Charlottetown Southeast Prince Edward Island Provincial Government", "provinceCode": "PE", "lat": 46.2716, "lng": -63.0165}, "C1B": {"placeName": "Stratford", "provinceCode": "PE", "lat": 46.2179, "lng": -63.0795}, "C1C": {"placeName": "Charlottetown North", "provinceCode": "PE", "lat": 46.2645, "lng": -63.0842}, "C1E": {"placeName": "Charlottetown West", "provinceCode": "PE", "lat": 46.3451, "lng": -63.2011}, "C1N": {"placeName": "Summerside", "provinceCode": "PE", "lat": 46.3959, "lng": -63.7876}, "G4W": {"placeName": "Matane", "provinceCode": "QC", "lat": 48.8286, "lng": -67.522}, "G5H": {"placeName": "Mont-Joli", "provinceCode": "QC", "lat": 48.5839, "lng": -68.1921}, "G5J": {"placeName": "Amqui", "provinceCode": "QC", "lat": 48.4638, "lng": -67.4313}, "G5L": {"placeName": "Rimouski Central", "provinceCode": "QC", "lat": 48.416, "lng": -68.5979}, "G5M": {"placeName": "Rimouski Northeast", "provinceCode": "QC", "lat": 48.4966, "lng": -68.458}, "G5N": {"placeName": "Rimouski Southwest", "provinceCode": "QC", "lat": 48.3668, "lng": -68.4659}, "G5R": {"placeName": "Rivi\u00e8re-du-Loup", "provinceCode": "QC", "lat": 47.8304, "lng": -69.5342}, "G7P": {"placeName": "Saint-Ambroise", "provinceCode": "QC", "lat": 48.5501, "lng": -71.3158}, "G8B": {"placeName": "Alma Southeast", "provinceCode": "QC", "lat": 48.5548, "lng": -71.673}, "G8C": {"placeName": "Alma Southwest", "provinceCode": "QC", "lat": 48.5278, "lng": -71.6364}, "G8E": {"placeName": "Alma North", "provinceCode": "QC", "lat": 48.6377, "lng": -71.6957}, "G8H": {"placeName": "Roberval", "provinceCode": "QC", "lat": 48.5168, "lng": -72.2324}, "G8J": {"placeName": "Saint-Prime", "provinceCode": "QC", "lat": 48.5834, "lng": -72.3324}, "G8K": {"placeName": "Saint-F\u00e9licien", "provinceCode": "QC", "lat": 48.6501, "lng": -72.4491}, "G8L": {"placeName": "Dolbeau-Mistassini", "provinceCode": "QC", "lat": 48.8763, "lng": -72.212}, "G8M": {"placeName": "Albanel", "provinceCode": "QC", "lat": 48.8832, "lng": -72.4487}, "G8N": {"placeName": "H\u00e9bertville", "provinceCode": "QC", "lat": 48.3473, "lng": -71.6786}, "G0A": {"placeName": "Capitale-Nationale (Stoneham)", "provinceCode": "QC", "lat": 47.3507, "lng": -71.202}, "G1A": {"placeName": "Quebec Provincial Government", "provinceCode": "QC", "lat": 46.8588, "lng": -71.192}, "G1J": {"placeName": "Quebec City Lower Riverbank", "provinceCode": "QC", "lat": 46.838, "lng": -71.2232}, "G1K": {"placeName": "Quebec City Mid-Riverbank", "provinceCode": "QC", "lat": 46.814, "lng": -71.2194}, "G1L": {"placeName": "Quebec City Northeast", "provinceCode": "QC", "lat": 46.8304, "lng": -71.2455}, "G1M": {"placeName": "Quebec City North Central", "provinceCode": "QC", "lat": 46.8183, "lng": -71.2706}, "G1N": {"placeName": "Quebec City South Central", "provinceCode": "QC", "lat": 46.8035, "lng": -71.2639}, "G1P": {"placeName": "Quebec City West", "provinceCode": "QC", "lat": 46.8097, "lng": -71.3102}, "G1R": {"placeName": "Quebec City East", "provinceCode": "QC", "lat": 46.8074, "lng": -71.2181}, "G1S": {"placeName": "Quebec City South", "provinceCode": "QC", "lat": 46.7933, "lng": -71.2453}, "G1T": {"placeName": "Quebec City Upper Riverbank", "provinceCode": "QC", "lat": 46.7741, "lng": -71.2609}, "G2C": {"placeName": "Quebec City Northwest", "provinceCode": "QC", "lat": 46.8287, "lng": -71.334}, "G2E": {"placeName": "L'Ancienne-Lorette Northeast", "provinceCode": "QC", "lat": 46.8083, "lng": -71.3605}, "G2J": {"placeName": "Quebec City Inner North", "provinceCode": "QC", "lat": 46.8399, "lng": -71.2781}, "G2K": {"placeName": "Quebec City Outer North", "provinceCode": "QC", "lat": 46.8545, "lng": -71.3044}, "G3B": {"placeName": "Lac-Beauport", "provinceCode": "QC", "lat": 46.9833, "lng": -71.2906}, "G3C": {"placeName": "Stoneham-et-Tewkesbury", "provinceCode": "QC", "lat": 47.1691, "lng": -71.4332}, "G3H": {"placeName": "Pont-Rouge", "provinceCode": "QC", "lat": 46.7547, "lng": -71.6957}, "G3M": {"placeName": "Donnacona", "provinceCode": "QC", "lat": 46.6804, "lng": -71.7239}, "G3N": {"placeName": "Sainte-Catherine-de-la-Jacques-Cartier", "provinceCode": "QC", "lat": 46.8524, "lng": -71.6206}, "G3S": {"placeName": "Shannon", "provinceCode": "QC", "lat": 46.8803, "lng": -71.5146}, "G3Z": {"placeName": "Baie-Saint-Paul", "provinceCode": "QC", "lat": 47.4411, "lng": -70.4986}, "G4A": {"placeName": "Clermont", "provinceCode": "QC", "lat": 47.7184, "lng": -70.2276}, "G5A": {"placeName": "La Malbaie", "provinceCode": "QC", "lat": 47.6575, "lng": -70.1559}, "G0X": {"placeName": "Mauricie (Parent)", "provinceCode": "QC", "lat": 47.9168, "lng": -74.6159}, "G9X": {"placeName": "La Tuque", "provinceCode": "QC", "lat": 47.4334, "lng": -72.7824}, "J5V": {"placeName": "Louiseville", "provinceCode": "QC", "lat": 46.2559, "lng": -72.9415}, "J0B": {"placeName": "Estrie-Est (Stanstead)", "provinceCode": "QC", "lat": 45.1001, "lng": -72.0491}, "J1S": {"placeName": "Windsor", "provinceCode": "QC", "lat": 45.5668, "lng": -71.9991}, "J1T": {"placeName": "Asbestos", "provinceCode": "QC", "lat": 45.7668, "lng": -71.9324}, "J1X": {"placeName": "Magog", "provinceCode": "QC", "lat": 45.2668, "lng": -72.1491}, "H1B": {"placeName": "Montreal East", "provinceCode": "QC", "lat": 45.632, "lng": -73.5075}, "H1G": {"placeName": "Montreal North North", "provinceCode": "QC", "lat": 45.6109, "lng": -73.6211}, "H1H": {"placeName": "Montreal North South", "provinceCode": "QC", "lat": 45.5899, "lng": -73.6389}, "H2Y": {"placeName": "Old Montreal", "provinceCode": "QC", "lat": 45.5057, "lng": -73.555}, "H2Z": {"placeName": "Downtown Montreal Northeast", "provinceCode": "QC", "lat": 45.5052, "lng": -73.5622}, "H3A": {"placeName": "Downtown Montreal North", "provinceCode": "QC", "lat": 45.504, "lng": -73.5747}, "H3B": {"placeName": "Downtown Montreal East", "provinceCode": "QC", "lat": 45.5005, "lng": -73.5684}, "H3G": {"placeName": "Downtown Montreal Southeast", "provinceCode": "QC", "lat": 45.4987, "lng": -73.5793}, "H3H": {"placeName": "Downtown Montreal South & West", "provinceCode": "QC", "lat": 45.5009, "lng": -73.5877}, "H3X": {"placeName": "Hampstead", "provinceCode": "QC", "lat": 45.4819, "lng": -73.6421}, "H3Y": {"placeName": "Westmount West", "provinceCode": "QC", "lat": 45.4876, "lng": -73.6045}, "H3Z": {"placeName": "Westmount East", "provinceCode": "QC", "lat": 45.4825, "lng": -73.5933}, "H4W": {"placeName": "C\u00f4te-Saint-Luc West", "provinceCode": "QC", "lat": 45.47, "lng": -73.6686}, "H4X": {"placeName": "Montreal West", "provinceCode": "QC", "lat": 45.4529, "lng": -73.6492}, "H9J": {"placeName": "Kirkland", "provinceCode": "QC", "lat": 45.4501, "lng": -73.8659}, "H9P": {"placeName": "Dorval Outskirts", "provinceCode": "QC", "lat": 45.4679, "lng": -73.7748}, "H9R": {"placeName": "Pointe-Claire", "provinceCode": "QC", "lat": 45.4487, "lng": -73.8167}, "H9W": {"placeName": "Beaconsfield", "provinceCode": "QC", "lat": 45.4334, "lng": -73.8659}, "J0X": {"placeName": "Outaouais-Sud (Thurso)", "provinceCode": "QC", "lat": 46.307, "lng": -76.7653}, "J8N": {"placeName": "Val-des-Monts", "provinceCode": "QC", "lat": 45.6501, "lng": -75.666}, "J9B": {"placeName": "Chelsea", "provinceCode": "QC", "lat": 45.5001, "lng": -75.7827}, "J9E": {"placeName": "Maniwaki", "provinceCode": "QC", "lat": 46.3834, "lng": -75.966}, "J0Z": {"placeName": "Abitibi-T\u00e9miscamingue-Ouest (Guigues)", "provinceCode": "QC", "lat": 47.8626, "lng": -78.824}, "J9P": {"placeName": "Val-d'Or", "provinceCode": "QC", "lat": 48.1002, "lng": -77.7828}, "J9T": {"placeName": "Amos", "provinceCode": "QC", "lat": 48.5669, "lng": -78.1162}, "J9V": {"placeName": "Ville-Marie", "provinceCode": "QC", "lat": 47.3334, "lng": -79.433}, "J9Z": {"placeName": "La Sarre", "provinceCode": "QC", "lat": 48.8002, "lng": -79.1996}, "G0G": {"placeName": "C\u00f4te-Nord/Anticosti (Schefferville)", "provinceCode": "QC", "lat": 53.0413, "lng": -68.6884}, "G4S": {"placeName": "Sept-\u00celes Northwest", "provinceCode": "QC", "lat": 50.2713, "lng": -66.3751}, "G5B": {"placeName": "Port-Cartier", "provinceCode": "QC", "lat": 50.0334, "lng": -66.8655}, "G8P": {"placeName": "Chibougamau", "provinceCode": "QC", "lat": 49.9168, "lng": -74.3659}, "G4X": {"placeName": "Gasp\u00e9", "provinceCode": "QC", "lat": 48.8334, "lng": -64.4819}, "G5V": {"placeName": "Montmagny", "provinceCode": "QC", "lat": 46.9804, "lng": -70.5549}, "G5X": {"placeName": "Beauceville", "provinceCode": "QC", "lat": 46.2179, "lng": -70.7787}, "G5Y": {"placeName": "Saint-Georges Central", "provinceCode": "QC", "lat": 46.1326, "lng": -70.6375}, "G5Z": {"placeName": "Saint-Georges Southeast", "provinceCode": "QC", "lat": 46.0642, "lng": -70.7118}, "G6A": {"placeName": "Saint-Georges Northwest", "provinceCode": "QC", "lat": 46.1437, "lng": -70.6817}, "G6E": {"placeName": "Sainte-Marie", "provinceCode": "QC", "lat": 46.434, "lng": -71.0117}, "G6G": {"placeName": "Thetford Mines", "provinceCode": "QC", "lat": 46.0937, "lng": -71.3054}, "G6V": {"placeName": "L\u00e9vis North", "provinceCode": "QC", "lat": 46.8033, "lng": -71.1779}, "G6W": {"placeName": "L\u00e9vis South", "provinceCode": "QC", "lat": 46.7546, "lng": -71.22}, "G6Y": {"placeName": "L\u00e9vis", "provinceCode": "QC", "lat": 46.8033, "lng": -71.1779}, "H7N": {"placeName": "Laval-des-Rapides", "provinceCode": "QC", "lat": 45.5501, "lng": -73.6992}, "H7R": {"placeName": "Laval-sur-le-Lac", "provinceCode": "QC", "lat": 45.5526, "lng": -73.8507}, "J0K": {"placeName": "Lanaudi\u00e8re-Nord (Saint-Esprit)", "provinceCode": "QC", "lat": 46.7966, "lng": -73.8705}, "J5M": {"placeName": "Saint-Lin-Laurentides", "provinceCode": "QC", "lat": 45.8501, "lng": -73.7659}, "J5T": {"placeName": "Lavaltrie", "provinceCode": "QC", "lat": 45.8834, "lng": -73.2825}, "J5X": {"placeName": "L'\u00c9piphanie", "provinceCode": "QC", "lat": 45.8501, "lng": -73.4825}, "J5Y": {"placeName": "Repentigny Northeast", "provinceCode": "QC", "lat": 45.7774, "lng": -73.4252}, "J5Z": {"placeName": "Repentigny West", "provinceCode": "QC", "lat": 45.7643, "lng": -73.5036}, "J6A": {"placeName": "Repentigny South", "provinceCode": "QC", "lat": 45.7395, "lng": -73.4588}, "J6V": {"placeName": "Terrebonne East", "provinceCode": "QC", "lat": 45.714, "lng": -73.5357}, "J6W": {"placeName": "Terrebonne Central", "provinceCode": "QC", "lat": 45.7064, "lng": -73.6178}, "J6X": {"placeName": "Terrebonne Northwest", "provinceCode": "QC", "lat": 45.7275, "lng": -73.7062}, "J6Y": {"placeName": "Terrebonne Southwest", "provinceCode": "QC", "lat": 45.7, "lng": -73.752}, "J7K": {"placeName": "Mascouche Extremities", "provinceCode": "QC", "lat": 45.77, "lng": -73.6049}, "J7L": {"placeName": "Mascouche Central", "provinceCode": "QC", "lat": 45.7424, "lng": -73.6509}, "J0T": {"placeName": "Laurentides-Nord (Montcalm)", "provinceCode": "QC", "lat": 46.3002, "lng": -74.5855}, "J5K": {"placeName": "Saint-Colomban", "provinceCode": "QC", "lat": 45.7334, "lng": -74.1325}, "J5L": {"placeName": "Saint-J\u00e9r\u00f4me West", "provinceCode": "QC", "lat": 45.7987, "lng": -74.0727}, "J7E": {"placeName": "Sainte-Th\u00e9r\u00e8se-de-Blainville Central", "provinceCode": "QC", "lat": 45.6442, "lng": -73.8448}, "J7P": {"placeName": "Saint-Eustache Northeast", "provinceCode": "QC", "lat": 45.5779, "lng": -73.8809}, "J7R": {"placeName": "Saint-Eustache Southwest", "provinceCode": "QC", "lat": 45.574, "lng": -73.94}, "J7Y": {"placeName": "Saint-J\u00e9r\u00f4me North", "provinceCode": "QC", "lat": 45.8058, "lng": -74.0165}, "J7Z": {"placeName": "Saint-J\u00e9r\u00f4me Southeast", "provinceCode": "QC", "lat": 45.7788, "lng": -73.9829}, "J8A": {"placeName": "Saint-Hippolyte", "provinceCode": "QC", "lat": 45.9334, "lng": -74.0159}, "J8B": {"placeName": "Sainte-Ad\u00e8le", "provinceCode": "QC", "lat": 45.9501, "lng": -74.1325}, "J8E": {"placeName": "Mont-Tremblant", "provinceCode": "QC", "lat": 46.1949, "lng": -74.6264}, "J8H": {"placeName": "Lachute", "provinceCode": "QC", "lat": 45.6501, "lng": -74.3325}, "J9L": {"placeName": "Mont-Laurier", "provinceCode": "QC", "lat": 46.5501, "lng": -75.4993}, "J0J": {"placeName": "Mont\u00e9r\u00e9gie-Est (Bedford)", "provinceCode": "QC", "lat": 45.1529, "lng": -73.1636}, "J0L": {"placeName": "Mont\u00e9r\u00e9gie-Nord (Saint-Antoine-Sur-Richelieu)", "provinceCode": "QC", "lat": 45.1956, "lng": -73.5695}, "J0S": {"placeName": "Mont\u00e9r\u00e9gie-Ouest (Saint-Anicet)", "provinceCode": "QC", "lat": 45.1082, "lng": -74.0451}, "J2G": {"placeName": "Granby Central", "provinceCode": "QC", "lat": 45.4046, "lng": -72.7202}, "J2H": {"placeName": "Granby East", "provinceCode": "QC", "lat": 45.3938, "lng": -72.7005}, "J2J": {"placeName": "Granby West", "provinceCode": "QC", "lat": 45.4005, "lng": -72.7825}, "J2K": {"placeName": "Cowansville", "provinceCode": "QC", "lat": 45.2001, "lng": -72.7491}, "J2L": {"placeName": "Bromont", "provinceCode": "QC", "lat": 45.3168, "lng": -72.6491}, "J2M": {"placeName": "Shefford", "provinceCode": "QC", "lat": 45.3501, "lng": -72.5658}, "J2N": {"placeName": "Farnham", "provinceCode": "QC", "lat": 45.2834, "lng": -72.9824}, "J2R": {"placeName": "Saint-Hyacinthe Northwest", "provinceCode": "QC", "lat": 45.6567, "lng": -72.9237}, "J2S": {"placeName": "Saint-Hyacinthe Southwest", "provinceCode": "QC", "lat": 45.6139, "lng": -72.9912}, "J2T": {"placeName": "Saint-Hyacinthe East", "provinceCode": "QC", "lat": 45.5971, "lng": -72.9366}, "J2X": {"placeName": "Saint-Jean-sur-Richelieu East", "provinceCode": "QC", "lat": 45.309, "lng": -73.219}, "J2Y": {"placeName": "Saint-Jean-sur-Richelieu West", "provinceCode": "QC", "lat": 45.3114, "lng": -73.3556}, "J3A": {"placeName": "Saint-Jean-sur-Richelieu North", "provinceCode": "QC", "lat": 45.3339, "lng": -73.2744}, "J3B": {"placeName": "Saint-Jean-sur-Richelieu Central", "provinceCode": "QC", "lat": 45.2832, "lng": -73.2792}, "J3E": {"placeName": "Sainte-Julie", "provinceCode": "QC", "lat": 45.5834, "lng": -73.3325}, "J3G": {"placeName": "Beloeil West", "provinceCode": "QC", "lat": 45.5946, "lng": -73.2283}, "J3L": {"placeName": "Chambly", "provinceCode": "QC", "lat": 45.4501, "lng": -73.2825}, "J3M": {"placeName": "Marieville", "provinceCode": "QC", "lat": 45.4334, "lng": -73.1659}, "J3X": {"placeName": "Varennes", "provinceCode": "QC", "lat": 45.6834, "lng": -73.4325}, "J4B": {"placeName": "Boucherville", "provinceCode": "QC", "lat": 45.591, "lng": -73.4361}, "J4P": {"placeName": "Saint-Lambert North", "provinceCode": "QC", "lat": 45.5073, "lng": -73.5082}, "J4R": {"placeName": "Saint-Lambert Central", "provinceCode": "QC", "lat": 45.4924, "lng": -73.5009}, "J4S": {"placeName": "Saint-Lambert South", "provinceCode": "QC", "lat": 45.481, "lng": -73.497}, "J4W": {"placeName": "Brossard Northwest", "provinceCode": "QC", "lat": 45.4674, "lng": -73.4832}, "J4X": {"placeName": "Brossard Southwest", "provinceCode": "QC", "lat": 45.4455, "lng": -73.4841}, "J4Y": {"placeName": "Brossard South", "provinceCode": "QC", "lat": 45.4414, "lng": -73.4561}, "J4Z": {"placeName": "Brossard Northeast", "provinceCode": "QC", "lat": 45.4424, "lng": -73.4231}, "J5A": {"placeName": "Saint-Constant", "provinceCode": "QC", "lat": 45.3668, "lng": -73.5659}, "J5B": {"placeName": "Delson", "provinceCode": "QC", "lat": 45.3668, "lng": -73.5492}, "J5C": {"placeName": "Sainte-Catherine", "provinceCode": "QC", "lat": 45.4001, "lng": -73.5825}, "J5R": {"placeName": "La Prairie", "provinceCode": "QC", "lat": 45.4168, "lng": -73.4992}, "J6J": {"placeName": "Ch\u00e2teauguay North", "provinceCode": "QC", "lat": 45.3691, "lng": -73.7216}, "J6K": {"placeName": "Ch\u00e2teauguay South", "provinceCode": "QC", "lat": 45.3526, "lng": -73.7305}, "J6N": {"placeName": "Beauharnois", "provinceCode": "QC", "lat": 45.3168, "lng": -73.8659}, "J6R": {"placeName": "Mercier", "provinceCode": "QC", "lat": 45.3168, "lng": -73.7492}, "J6S": {"placeName": "Salaberry-de-Valleyfield North", "provinceCode": "QC", "lat": 45.2702, "lng": -74.0482}, "J6T": {"placeName": "Salaberry-de-Valleyfield South", "provinceCode": "QC", "lat": 45.2409, "lng": -74.1098}, "J7V": {"placeName": "Vaudreuil-Dorion", "provinceCode": "QC", "lat": 45.4001, "lng": -74.0325}, "G0P": {"placeName": "Centre-du-Qu\u00e9bec-Est (Saint-Val\u00e8re)", "provinceCode": "QC", "lat": 46.0119, "lng": -71.7199}, "G0Z": {"placeName": "Centre-du-Qu\u00e9bec-Nord (Daveluyville)", "provinceCode": "QC", "lat": 46.179, "lng": -72.1569}, "G6L": {"placeName": "Plessisville", "provinceCode": "QC", "lat": 46.2186, "lng": -71.762}, "G6P": {"placeName": "Victoriaville Central", "provinceCode": "QC", "lat": 46.0529, "lng": -71.9477}, "G6T": {"placeName": "Victoriaville Northwest", "provinceCode": "QC", "lat": 46.0828, "lng": -71.9728}, "J0A": {"placeName": "Centre-du-Qu\u00e9bec-Sud (Warwick)", "provinceCode": "QC", "lat": 45.8382, "lng": -71.9542}, "J0C": {"placeName": "Centre-du-Qu\u00e9bec-Ouest (Saint-Bonaventure)", "provinceCode": "QC", "lat": 45.8567, "lng": -72.6966}, "J2A": {"placeName": "Drummondville Southeast", "provinceCode": "QC", "lat": 45.8152, "lng": -72.4027}, "J2C": {"placeName": "Drummondville Central", "provinceCode": "QC", "lat": 45.8893, "lng": -72.5055}, "J2E": {"placeName": "Drummondville Northwest", "provinceCode": "QC", "lat": 45.9099, "lng": -72.5289}, "J3T": {"placeName": "Nicolet", "provinceCode": "QC", "lat": 46.2168, "lng": -72.6158}, "G0B": {"placeName": "Cap-aux-Meules", "provinceCode": "QC", "lat": 47.4501, "lng": -72.9913}, "G0C": {"placeName": "Gasp\u00e9sie-Sud (New Richmond)", "provinceCode": "QC", "lat": 48.3429, "lng": -65.5961}, "G0E": {"placeName": "Gasp\u00e9sie-Nord (Grande-Vall\u00e9e)", "provinceCode": "QC", "lat": 48.9182, "lng": -65.3736}, "G0H": {"placeName": "Manicouagan (Baie-Trinit\u00e9)", "provinceCode": "QC", "lat": 49.3795, "lng": -67.8948}, "G0J": {"placeName": "Gasp\u00e9sie-Ouest (Causapscal)", "provinceCode": "QC", "lat": 48.5246, "lng": -67.0565}, "G0K": {"placeName": "Bas-St-Laurent-Est (Sainte-Luce)", "provinceCode": "QC", "lat": 48.159, "lng": -68.1951}, "G0L": {"placeName": "Bas-St-Laurent-Ouest (Trois-Pistoles)", "provinceCode": "QC", "lat": 47.7136, "lng": -69.1658}, "G0M": {"placeName": "R\u00e9gion de Beauce (Saint-Prosper-De-Dorchester)", "provinceCode": "QC", "lat": 45.9718, "lng": -70.6565}, "G0N": {"placeName": "Chaudi\u00e8re-Sud (Disraeli)", "provinceCode": "QC", "lat": 46.0988, "lng": -71.1248}, "G0R": {"placeName": "Appalaches (La Pocati\u00e8re)", "provinceCode": "QC", "lat": 46.798, "lng": -70.3288}, "G0S": {"placeName": "Chaudi\u00e8re-Nord (Saint-Joseph-De-Beauce)", "provinceCode": "QC", "lat": 46.4526, "lng": -71.4397}, "G0T": {"placeName": "Le Fjord (Forestville)", "provinceCode": "QC", "lat": 49.0143, "lng": -69.6231}, "G0V": {"placeName": "Saguenay-Lac-St-Jean (Alouette)", "provinceCode": "QC", "lat": 50.1719, "lng": -70.6283}, "G0W": {"placeName": "R\u00e9gion de Mistassini (Chambord)", "provinceCode": "QC", "lat": 49.834, "lng": -72.2623}, "G0Y": {"placeName": "L'Erable (Nantes)", "provinceCode": "QC", "lat": 45.6242, "lng": -71.0191}, "G1B": {"placeName": "Beauport North", "provinceCode": "QC", "lat": 46.9263, "lng": -71.2258}, "G1C": {"placeName": "Beauport Central", "provinceCode": "QC", "lat": 46.8801, "lng": -71.196}, "G1E": {"placeName": "Beauport South", "provinceCode": "QC", "lat": 46.8588, "lng": -71.192}, "G1G": {"placeName": "Jean-Talon Southeast", "provinceCode": "QC", "lat": 46.8765, "lng": -71.2839}, "G1H": {"placeName": "Charlesbourg South", "provinceCode": "QC", "lat": 46.8528, "lng": -71.2573}, "G1V": {"placeName": "Sainte-Foy Northeast", "provinceCode": "QC", "lat": 46.7823, "lng": -71.2882}, "G1W": {"placeName": "Sainte-Foy Southeast", "provinceCode": "QC", "lat": 46.7589, "lng": -71.298}, "G1X": {"placeName": "Sainte-Foy West", "provinceCode": "QC", "lat": 46.7749, "lng": -71.3344}, "G1Y": {"placeName": "Cap-Rouge", "provinceCode": "QC", "lat": 46.7507, "lng": -71.3562}, "G2A": {"placeName": "Loretteville North", "provinceCode": "QC", "lat": 46.8751, "lng": -71.392}, "G2B": {"placeName": "Loretteville South", "provinceCode": "QC", "lat": 46.8505, "lng": -71.3357}, "G2G": {"placeName": "L'Ancienne-Lorette Southwest", "provinceCode": "QC", "lat": 46.7903, "lng": -71.4157}, "G2L": {"placeName": "Charlesbourg North", "provinceCode": "QC", "lat": 46.8895, "lng": -71.2545}, "G2M": {"placeName": "Jean-Talon Northeast", "provinceCode": "QC", "lat": 46.922, "lng": -71.3056}, "G2N": {"placeName": "Jean-Talon West", "provinceCode": "QC", "lat": 46.9137, "lng": -71.3398}, "G3A": {"placeName": "St-Augustin-De-Desmaures", "provinceCode": "QC", "lat": 46.7406, "lng": -71.4513}, "G3E": {"placeName": "Saint-\u00c9mile", "provinceCode": "QC", "lat": 46.8779, "lng": -71.3408}, "G3G": {"placeName": "Lac-Saint-Charles", "provinceCode": "QC", "lat": 46.9242, "lng": -71.3958}, "G3J": {"placeName": "Val-B\u00e9lair North", "provinceCode": "QC", "lat": 46.8603, "lng": -71.4752}, "G3K": {"placeName": "Val-B\u00e9lair South", "provinceCode": "QC", "lat": 46.8315, "lng": -71.4429}, "G3L": {"placeName": "Saint-Raymond", "provinceCode": "QC", "lat": 47.2374, "lng": -71.8763}, "G4R": {"placeName": "Sept-\u00celes Southeast", "provinceCode": "QC", "lat": 50.8558, "lng": -67.0511}, "G4T": {"placeName": "Les \u00celes-De-La-Madeleine", "provinceCode": "QC", "lat": 47.3999, "lng": -61.7996}, "G4V": {"placeName": "Sainte-Anne-Des-Monts", "provinceCode": "QC", "lat": 48.9711, "lng": -66.3082}, "G4Z": {"placeName": "Baie-Comeau Northeast", "provinceCode": "QC", "lat": 51.0872, "lng": -68.632}, "G5C": {"placeName": "Baie-Comeau Southwest", "provinceCode": "QC", "lat": 50.3474, "lng": -69.0411}, "G5T": {"placeName": "Degelis", "provinceCode": "QC", "lat": 47.5473, "lng": -68.6431}, "G6B": {"placeName": "Lac-Megantic", "provinceCode": "QC", "lat": 45.5834, "lng": -70.8823}, "G6C": {"placeName": "Pintendre", "provinceCode": "QC", "lat": 46.7701, "lng": -71.0906}, "G6H": {"placeName": "Black Lake", "provinceCode": "QC", "lat": 46.07, "lng": -71.4393}, "G6J": {"placeName": "Saint-Etienne-De-Lauzon", "provinceCode": "QC", "lat": 46.6358, "lng": -71.3098}, "G6K": {"placeName": "Saint-Redempteur", "provinceCode": "QC", "lat": 46.688, "lng": -71.3028}, "G6R": {"placeName": "Victoriaville South", "provinceCode": "QC", "lat": 46.016, "lng": -71.9561}, "G6S": {"placeName": "Victoriaville East", "provinceCode": "QC", "lat": 46.0264, "lng": -71.8719}, "G6X": {"placeName": "Charny", "provinceCode": "QC", "lat": 46.7151, "lng": -71.2612}, "G6Z": {"placeName": "Saint-Jean-Chrysostome", "provinceCode": "QC", "lat": 46.6901, "lng": -71.1849}, "G7A": {"placeName": "Saint-Nicolas", "provinceCode": "QC", "lat": 46.6842, "lng": -71.3827}, "G7B": {"placeName": "La Baie", "provinceCode": "QC", "lat": 48.3398, "lng": -70.8893}, "G7G": {"placeName": "Chicoutimi North", "provinceCode": "QC", "lat": 48.445, "lng": -71.1025}, "G7H": {"placeName": "Chicoutimi East", "provinceCode": "QC", "lat": 48.4187, "lng": -71.0417}, "G7J": {"placeName": "Chicoutimi West", "provinceCode": "QC", "lat": 48.4175, "lng": -71.1031}, "G7K": {"placeName": "Chicoutimi Southwest", "provinceCode": "QC", "lat": 48.3689, "lng": -71.1175}, "G7N": {"placeName": "Laterri\u00e8re", "provinceCode": "QC", "lat": 48.2007, "lng": -71.1426}, "G7S": {"placeName": "Jonqui\u00e8re Northeast", "provinceCode": "QC", "lat": 48.4294, "lng": -71.1774}, "G7T": {"placeName": "Jonqui\u00e8re Southeast", "provinceCode": "QC", "lat": 48.3975, "lng": -71.1527}, "G7X": {"placeName": "Jonqui\u00e8re Central", "provinceCode": "QC", "lat": 48.3199, "lng": -71.4149}, "G7Y": {"placeName": "Jonqui\u00e8re Southwest", "provinceCode": "QC", "lat": 48.3701, "lng": -71.2358}, "G7Z": {"placeName": "Jonqui\u00e8re Northwest", "provinceCode": "QC", "lat": 48.4381, "lng": -71.2642}, "G8A": {"placeName": "Jonqui\u00e8re West", "provinceCode": "QC", "lat": 48.4233, "lng": -71.3629}, "G8G": {"placeName": "M\u00e9tabetchouan-Lac-a-la-Croix", "provinceCode": "QC", "lat": 47.8076, "lng": -71.5907}, "G8T": {"placeName": "Cap-de-la-Madeleine Central and southeast", "provinceCode": "QC", "lat": 46.3877, "lng": -72.5357}, "G8V": {"placeName": "Cap-de-la-Madeleine Northeast", "provinceCode": "QC", "lat": 46.4098, "lng": -72.4908}, "G8W": {"placeName": "Cap-de-la-Madeleine West", "provinceCode": "QC", "lat": 46.4176, "lng": -72.6372}, "G8Y": {"placeName": "Trois-Rivi\u00e8res Central", "provinceCode": "QC", "lat": 46.3668, "lng": -72.6168}, "G8Z": {"placeName": "Trois-Rivi\u00e8res Northeast", "provinceCode": "QC", "lat": 46.3458, "lng": -72.5716}, "G9A": {"placeName": "Trois-Rivi\u00e8res East", "provinceCode": "QC", "lat": 46.3695, "lng": -72.6789}, "G9B": {"placeName": "Trois-Rivi\u00e8res South", "provinceCode": "QC", "lat": 46.316, "lng": -72.6833}, "G9C": {"placeName": "Trois-Rivi\u00e8res West", "provinceCode": "QC", "lat": 46.3922, "lng": -72.6725}, "G9H": {"placeName": "Becancour", "provinceCode": "QC", "lat": 46.3334, "lng": -72.4324}, "G9N": {"placeName": "Shawinigan Central", "provinceCode": "QC", "lat": 46.5564, "lng": -72.7198}, "G9P": {"placeName": "Shawinigan Southeast", "provinceCode": "QC", "lat": 46.5068, "lng": -72.7436}, "G9R": {"placeName": "Shawinigan Northwest", "provinceCode": "QC", "lat": 46.6098, "lng": -72.8266}, "G9T": {"placeName": "Grand-M\u00e8re", "provinceCode": "QC", "lat": 46.6315, "lng": -72.737}, "H0H": {"placeName": "Reserved (Santa Claus)", "provinceCode": "QC", "lat": 90.0, "lng": 0.0}, "H0M": {"placeName": "Akwesasne Region (Akwesasne)", "provinceCode": "QC", "lat": 45.6986, "lng": -73.5025}, "H1A": {"placeName": "Pointe-Aux-Trembles", "provinceCode": "QC", "lat": 45.6753, "lng": -73.5016}, "H1C": {"placeName": "Rivi\u00e8re-des-Prairies Northeast", "provinceCode": "QC", "lat": 45.6656, "lng": -73.5367}, "H1E": {"placeName": "Rivi\u00e8re-Des-Prairies Southwest", "provinceCode": "QC", "lat": 45.6342, "lng": -73.5842}, "H1J": {"placeName": "Anjou West", "provinceCode": "QC", "lat": 45.6097, "lng": -73.5794}, "H1K": {"placeName": "Anjou East", "provinceCode": "QC", "lat": 45.6097, "lng": -73.5472}, "H1L": {"placeName": "Mercier North", "provinceCode": "QC", "lat": 45.6043, "lng": -73.5178}, "H1M": {"placeName": "Mercier West", "provinceCode": "QC", "lat": 45.5883, "lng": -73.5572}, "H1N": {"placeName": "Mercier Southeast", "provinceCode": "QC", "lat": 45.5779, "lng": -73.5304}, "H1P": {"placeName": "Saint-L\u00e9onard North", "provinceCode": "QC", "lat": 45.5966, "lng": -73.5928}, "H1R": {"placeName": "Saint-L\u00e9onard West", "provinceCode": "QC", "lat": 45.5864, "lng": -73.6082}, "H1S": {"placeName": "Saint-L\u00e9onard Southeast", "provinceCode": "QC", "lat": 45.5808, "lng": -73.5825}, "H1T": {"placeName": "Rosemont North", "provinceCode": "QC", "lat": 45.573, "lng": -73.5701}, "H1V": {"placeName": "Maisonneuve", "provinceCode": "QC", "lat": 45.5585, "lng": -73.5386}, "H1W": {"placeName": "Hochelaga", "provinceCode": "QC", "lat": 45.5442, "lng": -73.5468}, "H1X": {"placeName": "Rosemont Central", "provinceCode": "QC", "lat": 45.5583, "lng": -73.5701}, "H1Y": {"placeName": "Rosemont South", "provinceCode": "QC", "lat": 45.5486, "lng": -73.5788}, "H1Z": {"placeName": "Saint-Michel West", "provinceCode": "QC", "lat": 45.5694, "lng": -73.6221}, "H2A": {"placeName": "Saint-Michel East", "provinceCode": "QC", "lat": 45.5618, "lng": -73.599}, "H2B": {"placeName": "Ahuntsic North", "provinceCode": "QC", "lat": 45.5741, "lng": -73.6507}, "H2C": {"placeName": "Ahuntsic Central", "provinceCode": "QC", "lat": 45.5606, "lng": -73.6584}, "H2E": {"placeName": "Villeray Northeast", "provinceCode": "QC", "lat": 45.5514, "lng": -73.6116}, "H2G": {"placeName": "Petite-Patrie Northeast", "provinceCode": "QC", "lat": 45.5438, "lng": -73.5927}, "H2H": {"placeName": "Plateau Mont-Royal North", "provinceCode": "QC", "lat": 45.5374, "lng": -73.5735}, "H2J": {"placeName": "Plateau Mont-Royal North Central", "provinceCode": "QC", "lat": 45.5302, "lng": -73.5831}, "H2K": {"placeName": "Centre-Sud North", "provinceCode": "QC", "lat": 45.5307, "lng": -73.5547}, "H2L": {"placeName": "Centre-Sud South", "provinceCode": "QC", "lat": 45.5186, "lng": -73.5545}, "H2M": {"placeName": "Ahuntsic East", "provinceCode": "QC", "lat": 45.5528, "lng": -73.6411}, "H2N": {"placeName": "Ahuntsic Southeast", "provinceCode": "QC", "lat": 45.5394, "lng": -73.6513}, "H2P": {"placeName": "Villeray West", "provinceCode": "QC", "lat": 45.5435, "lng": -73.6339}, "H2R": {"placeName": "Villeray Southeast", "provinceCode": "QC", "lat": 45.5401, "lng": -73.6225}, "H2S": {"placeName": "Petite-Patrie Southwest", "provinceCode": "QC", "lat": 45.5354, "lng": -73.6061}, "H2T": {"placeName": "Plateau Mont-Royal West", "provinceCode": "QC", "lat": 45.5247, "lng": -73.5953}, "H2V": {"placeName": "Outremont", "provinceCode": "QC", "lat": 45.5168, "lng": -73.6072}, "H2W": {"placeName": "Plateau Mont-Royal South Central", "provinceCode": "QC", "lat": 45.5176, "lng": -73.5804}, "H2X": {"placeName": "Plateau Mont-Royal Southeast", "provinceCode": "QC", "lat": 45.5115, "lng": -73.5683}, "H3C": {"placeName": "Griffintown (Includes \u00cele Notre-Dame & \u00cele Sainte-H\u00e9l\u00e8ne)", "provinceCode": "QC", "lat": 45.498, "lng": -73.5472}, "H3E": {"placeName": "L'\u00cele-Des-Soeurs", "provinceCode": "QC", "lat": 45.4594, "lng": -73.5501}, "H3J": {"placeName": "Petite-Bourgogne", "provinceCode": "QC", "lat": 45.4861, "lng": -73.5732}, "H3K": {"placeName": "Pointe-Saint-Charles", "provinceCode": "QC", "lat": 45.4805, "lng": -73.5554}, "H3L": {"placeName": "Ahuntsic Southwest", "provinceCode": "QC", "lat": 45.5467, "lng": -73.6718}, "H3M": {"placeName": "Cartierville Northeast", "provinceCode": "QC", "lat": 45.5383, "lng": -73.6932}, "H3N": {"placeName": "Parc-Extension", "provinceCode": "QC", "lat": 45.5302, "lng": -73.6327}, "H3P": {"placeName": "Mount Royal North", "provinceCode": "QC", "lat": 45.5217, "lng": -73.6393}, "H3R": {"placeName": "Mount Royal Central", "provinceCode": "QC", "lat": 45.5101, "lng": -73.6478}, "H3S": {"placeName": "C\u00f4te-des-Neiges North", "provinceCode": "QC", "lat": 45.5063, "lng": -73.6297}, "H3T": {"placeName": "C\u00f4te-des-Neiges Northeast", "provinceCode": "QC", "lat": 45.5018, "lng": -73.6191}, "H3V": {"placeName": "C\u00f4te-des-Neiges East", "provinceCode": "QC", "lat": 45.499, "lng": -73.6089}, "H3W": {"placeName": "C\u00f4te-des-Neiges Southwest", "provinceCode": "QC", "lat": 45.4897, "lng": -73.6312}, "H4A": {"placeName": "Notre-Dame-de-Gr\u00e2ce Northeast", "provinceCode": "QC", "lat": 45.4717, "lng": -73.6149}, "H4B": {"placeName": "Notre-Dame-de-Gr\u00e2ce Southwest", "provinceCode": "QC", "lat": 45.4604, "lng": -73.6303}, "H4C": {"placeName": "Saint-Henri", "provinceCode": "QC", "lat": 45.4737, "lng": -73.5882}, "H4E": {"placeName": "Ville \u00c9mard", "provinceCode": "QC", "lat": 45.4546, "lng": -73.5985}, "H4G": {"placeName": "Verdun North", "provinceCode": "QC", "lat": 45.4643, "lng": -73.5698}, "H4H": {"placeName": "Verdun South", "provinceCode": "QC", "lat": 45.4459, "lng": -73.5815}, "H4J": {"placeName": "Cartierville Central", "provinceCode": "QC", "lat": 45.5313, "lng": -73.7091}, "H4K": {"placeName": "Cartierville Southwest", "provinceCode": "QC", "lat": 45.5171, "lng": -73.7363}, "H4L": {"placeName": "Saint-Laurent Inner Northeast", "provinceCode": "QC", "lat": 45.517, "lng": -73.6831}, "H4M": {"placeName": "Saint-Laurent East", "provinceCode": "QC", "lat": 45.4979, "lng": -73.6886}, "H4N": {"placeName": "Saint-Laurent Outer Northeast", "provinceCode": "QC", "lat": 45.5263, "lng": -73.6649}, "H4P": {"placeName": "Mount Royal South", "provinceCode": "QC", "lat": 45.4964, "lng": -73.6647}, "H4R": {"placeName": "Saint-Laurent Central", "provinceCode": "QC", "lat": 45.5049, "lng": -73.7142}, "H4S": {"placeName": "Saint-Laurent Southwest", "provinceCode": "QC", "lat": 45.4858, "lng": -73.7433}, "H4T": {"placeName": "Saint-Laurent Southeast", "provinceCode": "QC", "lat": 45.4752, "lng": -73.6961}, "H4V": {"placeName": "C\u00f4te-Saint-Luc East", "provinceCode": "QC", "lat": 45.4671, "lng": -73.6487}, "H4Y": {"placeName": "Dorval Central", "provinceCode": "QC", "lat": 45.8654, "lng": -72.7614}, "H4Z": {"placeName": "Tour de la Bourse", "provinceCode": "QC", "lat": 45.5061, "lng": -73.5573}, "H5A": {"placeName": "Place Bonaventure", "provinceCode": "QC", "lat": 45.4992, "lng": -73.5646}, "H5B": {"placeName": "Place Desjardins", "provinceCode": "QC", "lat": 45.5066, "lng": -73.5623}, "H7A": {"placeName": "Duvernay-Est", "provinceCode": "QC", "lat": 45.6739, "lng": -73.5924}, "H7B": {"placeName": "Saint-Fran\u00feois", "provinceCode": "QC", "lat": 45.6757, "lng": -73.6388}, "H7C": {"placeName": "Saint-Vincent-de-Paul", "provinceCode": "QC", "lat": 45.6168, "lng": -73.6492}, "H7E": {"placeName": "Duvernay", "provinceCode": "QC", "lat": 45.6225, "lng": -73.6949}, "H7G": {"placeName": "Pont-Viau", "provinceCode": "QC", "lat": 45.5771, "lng": -73.6873}, "H7H": {"placeName": "Auteuil West", "provinceCode": "QC", "lat": 45.6409, "lng": -73.7542}, "H7J": {"placeName": "Auteuil Northeast", "provinceCode": "QC", "lat": 45.6625, "lng": -73.7002}, "H7K": {"placeName": "Auteuil South", "provinceCode": "QC", "lat": 45.6213, "lng": -73.7398}, "H7L": {"placeName": "Sainte-Rose", "provinceCode": "QC", "lat": 45.6168, "lng": -73.7825}, "H7M": {"placeName": "Vimont", "provinceCode": "QC", "lat": 45.5984, "lng": -73.7159}, "H7P": {"placeName": "Fabreville", "provinceCode": "QC", "lat": 45.578, "lng": -73.8004}, "H7S": {"placeName": "Chomedey Northeast", "provinceCode": "QC", "lat": 45.5793, "lng": -73.7367}, "H7T": {"placeName": "Chomedey Northwest", "provinceCode": "QC", "lat": 45.5573, "lng": -73.7725}, "H7V": {"placeName": "Chomedey East", "provinceCode": "QC", "lat": 45.5478, "lng": -73.7368}, "H7W": {"placeName": "Chomedey South", "provinceCode": "QC", "lat": 45.5338, "lng": -73.7652}, "H7X": {"placeName": "Sainte-Doroth\u00e9e", "provinceCode": "QC", "lat": 45.5334, "lng": -73.8159}, "H7Y": {"placeName": "\u00celes-Laval", "provinceCode": "QC", "lat": 45.5284, "lng": -73.8509}, "H8N": {"placeName": "LaSalle Northwest", "provinceCode": "QC", "lat": 45.438, "lng": -73.6215}, "H8P": {"placeName": "LaSalle Southeast", "provinceCode": "QC", "lat": 45.4011, "lng": -73.619}, "H8R": {"placeName": "Saint-Pierre", "provinceCode": "QC", "lat": 45.3994, "lng": -73.6506}, "H8S": {"placeName": "Lachine East", "provinceCode": "QC", "lat": 45.4402, "lng": -73.6747}, "H8T": {"placeName": "Lachine West", "provinceCode": "QC", "lat": 45.4419, "lng": -73.7057}, "H8Y": {"placeName": "Roxboro", "provinceCode": "QC", "lat": 45.5084, "lng": -73.8075}, "H8Z": {"placeName": "Pierrefonds", "provinceCode": "QC", "lat": 45.5069, "lng": -73.8407}, "H9A": {"placeName": "Dollard-Des-Ormeaux Northwest", "provinceCode": "QC", "lat": 45.4948, "lng": -73.8317}, "H9B": {"placeName": "Dollard-Des-Ormeaux East", "provinceCode": "QC", "lat": 45.4897, "lng": -73.7958}, "H9C": {"placeName": "L'\u00cele Bizard Northeast", "provinceCode": "QC", "lat": 45.5055, "lng": -73.8789}, "H9E": {"placeName": "L'\u00cele-Bizard Southwest", "provinceCode": "QC", "lat": 45.4865, "lng": -73.9092}, "H9G": {"placeName": "Dollard-Des-Ormeaux Southwest", "provinceCode": "QC", "lat": 45.4756, "lng": -73.8367}, "H9H": {"placeName": "Sainte-Genevi\u00e8ve", "provinceCode": "QC", "lat": 45.4683, "lng": -73.8565}, "H9K": {"placeName": "Senneville", "provinceCode": "QC", "lat": 45.4577, "lng": -73.9162}, "H9S": {"placeName": "L'\u00cele-Dorval", "provinceCode": "QC", "lat": 45.4414, "lng": -73.7749}, "H9X": {"placeName": "Sainte-Anne-De-Bellevue", "provinceCode": "QC", "lat": 45.4062, "lng": -73.9456}, "J0E": {"placeName": "Estrie-Ouest (Fulford)", "provinceCode": "QC", "lat": 45.2831, "lng": -72.5244}, "J0G": {"placeName": "Bois-Francs-Nord (Odanak)", "provinceCode": "QC", "lat": 46.021, "lng": -72.8239}, "J0H": {"placeName": "Bois-Francs-Sud (Saint-Nazaire-D'Acton)", "provinceCode": "QC", "lat": 45.6609, "lng": -72.77}, "J0M": {"placeName": "Nunavik (Kuujjuaq)", "provinceCode": "QC", "lat": 58.3269, "lng": -72.1637}, "J0N": {"placeName": "R\u00e9gion d'Oka (Oka)", "provinceCode": "QC", "lat": 45.5135, "lng": -74.0534}, "J0P": {"placeName": "Vaudreuil-Soulanges (Coteau-du-Lac)", "provinceCode": "QC", "lat": 45.3655, "lng": -74.312}, "J0R": {"placeName": "Lanaudi\u00e8re-Sud (Pr\u00e9vost)", "provinceCode": "QC", "lat": 45.866, "lng": -74.1785}, "J0V": {"placeName": "Laurentides-Sud (Ch\u00e9n\u00e9ville)", "provinceCode": "QC", "lat": 45.8265, "lng": -74.9318}, "J0W": {"placeName": "Outaouais-Nord (Ferme-Neuve)", "provinceCode": "QC", "lat": 47.0921, "lng": -75.7967}, "J0Y": {"placeName": "Abitibi-T\u00e9miscamingue-Est (Radisson)", "provinceCode": "QC", "lat": 52.1046, "lng": -75.2807}, "J1A": {"placeName": "Coaticook", "provinceCode": "QC", "lat": 45.1334, "lng": -71.7991}, "J1C": {"placeName": "Bromptonville", "provinceCode": "QC", "lat": 45.4797, "lng": -71.9492}, "J1E": {"placeName": "Sherbrooke Northeast", "provinceCode": "QC", "lat": 45.4231, "lng": -71.8723}, "J1G": {"placeName": "Sherbrooke East", "provinceCode": "QC", "lat": 45.4024, "lng": -71.8479}, "J1H": {"placeName": "Sherbrooke Central", "provinceCode": "QC", "lat": 45.3891, "lng": -71.8986}, "J1J": {"placeName": "Sherbrooke North", "provinceCode": "QC", "lat": 45.4131, "lng": -71.9238}, "J1K": {"placeName": "Sherbrooke West", "provinceCode": "QC", "lat": 45.3822, "lng": -71.9327}, "J1L": {"placeName": "Sherbrooke Northwest", "provinceCode": "QC", "lat": 45.4113, "lng": -71.9586}, "J1M": {"placeName": "Sherbrooke Southeast", "provinceCode": "QC", "lat": 45.3656, "lng": -71.842}, "J1N": {"placeName": "Rock Forest", "provinceCode": "QC", "lat": 45.3395, "lng": -72.0128}, "J1R": {"placeName": "Saint-\u00c9lie-d'Orford", "provinceCode": "QC", "lat": 45.3966, "lng": -72.0422}, "J1Z": {"placeName": "Saint-Cyrille-De-Wendover", "provinceCode": "QC", "lat": 45.9334, "lng": -72.4324}, "J2B": {"placeName": "Drummondville South", "provinceCode": "QC", "lat": 45.9061, "lng": -72.5929}, "J2W": {"placeName": "Saint-Luc", "provinceCode": "QC", "lat": 45.3694, "lng": -73.3137}, "J3H": {"placeName": "Beloeil East", "provinceCode": "QC", "lat": 45.5527, "lng": -73.1755}, "J3N": {"placeName": "Saint-Basile-Le-Grand", "provinceCode": "QC", "lat": 45.5334, "lng": -73.2825}, "J3P": {"placeName": "Sorel Central", "provinceCode": "QC", "lat": 46.0365, "lng": -73.0665}, "J3R": {"placeName": "Sorel Southwest", "provinceCode": "QC", "lat": 46.0206, "lng": -73.1439}, "J3V": {"placeName": "Saint-Bruno", "provinceCode": "QC", "lat": 45.532, "lng": -73.3437}, "J3Y": {"placeName": "Saint-Hubert Central", "provinceCode": "QC", "lat": 45.4906, "lng": -73.3991}, "J3Z": {"placeName": "Saint-Hubert East", "provinceCode": "QC", "lat": 45.4981, "lng": -73.4012}, "J4G": {"placeName": "Longueuil North", "provinceCode": "QC", "lat": 45.5679, "lng": -73.4761}, "J4H": {"placeName": "Longueuil West", "provinceCode": "QC", "lat": 45.5372, "lng": -73.5056}, "J4J": {"placeName": "Longueuil Central", "provinceCode": "QC", "lat": 45.5362, "lng": -73.4721}, "J4K": {"placeName": "Longueuil Southwest", "provinceCode": "QC", "lat": 45.5183, "lng": -73.5023}, "J4L": {"placeName": "Longueuil Southeast", "provinceCode": "QC", "lat": 45.5181, "lng": -73.4576}, "J4M": {"placeName": "Longueuil East", "provinceCode": "QC", "lat": 45.5418, "lng": -73.4382}, "J4N": {"placeName": "Longueuil Northeast", "provinceCode": "QC", "lat": 45.5523, "lng": -73.4558}, "J4T": {"placeName": "Saint-Hubert West", "provinceCode": "QC", "lat": 45.4973, "lng": -73.4676}, "J4V": {"placeName": "Greenfield Park", "provinceCode": "QC", "lat": 45.4865, "lng": -73.4622}, "J5J": {"placeName": "Saint-Sophie", "provinceCode": "QC", "lat": 45.8306, "lng": -73.9191}, "J5W": {"placeName": "L'Assomption", "provinceCode": "QC", "lat": 45.8232, "lng": -73.4294}, "J6E": {"placeName": "Joliette", "provinceCode": "QC", "lat": 46.0168, "lng": -73.4492}, "J6Z": {"placeName": "Sainte-Th\u00e9r\u00e8se-de-Blainville Northeast", "provinceCode": "QC", "lat": 45.6694, "lng": -73.7752}, "J7A": {"placeName": "Sainte-Th\u00e9r\u00e8se-de-Blainville East", "provinceCode": "QC", "lat": 45.6383, "lng": -73.7975}, "J7B": {"placeName": "Sainte-Th\u00e9r\u00e8se-de-Blainville North", "provinceCode": "QC", "lat": 45.6602, "lng": -73.8157}, "J7C": {"placeName": "Sainte-Th\u00e9r\u00e8se-de-Blainville Northwest", "provinceCode": "QC", "lat": 45.689, "lng": -73.8671}, "J7G": {"placeName": "Sainte-Th\u00e9r\u00e8se-de-Blainville South", "provinceCode": "QC", "lat": 45.6095, "lng": -73.8378}, "J7H": {"placeName": "Sainte-Th\u00e9r\u00e8se-de-Blainville Southwest", "provinceCode": "QC", "lat": 45.6209, "lng": -73.8728}, "J7J": {"placeName": "Mirabel Northeast", "provinceCode": "QC", "lat": 45.7045, "lng": -73.9472}, "J7M": {"placeName": "La Plaine", "provinceCode": "QC", "lat": 45.7888, "lng": -73.7442}, "J7N": {"placeName": "Mirabel Southwest", "provinceCode": "QC", "lat": 45.6345, "lng": -74.1005}, "J7T": {"placeName": "Vaudreuil-Dorion RCM", "provinceCode": "QC", "lat": 45.3702, "lng": -74.1249}, "J7W": {"placeName": "Pincourt", "provinceCode": "QC", "lat": 45.3665, "lng": -73.9736}, "J7X": {"placeName": "Valleyfield", "provinceCode": "QC", "lat": 45.2691, "lng": -74.2339}, "J8C": {"placeName": "Sainte-Agathe-Des-Monts", "provinceCode": "QC", "lat": 46.0501, "lng": -74.2825}, "J8G": {"placeName": "Chatham", "provinceCode": "QC", "lat": 45.6834, "lng": -74.4159}, "J8L": {"placeName": "Buckingham", "provinceCode": "QC", "lat": 45.5856, "lng": -75.4208}, "J8M": {"placeName": "Masson-Angers", "provinceCode": "QC", "lat": 45.5435, "lng": -75.4274}, "J8P": {"placeName": "Gatineau Southeast", "provinceCode": "QC", "lat": 45.4869, "lng": -75.6157}, "J8R": {"placeName": "Gatineau Northeast", "provinceCode": "QC", "lat": 45.5287, "lng": -75.6088}, "J8T": {"placeName": "Gatineau Southwest", "provinceCode": "QC", "lat": 45.4776, "lng": -75.7059}, "J8V": {"placeName": "Gatineau Northwest", "provinceCode": "QC", "lat": 45.5711, "lng": -75.7615}, "J8X": {"placeName": "Hull Southeast", "provinceCode": "QC", "lat": 45.44, "lng": -75.7119}, "J8Y": {"placeName": "Hull Central", "provinceCode": "QC", "lat": 45.448, "lng": -75.7434}, "J8Z": {"placeName": "Hull North", "provinceCode": "QC", "lat": 45.4716, "lng": -75.7616}, "J9A": {"placeName": "Hull Southwest", "provinceCode": "QC", "lat": 45.4279, "lng": -75.7711}, "J9H": {"placeName": "Aylmer South", "provinceCode": "QC", "lat": 45.3932, "lng": -75.8288}, "J9J": {"placeName": "Aylmer North", "provinceCode": "QC", "lat": 45.4394, "lng": -75.8465}, "J9X": {"placeName": "Rouyn-Noranda South", "provinceCode": "QC", "lat": 48.2855, "lng": -78.8234}, "J9Y": {"placeName": "Rouyn-Noranda North", "provinceCode": "QC", "lat": 48.1607, "lng": -79.0714}, "S0A": {"placeName": "Yorkton Region (Melville)", "provinceCode": "SK", "lat": 51.4818, "lng": -102.9065}, "S0C": {"placeName": "Southeastern Saskatchewan (Carlyle)", "provinceCode": "SK", "lat": 49.3961, "lng": -103.2567}, "S0E": {"placeName": "Eastern Saskatchewan (Melfort)", "provinceCode": "SK", "lat": 53.1363, "lng": -103.0999}, "S0G": {"placeName": "South Central Saskatchewan (Fort Qu'Appelle)", "provinceCode": "SK", "lat": 50.5767, "lng": -104.1}, "S0H": {"placeName": "Southern Saskatchewan (Assiniboia)", "provinceCode": "SK", "lat": 49.9841, "lng": -106.249}, "S0J": {"placeName": "Northern Saskatchewan (La Ronge)", "provinceCode": "SK", "lat": 57.1992, "lng": -105.8242}, "S0K": {"placeName": "Central Saskatchewan (Humboldt)", "provinceCode": "SK", "lat": 52.3003, "lng": -107.9907}, "S0L": {"placeName": "Western Saskatchewan (Kindersley)", "provinceCode": "SK", "lat": 51.4827, "lng": -108.4898}, "S0M": {"placeName": "Northwestern Saskatchewan (Battleford)", "provinceCode": "SK", "lat": 54.9235, "lng": -108.9572}, "S0N": {"placeName": "Southwestern Saskatchewan (Maple Creek)", "provinceCode": "SK", "lat": 49.9116, "lng": -108.7236}, "S0P": {"placeName": "Northeastern Saskatchewan (Creighton)", "provinceCode": "SK", "lat": 55.0162, "lng": -102.7415}, "S2V": {"placeName": "Buena Vista", "provinceCode": "SK", "lat": 50.7834, "lng": -104.9511}, "S3N": {"placeName": "Yorkton", "provinceCode": "SK", "lat": 51.2167, "lng": -102.4677}, "S4A": {"placeName": "Estevan", "provinceCode": "SK", "lat": 49.1334, "lng": -102.9842}, "S4H": {"placeName": "Weyburn", "provinceCode": "SK", "lat": 49.6668, "lng": -103.8511}, "S4K": {"placeName": "Rm Of Sherwood", "provinceCode": "SK", "lat": 50.4501, "lng": -104.6178}, "S4L": {"placeName": "Regina East", "provinceCode": "SK", "lat": 50.4132, "lng": -104.2733}, "S4M": {"placeName": "Regina", "provinceCode": "SK", "lat": 50.4501, "lng": -104.6178}, "S4N": {"placeName": "Regina Northeast and East Central", "provinceCode": "SK", "lat": 50.4671, "lng": -104.541}, "S4P": {"placeName": "Regina Central", "provinceCode": "SK", "lat": 50.419, "lng": -104.6774}, "S4R": {"placeName": "Regina North Central", "provinceCode": "SK", "lat": 50.4855, "lng": -104.6163}, "S4S": {"placeName": "Regina South Saskatchewan Provincial Government", "provinceCode": "SK", "lat": 50.4153, "lng": -104.6103}, "S4T": {"placeName": "Regina West", "provinceCode": "SK", "lat": 50.4507, "lng": -104.665}, "S4V": {"placeName": "Regina Southeast", "provinceCode": "SK", "lat": 50.4251, "lng": -104.5389}, "S4W": {"placeName": "Regina Southwest", "provinceCode": "SK", "lat": 50.4078, "lng": -104.6536}, "S4X": {"placeName": "Regina Northwest", "provinceCode": "SK", "lat": 50.5061, "lng": -104.6752}, "S4Y": {"placeName": "Regina Outer Northwest", "provinceCode": "SK", "lat": 50.4768, "lng": -104.6986}, "S4Z": {"placeName": "Regina Northeast", "provinceCode": "SK", "lat": 50.4497, "lng": -104.5323}, "S6H": {"placeName": "Moose Jaw Southeast", "provinceCode": "SK", "lat": 50.3895, "lng": -105.5578}, "S6J": {"placeName": "Moose Jaw Northeast", "provinceCode": "SK", "lat": 50.4185, "lng": -105.5393}, "S6K": {"placeName": "Moose Jaw West", "provinceCode": "SK", "lat": 50.454, "lng": -105.6418}, "S6V": {"placeName": "Prince Albert Central", "provinceCode": "SK", "lat": 54.493, "lng": -104.3049}, "S6W": {"placeName": "Prince Albert Southwest", "provinceCode": "SK", "lat": 53.1785, "lng": -105.7741}, "S6X": {"placeName": "Prince Albert East", "provinceCode": "SK", "lat": 53.1936, "lng": -105.7025}, "S7H": {"placeName": "Saskatoon East Central", "provinceCode": "SK", "lat": 52.1168, "lng": -106.6345}, "S7J": {"placeName": "Saskatoon South Central", "provinceCode": "SK", "lat": 52.0961, "lng": -106.6252}, "S7K": {"placeName": "Saskatoon North Central", "provinceCode": "SK", "lat": 52.0111, "lng": -106.7955}, "S7L": {"placeName": "Saskatoon West", "provinceCode": "SK", "lat": 52.1564, "lng": -106.6873}, "S7M": {"placeName": "Saskatoon Southwest", "provinceCode": "SK", "lat": 52.1133, "lng": -106.7235}, "S7N": {"placeName": "Saskatoon Northeast Central", "provinceCode": "SK", "lat": 52.1404, "lng": -106.608}, "S7P": {"placeName": "Saskatoon North", "provinceCode": "SK", "lat": 52.2751, "lng": -106.5005}, "S7R": {"placeName": "Saskatoon Northwest", "provinceCode": "SK", "lat": 52.1588, "lng": -106.7163}, "S7S": {"placeName": "Saskatoon Northeast", "provinceCode": "SK", "lat": 52.1609, "lng": -106.5864}, "S7T": {"placeName": "Saskatoon South", "provinceCode": "SK", "lat": 52.0403, "lng": -106.6595}, "S7V": {"placeName": "Saskatoon Southeast", "provinceCode": "SK", "lat": 52.0976, "lng": -106.5553}, "S7W": {"placeName": "Saskatoon", "provinceCode": "SK", "lat": 52.157, "lng": -106.5614}, "S9A": {"placeName": "North Battleford", "provinceCode": "SK", "lat": 52.7834, "lng": -108.2847}, "S9H": {"placeName": "Swift Current", "provinceCode": "SK", "lat": 50.2834, "lng": -107.8013}, "S9V": {"placeName": "Lloydminster", "provinceCode": "SK", "lat": 53.2835, "lng": -110.0016}, "S9X": {"placeName": "Meadow Lake", "provinceCode": "SK", "lat": 54.1335, "lng": -108.4347}, "Y0A": {"placeName": "Southeastern Yukon (Watson Lake)", "provinceCode": "YT", "lat": 61.5793, "lng": -131.1481}, "Y0B": {"placeName": "Central Yukon (Dawson City)", "provinceCode": "YT", "lat": 64.645, "lng": -137.536}, "Y1A": {"placeName": "Whitehorse", "provinceCode": "YT", "lat": 60.7161, "lng": -135.0537}}